{

{
  "type": "hospital",
  "id": 431633193,
  "lat": 31.7042279,
  "lon": 35.1021022,
  "tags": {
    "amenity": "hospital",
    "name": "Clinic",
    "name:ar": "عيادة",
    "name:en": "Clinic"
  }
},
{
  "type": "hospital",
  "id": 431633196,
  "lat": 31.6846882,
  "lon": 35.1200139,
  "tags": {
    "amenity": "hospital",
    "name": "Nahaleen health center",
    "name:ar": "مركز طبي نحالين"
  }
},
{
  "type": "hospital",
  "id": 431633198,
  "lat": 31.6834415,
  "lon": 35.1189266,
  "tags": {
    "amenity": "hospital",
    "name": "Nahalin Clinic",
    "name:ar": "عيادة نحالين"
  }
},
{
  "type": "hospital",
  "id": 431633199,
  "lat": 31.6830843,
  "lon": 35.1180266,
  "tags": {
    "amenity": "hospital",
    "name": "clinic",
    "name:ar": "عيادة"
  }
},
{
  "type": "hospital",
  "id": 431634485,
  "lat": 31.7043778,
  "lon": 35.1612877,
  "tags": {
    "amenity": "hospital",
    "name": "Al-Khader Center for Rehabilitation",
    "name:ar": "مركز الخضر لتأهيل المعاقين"
  }
},
{
  "type": "hospital",
  "id": 431635308,
  "lat": 31.7158972,
  "lon": 35.2028990,
  "tags": {
    "amenity": "hospital",
    "name": "Haya Health center",
    "name:ar": "مركز طبي هيا"
  }
},
{
  "type": "hospital",
  "id": 431635314,
  "lat": 31.6954860,
  "lon": 35.1824403,
  "tags": {
    "amenity": "hospital",
    "name": "Doha Purity Center of Surgery",
    "name:ar": "مركز نقاء الدوحة للجراحة"
  }
},
{
  "type": "hospital",
  "id": 431708802,
  "lat": 32.3501101,
  "lon": 35.3501111,
  "tags": {
    "amenity": "hospital",
    "name": "Akkaba Medical Clinic",
    "name:ar": "عيادة عقابة الطبية"
  }
},
{
  "type": "hospital",
  "id": 431720844,
  "lat": 32.5079908,
  "lon": 35.2273829,
  "tags": {
    "addr:city": "السيلة الحارثية",
    "amenity": "hospital",
    "building": "yes",
    "name": "الإغاثة الطبية",
    "name:ar": "الإغاثة الطبية",
    "name:en": "Medical Relief"
  }
},
{
  "type": "hospital",
  "id": 431721112,
  "lat": 32.3580902,
  "lon": 35.1973447,
  "tags": {
    "amenity": "hospital",
    "name": "Healthy Clinic",
    "name:ar": "عيادة صحية",
    "name:en": "Health clinic"
  }
},
{
  "type": "hospital",
  "id": 431722196,
  "lat": 32.3464317,
  "lon": 35.2761886,
  "tags": {
    "amenity": "hospital",
    "name": "Clinic",
    "name:ar": "مستوصف"
  }
},
{
  "type": "hospital",
  "id": 431729515,
  "lat": 32.4055541,
  "lon": 35.2055746,
  "tags": {
    "amenity": "hospital",
    "name": "Araba Health Center",
    "name:ar": "مركز عرابة الصحي"
  }
},
{
  "type": "hospital",
  "id": 431761555,
  "lat": 32.4024886,
  "lon": 35.2041478,
  "tags": {
    "amenity": "hospital",
    "name": "Red Crescent Society",
    "name:ar": "جمعية الهلال الاحمر الفلسطيني"
  }
},
{
  "type": "hospital",
  "id": 431769997,
  "lat": 32.5166580,
  "lon": 35.1861964,
  "tags": {
    "addr:city": "طيبة",
    "amenity": "hospital",
    "name": "عيادة طيبة",
    "name:ar": "عيادة طيبة",
    "name:en": "Taybah Clinic"
  }
},
{
  "type": "hospital",
  "id": 431799191,
  "lat": 32.5105390,
  "lon": 35.2265090,
  "tags": {
    "addr:city": "سيلة الحارثية",
    "amenity": "hospital",
    "name": "عيادة وكالة الغوث",
    "name:ar": "عيادة وكالة الغوث",
    "name:en": "UN Clinic"
  }
},
{
  "type": "hospital",
  "id": 431829628,
  "lat": 31.5154879,
  "lon": 35.0684283,
  "tags": {
    "amenity": "hospital",
    "name": "Red Crescent Society",
    "name:ar": "جمعيه الهلال الاحمر الفلسطيني"
  }
},
{
  "type": "hospital",
  "id": 431850794,
  "lat": 31.5587510,
  "lon": 35.1034094,
  "tags": {
    "amenity": "hospital",
    "name": "مستشفى الميزان التخصصي",
    "name:ar": "مستشفى الميزان التخصصي",
    "name:en": "Al Mizan Hospital"
  }
},
{
  "type": "hospital",
  "id": 431853811,
  "lat": 31.4487002,
  "lon": 35.0882394,
  "tags": {
    "amenity": "hospital",
    "name": "Clinic And Maternity Yata",
    "name:ar": "عيادة وأمومة يطا"
  }
},
{
  "type": "hospital",
  "id": 431901156,
  "lat": 31.4467262,
  "lon": 35.0850392,
  "tags": {
    "amenity": "hospital",
    "name": "Al-Mentar Charity Clinic",
    "name:ar": "عيادة المنطار الخيرية"
  }
},
{
  "type": "hospital",
  "id": 431919386,
  "lat": 32.2228117,
  "lon": 35.3139552,
  "tags": {
    "amenity": "hospital",
    "name": "Health Center",
    "name:ar": "مركز صحي"
  }
},
{
  "type": "hospital",
  "id": 431920698,
  "lat": 32.2255247,
  "lon": 35.2416936,
  "tags": {
    "amenity": "hospital",
    "name": "Rafidia Hospital",
    "name:ar": "مستشفى رفيديا"
  }
},
{
  "type": "hospital",
  "id": 431971839,
  "lat": 31.5317377,
  "lon": 35.0912764,
  "tags": {
    "amenity": "hospital",
    "name": "Palestinian Red Crescent Society",
    "name:ar": "جمعية الهلال الأحمر الفلسطيني"
  }
},
{
  "type": "hospital",
  "id": 431977294,
  "lat": 32.2233879,
  "lon": 35.2398405,
  "tags": {
    "amenity": "hospital",
    "name": "المستشفى العربي التخصصي",
    "name:ar": "المستشفى العربي",
    "name:en": "The Specialized Arabic Hospital"
  }
},
{
  "type": "hospital",
  "id": 432008824,
  "lat": 31.4486453,
  "lon": 35.0897138,
  "tags": {
    "amenity": "hospital",
    "name": "Al-Etemad Maternity Hospital",
    "name:ar": "مستشفى الإعتماد للولادة"
  }
},
{
  "type": "hospital",
  "id": 432037897,
  "lat": 31.5174285,
  "lon": 35.1558963,
  "tags": {
    "addr:city": "بني نعيم",
    "amenity": "hospital",
    "name": "مسنشفى بني نعيم",
    "name:ar": "مسنشفى بني نعيم",
    "name:en": "Bani N'eem Hospital"
  }
},
{
  "type": "hospital",
  "id": 432045374,
  "lat": 31.5565007,
  "lon": 35.0830924,
  "tags": {
    "amenity": "hospital",
    "name": "المستشفى الاهلي",
    "name:ar": "المستشفى الاهلي",
    "name:en": "Al Ahli Hospital"
  }
},
{
  "type": "hospital",
  "id": 432101121,
  "lat": 32.2088895,
  "lon": 35.3296484,
  "tags": {
    "amenity": "hospital",
    "name": "Salem Emregence Point",
    "name:ar": "مستوصف قريه سالم"
  }
},
{
  "type": "hospital",
  "id": 432172425,
  "lat": 32.2065201,
  "lon": 35.2643352,
  "tags": {
    "amenity": "hospital",
    "fixme": "name, name:ar mismatch. Flagged by SafwatHalaby_bot-nameCopy. name, name:ar mismatch. Flagged by SafwatHalaby_bot-nameCopy",
    "name": "مركز الامل Al Amal For Phisical Therapy مركز الامل",
    "name:ar": "مستشفى الامل للعلاج الطبيعي",
    "name:en": "مركز الامل Al Amal For Physical Therapy"
  }
},
{
  "type": "hospital",
  "id": 432184451,
  "lat": 32.2227088,
  "lon": 35.2624703,
  "tags": {
    "amenity": "hospital",
    "name": "Al Watani Hospital",
    "name:ar": "المستشفى الوطني"
  }
},
{
  "type": "hospital",
  "id": 432191026,
  "lat": 32.2286617,
  "lon": 35.2572065,
  "tags": {
    "amenity": "hospital",
    "name": "Al Itihad Hospital",
    "name:ar": "مستشفى الاتحاد"
  }
},
{
  "type": "hospital",
  "id": 432231986,
  "lat": 31.5040425,
  "lon": 35.0734530,
  "tags": {
    "amenity": "hospital",
    "name": "سان جون للعيون",
    "name:ar": "سان جون للعيون",
    "name:en": "St. John Eye Doctor"
  }
},
{
  "type": "hospital",
  "id": 432241036,
  "lat": 31.4499818,
  "lon": 35.0911515,
  "tags": {
    "amenity": "hospital",
    "name": "Naser Hospital Of Puplic Surgery",
    "name:ar": "مستشفى ناصر للجراحة العامة والجراحة النسائية والتوليد"
  }
},
{
  "type": "hospital",
  "id": 432248251,
  "lat": 31.5302644,
  "lon": 35.0999624,
  "tags": {
    "addr:city": "الخليل",
    "amenity": "hospital",
    "name": "مستشفى الملكة عاليا الحكومي",
    "name:ar": "مستشفى الملكة عاليا الحكومي",
    "name:en": "Queen Alia Hospital"
  }
},
{
  "type": "hospital",
  "id": 432251819,
  "lat": 31.5035291,
  "lon": 34.9488457,
  "tags": {
    "amenity": "hospital",
    "name": "Child Health Clinic",
    "name:ar": "عيادة صحة الطفل"
  }
},
{
  "type": "hospital",
  "id": 432254104,
  "lat": 31.5169496,
  "lon": 35.1102513,
  "tags": {
    "amenity": "hospital",
    "name": "Mohammad Ali Al Mohtaseb Hospital",
    "name:ar": "مستشفى محمد علي المحتسب",
    "name:en": "Mohammad Ali Al Mohtaseb Hospital"
  }
},
{
  "type": "hospital",
  "id": 432260889,
  "lat": 32.0474989,
  "lon": 35.1744755,
  "tags": {
    "amenity": "hospital",
    "name": "Mazar' Al Nubani Clinic",
    "name:ar": "عيادة مزارع النوباني"
  }
},
{
  "type": "hospital",
  "id": 432260897,
  "lat": 32.0475205,
  "lon": 35.1745337,
  "tags": {
    "amenity": "hospital",
    "name": "Adnan Hospital",
    "name:ar": "مستشفى عدنان"
  }
},
{
  "type": "hospital",
  "id": 432261052,
  "lat": 32.0341695,
  "lon": 35.1048826,
  "tags": {
    "amenity": "hospital",
    "name": "Bani Zaid Helth Center",
    "name:ar": "مركز صحي بني زيد"
  }
},
{
  "type": "hospital",
  "id": 432261332,
  "lat": 31.9457119,
  "lon": 35.0231711,
  "tags": {
    "amenity": "hospital",
    "name": "Child Clinic",
    "name:ar": "عيادة اطفال"
  }
},
{
  "type": "hospital",
  "id": 432261724,
  "lat": 31.8359132,
  "lon": 35.1458407,
  "tags": {
    "amenity": "hospital",
    "name": "Al Karmel Health Center",
    "name:ar": "نادي المستقبل الصحي"
  }
},
{
  "type": "hospital",
  "id": 432262376,
  "lat": 31.9904072,
  "lon": 35.1582816,
  "tags": {
    "amenity": "hospital",
    "name": "Health Clinic",
    "name:ar": "عيادة صحية"
  }
},
{
  "type": "hospital",
  "id": 432262720,
  "lat": 31.8968736,
  "lon": 35.2155159,
  "tags": {
    "addr:street": "Sateh Marhaba",
    "amenity": "hospital",
    "dispensing": "no",
    "name": "Al-Razi Eyes' Hospital",
    "name:ar": "مستشفى العيون",
    "name:en": "Al-Razi Eyes' Hospital"
  }
},
{
  "type": "hospital",
  "id": 432263427,
  "lat": 31.9283286,
  "lon": 35.0928778,
  "tags": {
    "amenity": "hospital",
    "name": "Kufur Nemah Health Center",
    "name:ar": "مركز صحي كفر نعمة"
  }
},
{
  "type": "hospital",
  "id": 432263431,
  "lat": 32.0368369,
  "lon": 35.2818580,
  "tags": {
    "amenity": "hospital",
    "name": "Turmus Ayaa Health Center",
    "name:ar": "مركز صحي ترمسعيا"
  }
},
{
  "type": "hospital",
  "id": 432263959,
  "lat": 31.8987158,
  "lon": 35.1909663,
  "tags": {
    "amenity": "hospital",
    "name": "Asdeka' El Mareed Association (Main Center)",
    "name:ar": "جمعية اصدقاء المريض(الفرع الرئيسي)",
    "name:en": "Asdeka' El Mareed Association (Main Center)"
  }
},
{
  "type": "hospital",
  "id": 432264048,
  "lat": 31.8345549,
  "lon": 35.1473081,
  "tags": {
    "amenity": "hospital",
    "name": "Al Eghatha Health Center",
    "name:ar": "مركز الاغاثة الصحي"
  }
},
{
  "type": "hospital",
  "id": 432264128,
  "lat": 31.8878730,
  "lon": 35.2160847,
  "tags": {
    "amenity": "hospital",
    "name": "Altanmeyah center",
    "name:en": "Altanmeyah center"
  }
},
{
  "type": "hospital",
  "id": 432264808,
  "lat": 31.9070237,
  "lon": 35.0584906,
  "tags": {
    "amenity": "hospital",
    "name": "Saffa Health Center",
    "name:ar": "مركز صحي صفا"
  }
},
{
  "type": "hospital",
  "id": 432265464,
  "lat": 31.9681631,
  "lon": 35.1071241,
  "tags": {
    "amenity": "hospital",
    "name": "Health Center",
    "name:ar": "مركز صحي"
  }
},
{
  "type": "hospital",
  "id": 432265668,
  "lat": 31.9116687,
  "lon": 35.2073805,
  "tags": {
    "amenity": "hospital",
    "name": "Alhilal AlAhmar Organization",
    "name:ar": "جمعية الهلال الاحمر",
    "name:en": "Alhilal AlAhmar Organization"
  }
},
{
  "type": "hospital",
  "id": 432266195,
  "lat": 31.9083794,
  "lon": 35.1429808,
  "tags": {
    "amenity": "hospital",
    "name": "Ein Arik clinic"
  }
},
{
  "type": "hospital",
  "id": 432266344,
  "lat": 31.9490793,
  "lon": 35.0439359,
  "tags": {
    "amenity": "hospital",
    "name": "Health Center",
    "name:ar": "مركز صحي"
  }
},
{
  "type": "hospital",
  "id": 432266717,
  "lat": 31.9665844,
  "lon": 35.0990514,
  "tags": {
    "amenity": "hospital",
    "name": "UNRWA Health Center",
    "name:ar": "مركز صحي الانوروا"
  }
},
{
  "type": "hospital",
  "id": 432266806,
  "lat": 31.8692399,
  "lon": 35.0639839,
  "tags": {
    "amenity": "hospital",
    "name": "Bait Liqya Health Center",
    "name:ar": "مركز صحي بيت لقيا"
  }
},
{
  "type": "hospital",
  "id": 432266881,
  "lat": 31.9351974,
  "lon": 35.0059505,
  "tags": {
    "amenity": "hospital",
    "name": "Medya Health Clinic",
    "name:ar": "مركز صحي ميديا",
    "name:en": "Medya Health Clinic"
  }
},
{
  "type": "hospital",
  "id": 432267247,
  "lat": 31.8525767,
  "lon": 35.1838684,
  "tags": {
    "amenity": "hospital",
    "name": "Al Asdeka' Hospital",
    "name:ar": "مستشفى الاصدقاء"
  }
},
{
  "type": "hospital",
  "id": 432267361,
  "lat": 31.9061516,
  "lon": 35.2126480,
  "tags": {
    "addr:street": "Nablus Street - شارع نابلس",
    "amenity": "hospital",
    "name": "Palestine Red Crescent Hospital Al Bireh",
    "name:ar": "مستشفى",
    "name:en": "Palestine Red Crescent Hospital Al Bireh"
  }
},
{
  "type": "hospital",
  "id": 432267411,
  "lat": 31.9491493,
  "lon": 35.2141992,
  "tags": {
    "amenity": "hospital",
    "name": "Health Center",
    "name:en": "Health Center"
  }
},
{
  "type": "hospital",
  "id": 432268344,
  "lat": 31.9147305,
  "lon": 35.2149840,
  "tags": {
    "amenity": "hospital",
    "name": "Al Mustakbal Hospital",
    "name:ar": "مستشفى المستقبل",
    "name:en": "Al Mustakbal Hospital"
  }
},
{
  "type": "hospital",
  "id": 432269481,
  "lat": 32.0278295,
  "lon": 35.0187079,
  "tags": {
    "amenity": "hospital",
    "name": "Rantees Clinic",
    "name:ar": "عيادة رنتيس"
  }
},
{
  "type": "hospital",
  "id": 432269675,
  "lat": 31.9235217,
  "lon": 35.2439620,
  "tags": {
    "amenity": "hospital",
    "name": "Biteen health center",
    "name:en": "Biteen Health Center"
  }
},
{
  "type": "hospital",
  "id": 432270986,
  "lat": 32.0034053,
  "lon": 35.2752234,
  "tags": {
    "amenity": "hospital",
    "name": "Almazra'a health center"
  }
},
{
  "type": "hospital",
  "id": 432271096,
  "lat": 31.9158205,
  "lon": 35.1181106,
  "tags": {
    "amenity": "hospital",
    "name": "Der Bazi Clinic"
  }
},
{
  "type": "hospital",
  "id": 432273030,
  "lat": 31.8987884,
  "lon": 35.1917211,
  "tags": {
    "amenity": "hospital",
    "healthcare": "hospital",
    "name": "Asdeka' El Mareed Association",
    "name:ar": "جمعية اصدقاء المريض",
    "name:en": "Asdeka' El Mareed Association"
  }
},
{
  "type": "hospital",
  "id": 432273925,
  "lat": 31.9982406,
  "lon": 35.0644167,
  "tags": {
    "amenity": "hospital",
    "name": "Dait Abumesh'al Health Center",
    "name:ar": "مركز صحي دير ابو مشعل"
  }
},
{
  "type": "hospital",
  "id": 432274692,
  "lat": 31.8351007,
  "lon": 35.1484360,
  "tags": {
    "amenity": "hospital",
    "name": "Red Crescent",
    "name:ar": "الهلال الاحمر"
  }
},
{
  "type": "hospital",
  "id": 432275154,
  "lat": 31.9058331,
  "lon": 35.2062360,
  "tags": {
    "amenity": "hospital",
    "healthcare": "hospital",
    "name": "Al Re'ayeh Hospital (Arab Care)",
    "name:ar": "مستشفى الرعاية",
    "name:en": "Al Re'ayeh Hospital (Arab Care)"
  }
},
{
  "type": "hospital",
  "id": 432275312,
  "lat": 31.9294309,
  "lon": 35.0768526,
  "tags": {
    "amenity": "hospital",
    "name": "Ministry of Health clinic"
  }
},
{
  "type": "hospital",
  "id": 432276066,
  "lat": 31.8676028,
  "lon": 35.0671000,
  "tags": {
    "amenity": "hospital",
    "name": "Health Center",
    "name:ar": "مركز صحي"
  }
},
{
  "type": "hospital",
  "id": 432276134,
  "lat": 31.9662680,
  "lon": 35.0979614,
  "tags": {
    "amenity": "hospital",
    "name": "Dair Amaar Health Center",
    "name:ar": "مركز صحي دير عمار"
  }
},
{
  "type": "hospital",
  "id": 432276390,
  "lat": 32.0538978,
  "lon": 35.1280867,
  "tags": {
    "amenity": "hospital",
    "name": "Qarawat Bani Zied clinic",
    "name:ar": "عيادة قراوة بني زيد"
  }
},
{
  "type": "hospital",
  "id": 432277380,
  "lat": 31.8530802,
  "lon": 35.2061591,
  "tags": {
    "amenity": "hospital",
    "name": "Bait Al Maqdes Hospital",
    "name:ar": "مستشفى بيت المقدس"
  }
},
{
  "type": "hospital",
  "id": 432277514,
  "lat": 31.9529030,
  "lon": 35.1513189,
  "tags": {
    "amenity": "hospital",
    "name": "Health Center"
  }
},
{
  "type": "hospital",
  "id": 432278847,
  "lat": 32.0324055,
  "lon": 35.1982119,
  "tags": {
    "amenity": "hospital",
    "name": "Alenayah Health Center",
    "name:ar": "مركز صحي العناية"
  }
},
{
  "type": "hospital",
  "id": 432280836,
  "lat": 32.0482167,
  "lon": 35.1196421,
  "tags": {
    "amenity": "hospital",
    "name": "Health Center",
    "name:ar": "مركز صحي"
  }
},
{
  "type": "hospital",
  "id": 432282795,
  "lat": 31.9057448,
  "lon": 35.1412479,
  "tags": {
    "amenity": "hospital",
    "dispensing": "no",
    "name": "Ein Arik health center",
    "name:en": "Ein Arik health center"
  }
},
{
  "type": "hospital",
  "id": 432283226,
  "lat": 31.9069034,
  "lon": 35.2068058,
  "tags": {
    "amenity": "hospital",
    "name": "Al Nazer Hospital For Surgery",
    "name:ar": "مستشفى الناظر للجراحة",
    "name:en": "Al Nazer Hospital For Surgery"
  }
},
{
  "type": "hospital",
  "id": 432283425,
  "lat": 31.9794256,
  "lon": 35.0118034,
  "tags": {
    "amenity": "hospital",
    "name": "Qebia Health Center",
    "name:ar": "مركز صحي قبية"
  }
},
{
  "type": "hospital",
  "id": 432284717,
  "lat": 31.8704447,
  "lon": 35.2226246,
  "tags": {
    "addr:city": "القدس",
    "amenity": "hospital",
    "name": "مستشفى القدس للنساء",
    "name:ar": "مستشفى القدس للنساء",
    "name:en": "Al Quds Hospital For Women"
  }
},
{
  "type": "hospital",
  "id": 432285864,
  "lat": 32.0016521,
  "lon": 35.1130918,
  "tags": {
    "amenity": "hospital",
    "name": "Dair Netham Health Center",
    "name:ar": "مركز صحي دير نظام",
    "name:en": "Dair Netham Health Center"
  }
},
{
  "type": "hospital",
  "id": 432286575,
  "lat": 32.0323111,
  "lon": 35.2644559,
  "tags": {
    "amenity": "hospital",
    "name": "Sinjil Health Center",
    "name:ar": "مركز صحي سنجل"
  }
},
{
  "type": "hospital",
  "id": 432286645,
  "lat": 32.0342328,
  "lon": 35.1481932,
  "tags": {
    "amenity": "hospital",
    "name": "Health Clinic",
    "name:ar": "عيادة صحة"
  }
},
{
  "type": "hospital",
  "id": 432286878,
  "lat": 32.0338561,
  "lon": 35.0377918,
  "tags": {
    "amenity": "hospital",
    "name": "Aleban clinic"
  }
},
{
  "type": "hospital",
  "id": 432288843,
  "lat": 31.9050398,
  "lon": 35.2072610,
  "tags": {
    "amenity": "hospital",
    "building": "yes",
    "healthcare": "hospital",
    "name": "المركز الصحي العربي",
    "name:ar": "المركز الصحي العربي",
    "name:en": "Arabic Health Centre"
  }
},
{
  "type": "hospital",
  "id": 432291913,
  "lat": 31.8950583,
  "lon": 35.2115453,
  "tags": {
    "amenity": "hospital",
    "name": "مركز صحي الأمعري",
    "name:ar": "مركز صحي الأمعري",
    "name:en": "Al Amari Health Center"
  }
},
{
  "type": "hospital",
  "id": 432292719,
  "lat": 31.8388153,
  "lon": 35.1391416,
  "tags": {
    "amenity": "hospital",
    "name": "Rahbat Alqbaibeh",
    "name:ar": "مستشفى راهبات القبيبة"
  }
},
{
  "type": "hospital",
  "id": 432294909,
  "lat": 32.0412874,
  "lon": 35.1787940,
  "tags": {
    "amenity": "hospital",
    "name": "Masqat Health Center",
    "name:ar": "مركز صحي مسقط"
  }
},
{
  "type": "hospital",
  "id": 432294911,
  "lat": 31.9698142,
  "lon": 35.2636960,
  "tags": {
    "amenity": "hospital",
    "name": "Silwad Hospital",
    "name:ar": "مستشفى سلواد"
  }
},
{
  "type": "hospital",
  "id": 432295950,
  "lat": 31.8870431,
  "lon": 35.0436793,
  "tags": {
    "amenity": "hospital",
    "name": "Bait Siera Health Center",
    "name:ar": "مركز صحي بيت سيرا"
  }
},
{
  "type": "hospital",
  "id": 432296926,
  "lat": 31.9447401,
  "lon": 35.0206598,
  "tags": {
    "amenity": "hospital",
    "name": "Health Ministry Clinic",
    "name:ar": "عيادة وزارة الصحة",
    "name:en": "Health Ministry Clinic"
  }
},
{
  "type": "hospital",
  "id": 432297014,
  "lat": 32.0398316,
  "lon": 35.2858458,
  "tags": {
    "amenity": "hospital",
    "name": "Fatma Bent Mubarak Hospital",
    "name:ar": "مستشفى فاطمة بن مبارك"
  }
},
{
  "type": "hospital",
  "id": 432297112,
  "lat": 31.8293642,
  "lon": 35.2068157,
  "tags": {
    "amenity": "hospital",
    "name": "Palestine Hall",
    "name:ar": "صالة فلسطين"
  }
},
{
  "type": "hospital",
  "id": 432297506,
  "lat": 32.0323410,
  "lon": 35.1997050,
  "tags": {
    "amenity": "hospital",
    "name": "Abwein Health Center",
    "name:ar": "مركز صحي عبوين"
  }
},
{
  "type": "hospital",
  "id": 432328504,
  "lat": 32.1653819,
  "lon": 34.9768081,
  "tags": {
    "amenity": "hospital",
    "name": "Health Center",
    "name:en": "Health Center"
  }
},
{
  "type": "hospital",
  "id": 432334695,
  "lat": 32.1932264,
  "lon": 34.9800403,
  "tags": {
    "amenity": "hospital",
    "name": "Dr.Darwish Government Hospital",
    "name:ar": "مستشفى درويش نزال الحكومي",
    "name:en": "Dr.Darwish Government Hospital"
  }
},
{
  "type": "hospital",
  "id": 432334726,
  "lat": 32.1917763,
  "lon": 34.9688888,
  "tags": {
    "amenity": "hospital",
    "highway": "emergency_access_point",
    "name": "دروش نزال",
    "name:ar": "دروش نزال",
    "name:en": "Darwish Nazal"
  }
},
{
  "type": "hospital",
  "id": 432334844,
  "lat": 32.1923184,
  "lon": 34.9728362,
  "tags": {
    "amenity": "hospital",
    "name": "Military Medical Services",
    "name:ar": "الخدمات الطبية العسكرية",
    "name:en": "Military Medical Services"
  }
},
{
  "type": "hospital",
  "id": 432351313,
  "lat": 32.0848164,
  "lon": 35.1820692,
  "tags": {
    "amenity": "hospital",
    "healthcare:speciality": "clinic",
    "name": "First Medical Aid Hospital",
    "name:ar": "مركز الرعاية الصحية الأولية"
  }
},
{
  "type": "hospital",
  "id": 432352913,
  "lat": 32.0818534,
  "lon": 35.1850107,
  "tags": {
    "amenity": "hospital",
    "name": "Medical Clinics",
    "name:ar": "مركز دار المسنين"
  }
},
{
  "type": "hospital",
  "id": 432354477,
  "lat": 32.0840187,
  "lon": 35.1826974,
  "tags": {
    "addr:city": "سلفيت",
    "addr:street": "شهداء ثورة 36",
    "amenity": "hospital",
    "emergency": "yes",
    "healthcare:speciality": "general",
    "name": "Salfit Emergency Hos.",
    "name:ar": "مستشفى طوارئ سلفيت القديم"
  }
},
{
  "type": "hospital",
  "id": 432360380,
  "lat": 32.3138682,
  "lon": 35.0280048,
  "tags": {
    "addr:housename": "دوار ثابت ثابت | بجانب محطة القاروط",
    "amenity": "hospital",
    "name": "تفاحة للبصريات",
    "note": "دليل طولكرم الطبي الالكتروني | طلاب البرمجيات وقواعد البيانات",
    "website": "https://www.facebook.com/daleltulkarm"
  }
},
{
  "type": "hospital",
  "id": 432370836,
  "lat": 32.3136490,
  "lon": 35.0278513,
  "tags": {
    "amenity": "hospital",
    "name": "صيدلية الشعب"
  }
},
{
  "type": "hospital",
  "id": 432371458,
  "lat": 32.3100363,
  "lon": 35.1136240,
  "tags": {
    "amenity": "hospital",
    "name": "San John Hopspital",
    "name:ar": "مستشفى سان جون للعيون"
  }
},
{
  "type": "hospital",
  "id": 432397097,
  "lat": 32.3146187,
  "lon": 35.0300511,
  "tags": {
    "addr:housename": "مستشفى ثابت ثابت",
    "amenity": "hospital",
    "designation": "دليل طولكرم الطبي",
    "emergency": "yes",
    "name": "مستشفى ثابت ثابت",
    "name:ar": "مستشفى ثابت ثابت",
    "note": "تمت الاضافة بواسطة دليل طولكرم الطبي الالكتروني",
    "source": "شارع المستشفى",
    "wikidata": "Q55965634"
  }
},
{
  "type": "hospital",
  "id": 432544244,
  "lat": 32.3873129,
  "lon": 35.3834272,
  "tags": {
    "amenity": "hospital",
    "name": "Raba Clinic",
    "name:ar": "عيادة رابا"
  }
},
{
  "type": "hospital",
  "id": 432544821,
  "lat": 32.4540876,
  "lon": 35.3686992,
  "tags": {
    "amenity": "hospital",
    "name": "Abu Da'if Medical Clinic",
    "name:ar": "عيادة ابوضعيف الطبية"
  }
},
{
  "type": "hospital",
  "id": 432544901,
  "lat": 32.4126688,
  "lon": 35.2819593,
  "tags": {
    "amenity": "hospital",
    "name": "Kabatya Health Center",
    "name:ar": "مركز قباطية الصحي"
  }
},
{
  "type": "hospital",
  "id": 443026764,
  "lat": 31.9841670,
  "lon": 35.9381507,
  "tags": {
    "amenity": "hospital",
    "name": "مستشفى الأمير حمزة",
    "name:ar": "مستشفى الأمير حمزة",
    "name:en": "Prince Hamza Hospital"
  }
},
{
  "type": "hospital",
  "id": 443368255,
  "lat": 30.0642054,
  "lon": 31.3455818,
  "tags": {
    "amenity": "hospital",
    "healthcare": "hospital",
    "name": "مركز الإيمان الطبي",
    "name:ar": "مركز الإيمان الطبي",
    "name:en": "El Eman Medical Center",
    "note": "correct arabic tag"
  }
},
{
  "type": "hospital",
  "id": 452376256,
  "lat": 30.1058829,
  "lon": 31.3661322,
  "tags": {
    "addr:city": "القاهرة",
    "addr:street": "شارع كمال الدين حسين",
    "alt_name": "النزهة الدولي",
    "amenity": "hospital",
    "healthcare": "hospital",
    "name": "النزهة الدولي",
    "name:ar": "النزهة الدولي",
    "name:en": "Al-Nozha Al-Dawly"
  }
},
{
  "type": "hospital",
  "id": 467687529,
  "lat": 32.3501829,
  "lon": 34.8707846,
  "tags": {
    "amenity": "hospital",
    "emergency": "no",
    "name": "קופת חולים כללית",
    "name:en": "Kupat Holim Clalit",
    "name:en1": "Clalit",
    "name:he": "קופת חולים כללית"
  }
},
{
  "type": "hospital",
  "id": 475367904,
  "lat": 29.9660774,
  "lon": 31.2542684,
  "tags": {
    "alt_name": "مستشفى مسجد الفتح",
    "amenity": "hospital",
    "name": "مستشفى الفتح الإسلامي",
    "name:ar": "مستشفى الفتح الإسلامي",
    "name:en": "Alfath Islamic Hospital"
  }
},
{
  "type": "hospital",
  "id": 504255998,
  "lat": 31.5087918,
  "lon": 34.4471014,
  "tags": {
    "amenity": "hospital",
    "healthcare": "hospital",
    "name": "Al-Salam Health Center",
    "name:ar": "عيادة السلام"
  }
},
{
  "type": "hospital",
  "id": 504272104,
  "lat": 31.5066573,
  "lon": 34.4512441,
  "tags": {
    "amenity": "hospital",
    "healthcare": "hospital",
    "name": "Sabra Health Center"
  }
},
{
  "type": "hospital",
  "id": 504295248,
  "lat": 31.5058102,
  "lon": 34.4462412,
  "tags": {
    "amenity": "hospital",
    "healthcare": "hospital",
    "name": "Al-Salah Clinic Center",
    "name:ar": "مستوصف الصلاح الخيري"
  }
},
{
  "type": "hospital",
  "id": 505119662,
  "lat": 31.2845256,
  "lon": 34.2513420,
  "tags": {
    "amenity": "hospital",
    "name": "Alawda health center",
    "name:ar": "مركز العودة الصحي"
  }
},
{
  "type": "hospital",
  "id": 517381615,
  "lat": 28.4883845,
  "lon": 34.5114594,
  "tags": {
    "alt_name": "مستشفى ذهب الإختصاصي",
    "amenity": "hospital",
    "name": "مستشفى ذهب الإختصاصي",
    "name:ar": "مستشفى ذهب الإختصاصي",
    "name:ar1": "مستشفى ذهب الإختصاصي",
    "name:en": "Dahab Specialised Hospital",
    "name:ru": "Дахабская специализированая больница",
    "operator": "Deco International"
  }
},
{
  "type": "hospital",
  "id": 523254716,
  "lat": 30.0626870,
  "lon": 31.3270141,
  "tags": {
    "amenity": "hospital"
  }
},
{
  "type": "hospital",
  "id": 570069182,
  "lat": 30.2926493,
  "lon": 31.7314033,
  "tags": {
    "amenity": "hospital",
    "name": "مستشفى ابن سينا",
    "name:ar": "مستشفى ابن سينا"
  }
},
{
  "type": "hospital",
  "id": 570069186,
  "lat": 30.2890918,
  "lon": 31.7314033,
  "tags": {
    "amenity": "hospital",
    "healthcare": "hospital",
    "name": "ميتشفى شرف",
    "name:ar": "ميتشفى شرف"
  }
},
{
  "type": "hospital",
  "id": 570069286,
  "lat": 30.2863681,
  "lon": 31.7492561,
  "tags": {
    "addr:street": "Abou Bakr El Sedeek",
    "amenity": "hospital",
    "healthcare": "hospital",
    "name": "Hospital",
    "name:ar": "مستشفى التأمين الصحي"
  }
},
{
  "type": "hospital",
  "id": 595353701,
  "lat": 31.3492419,
  "lon": 27.2413592,
  "tags": {
    "alt_name": "مستشفى مطروح العام",
    "amenity": "hospital",
    "healthcare": "hospital",
    "name": "مستشفى مطروح العام",
    "name:ar": "مستشفى مطروح العام",
    "name:en": "Matrouh General Hospital"
  }
},
{
  "type": "hospital",
  "id": 653596105,
  "lat": 29.8399443,
  "lon": 31.3229757,
  "tags": {
    "amenity": "hospital",
    "name": "مستشفي النصر",
    "name:ar": "مستشفي النصر",
    "name:en": "El nasr"
  }
},
{
  "type": "hospital",
  "id": 662158924,
  "lat": 30.0579734,
  "lon": 31.2771374,
  "tags": {
    "amenity": "hospital",
    "name": "مستشفى طلبة البؤث",
    "name:ar": "مستشفى طلبة البؤث",
    "name:en": "Talabat Al-Boouth Hospital"
  }
},
{
  "type": "hospital",
  "id": 663080305,
  "lat": 30.0209068,
  "lon": 31.2431749,
  "tags": {
    "alt_name": "مستشفى المقطم",
    "amenity": "hospital",
    "name": "مستشفى المقطم",
    "name:ar": "مستشفى المقطم",
    "name:en": "Al-Muqattam Hospital"
  }
},
{
  "type": "hospital",
  "id": 665450260,
  "lat": 30.0846029,
  "lon": 31.2973393,
  "tags": {
    "alt_name": "مستشفى كوبري القبة العسكري",
    "amenity": "hospital",
    "healthcare": "hospital",
    "name": "مستشفى كوبري القبة العسكري",
    "name:ar": "مستشفى كوبري القبة العسكري",
    "name:en": "Kobry Alkoba Military Hospital"
  }
},
{
  "type": "hospital",
  "id": 678457937,
  "lat": 30.0815072,
  "lon": 31.3317412,
  "tags": {
    "alt_name": "الميرغني",
    "amenity": "hospital",
    "healthcare": "hospital",
    "name": "مستشفى الميرغنى",
    "name:ar": "مستشفى الميرغنى",
    "name:en": "El Merghany hospital"
  }
},
{
  "type": "hospital",
  "id": 685494189,
  "lat": 31.7858419,
  "lon": 35.2410567,
  "tags": {
    "amenity": "hospital",
    "name": "Red Crescent Hospital for Women",
    "name:ar": "مستشفى جمعية الهلال الأحمر-القدس",
    "name:en": "Red Crescent Hospital for Women"
  }
},
{
  "type": "hospital",
  "id": 687745925,
  "lat": 30.0664715,
  "lon": 31.1951099,
  "tags": {
    "amenity": "hospital",
    "building": "yes",
    "healthcare": "hospital"
  }
},
{
  "type": "hospital",
  "id": 710170684,
  "lat": 31.7952505,
  "lon": 35.2335512,
  "tags": {
    "amenity": "hospital",
    "name": "מרכז רפואי כללית",
    "name:en": "Clalit Health Services",
    "name:he": "מרכז רפואי כללית"
  }
},
{
  "type": "hospital",
  "id": 718382357,
  "lat": 31.8720353,
  "lon": 35.2202358,
  "tags": {
    "addr:city": "القدس",
    "amenity": "hospital",
    "name": "عيادة الراجحي",
    "name:ar": "عيادة الراجحي",
    "name:en": "Al-Rajhi Clinic"
  }
},
{
  "type": "hospital",
  "id": 726795405,
  "lat": 31.6946219,
  "lon": 35.1175460,
  "tags": {
    "amenity": "hospital",
    "name:en": "Meuhedet"
  }
},
{
  "type": "hospital",
  "id": 726795406,
  "lat": 31.6950128,
  "lon": 35.1179472,
  "tags": {
    "amenity": "hospital",
    "name:en": "Leumit"
  }
},
{
  "type": "hospital",
  "id": 738895094,
  "lat": 31.9228785,
  "lon": 34.7849464,
  "tags": {
    "amenity": "hospital",
    "emergency": "no",
    "healthcare": "hospital",
    "name": "בית פנחס",
    "name:en": "Beit Pinhas",
    "name:he": "בית פנחס"
  }
},
{
  "type": "hospital",
  "id": 741702670,
  "lat": 30.0918480,
  "lon": 31.3489159,
  "tags": {
    "addr:housenumber": "5",
    "addr:street": "أبو بكر الصديق",
    "alt_name": "مستشفى مصر للطيران",
    "amenity": "hospital",
    "healthcare": "hospital",
    "name": "مستشفى مصر للطيران",
    "name:ar": "مستشفى مصر للطيران",
    "name:en": "Egypt Air Hospital",
    "note": "tag name --> arabic",
    "opening_hours": "24/7"
  }
},
{
  "type": "hospital",
  "id": 768600810,
  "lat": 30.9627780,
  "lon": 31.2444440,
  "tags": {
    "alt_name": "سمنود",
    "amenity": "hospital",
    "healthcare": "hospital",
    "healthcare:speciality": "general",
    "int_name": "Samnūd, Samnud, Samannud",
    "name": "صيدلية د / أسماء عبيد",
    "name:ar": "صيدلية د / أسماء عبيد",
    "name:en": "DrAsmaaEbeidPharmacy",
    "operator": "pharmacy",
    "operator:type": "public",
    "population": "65000"
  }
},
{
  "type": "hospital",
  "id": 838174267,
  "lat": 31.9004962,
  "lon": 34.7968156,
  "tags": {
    "amenity": "hospital",
    "healthcare": "hospital",
    "name": "דרך חיים - מרכז החלמה לנפגעי סמים ואלכוהול",
    "name:en": "Derekh Ha'im - Drugs and Alcohol Addicts Rehabilitation Center",
    "name:he": "דרך חיים - מרכז החלמה לנפגעי סמים ואלכוהול",
    "wheelchair": "no"
  }
},
{
  "type": "hospital",
  "id": 903481454,
  "lat": 30.0152542,
  "lon": 31.2156569,
  "tags": {
    "alt_name": "مستشفى الرماد",
    "amenity": "hospital",
    "name": "مستشفى الرماد",
    "name:ar": "مستشفى الرماد",
    "name:en": "Al-Ramad Hospital"
  }
},
{
  "type": "hospital",
  "id": 1076050960,
  "lat": 31.9656330,
  "lon": 35.8861697,
  "tags": {
    "amenity": "hospital",
    "emergency": "yes",
    "healthcare": "hospital",
    "name": "Al Istishari Hospital",
    "name:ar": "المستشفى الاستشاري",
    "name:en": "Al Istishari Hospital"
  }
},
{
  "type": "hospital",
  "id": 1076073263,
  "lat": 31.9700612,
  "lon": 35.8939604,
  "tags": {
    "amenity": "hospital",
    "name": "مستشفى شميساني",
    "name:ar": "مستشفى شميساني",
    "name:en": "Shmeisani Hospital"
  }
},
{
  "type": "hospital",
  "id": 1179121562,
  "lat": 31.2636249,
  "lon": 29.9917679,
  "tags": {
    "amenity": "hospital",
    "name": "مستشفى ماري مرقص",
    "name:ar": "مستشفى ماري مرقص",
    "name:en": "Al-Qiddissin"
  }
},
{
  "type": "hospital",
  "id": 1189272648,
  "lat": 32.1626930,
  "lon": 23.7317804,
  "tags": {
    "amenity": "hospital",
    "name": "Hopital militaire de campagne"
  }
},
{
  "type": "hospital",
  "id": 1189275264,
  "lat": 32.1644016,
  "lon": 23.6682018,
  "tags": {
    "amenity": "hospital",
    "name": "Hopital militaire de campagne"
  }
},
{
  "type": "hospital",
  "id": 1308842251,
  "lat": 32.0693987,
  "lon": 34.7945517,
  "tags": {
    "amenity": "hospital",
    "name": "אסותא",
    "name:ar": "اسوتا",
    "name:en": "Assuta",
    "name:he": "אסותא"
  }
},
{
  "type": "hospital",
  "id": 1438270139,
  "lat": 30.0637093,
  "lon": 31.3473432,
  "tags": {
    "amenity": "hospital",
    "healthcare": "hospital",
    "name": "منظمه الصحه العالمية",
    "name:ar": "منظمه الصحه العالمية",
    "name:en": "World Health Organisation",
    "operator": "World Health organization"
  }
},
{
  "type": "hospital",
  "id": 1493105013,
  "lat": 25.9148160,
  "lon": 34.4046257,
  "tags": {
    "amenity": "hospital"
  }
},
{
  "type": "hospital",
  "id": 1501345563,
  "lat": 30.0240626,
  "lon": 31.2309810,
  "tags": {
    "amenity": "hospital",
    "contact:email": "ahmedsami@nci.edu.eg",
    "contact:fax": "+202-23644720",
    "contact:phone": "+202-23689711",
    "contact:website": "http://www.nci.cu.edu.eg/",
    "emergency": "no",
    "name": "National Cancer Institute",
    "name:ar": "المعهد القومي للأورام",
    "name:de": "Nationales Krebsinstitut",
    "source": "local_knowledge"
  }
},
{
  "type": "hospital",
  "id": 1543964207,
  "lat": 31.8237064,
  "lon": 35.2277459,
  "tags": {
    "addr:city": "القدس",
    "alt_name:ar": "مستشفى دجاني",
    "amenity": "hospital",
    "emergency": "no",
    "name": "عيادة دجاني",
    "name:ar": "عيادة دجاني",
    "name:en": "Dajani Hospital"
  }
},
{
  "type": "hospital",
  "id": 1605246439,
  "lat": 31.7870897,
  "lon": 35.2426411,
  "tags": {
    "amenity": "hospital",
    "name": "مستشفى الهلال الادارة العامة مركز الاسعاف",
    "name:ar": "مستشفى الهلال الادارة العامة مركز الاسعاف",
    "name:en": "Red Cresent administration and First aid center",
    "name:he": "הסהר האדום מנהלה ומרכז עזרה ראשונה"
  }
},
{
  "type": "hospital",
  "id": 1606326485,
  "lat": 31.7954445,
  "lon": 35.2313239,
  "tags": {
    "amenity": "hospital",
    "name": "בית חולים צרפתי",
    "name:ar": "مستشفى سان جون\\ مستشفى العيون",
    "name:en": "St. John Eye Hospital",
    "name:he": "בית חולים צרפתי"
  }
},
{
  "type": "hospital",
  "id": 1650281142,
  "lat": 31.7167089,
  "lon": 35.1809607,
  "tags": {
    "amenity": "hospital",
    "name": "طبي",
    "name:ar": "طبي"
  }
},
{
  "type": "hospital",
  "id": 1698478723,
  "lat": 31.2258268,
  "lon": 29.9408078,
  "tags": {
    "amenity": "hospital",
    "name": "Mostafa Kamel Hospital",
    "name:ar": "مستشفي مصطفي كامل",
    "name:en": "Mostafa Kamel Hospital"
  }
},
{
  "type": "hospital",
  "id": 1712531739,
  "lat": 31.7761930,
  "lon": 35.2098687,
  "tags": {
    "amenity": "hospital",
    "name": "מרכז רפואי ירושלים",
    "name:en": "Jerusalem Medical Center",
    "name:he": "מרכז רפואי ירושלים"
  }
},
{
  "type": "hospital",
  "id": 1730369035,
  "lat": 31.7692764,
  "lon": 35.2201801,
  "tags": {
    "amenity": "hospital",
    "name": "בית חולים לבריאות הנפש",
    "name:en": "Mental Health Hospital",
    "name:he": "בית חולים לבריאות הנפש"
  }
},
{
  "type": "hospital",
  "id": 1772790992,
  "lat": 31.2455923,
  "lon": 34.7965470,
  "tags": {
    "amenity": "hospital",
    "name": "אסותא מגדל שבע",
    "name:en": "Asuta",
    "name:he": "אסותא מגדל שבע"
  }
},
{
  "type": "hospital",
  "id": 1784439854,
  "lat": 31.1865057,
  "lon": 35.7019597,
  "tags": {
    "amenity": "hospital",
    "healthcare": "hospital",
    "name": "المستشفى الإيطالى",
    "name:ar": "المستشفى الإيطالى",
    "name:de": "Italienisches Krankenhaus",
    "name:en": "Italian Hospital",
    "name:fr": "Hôpital Italien"
  }
},
{
  "type": "hospital",
  "id": 1844289361,
  "lat": 31.2052904,
  "lon": 29.9275717,
  "tags": {
    "amenity": "hospital",
    "emergency": "no",
    "name": "معهد البحوث الطبيه",
    "name:ar": "معهد البحوث الطبيه",
    "name:en": "Institute for Medical Research"
  }
},
{
  "type": "hospital",
  "id": 1844290834,
  "lat": 31.2043914,
  "lon": 29.9286838,
  "tags": {
    "amenity": "hospital",
    "emergency": "yes",
    "name": "مستشفي المواساه",
    "name:ar": "مستشفي المواساه",
    "name:en": "Al-Muwasah Hospital"
  }
},
{
  "type": "hospital",
  "id": 1858598060,
  "lat": 32.0046303,
  "lon": 35.8749665,
  "tags": {
    "amenity": "hospital",
    "healthcare": "hospital",
    "name": "Jordan University Hospital"
  }
},
{
  "type": "hospital",
  "id": 1888411221,
  "lat": 28.0912713,
  "lon": 30.7643128,
  "tags": {
    "amenity": "hospital",
    "emergency": "no",
    "healthcare": "hospital",
    "name": "بنك الدم الإقليمى",
    "name:ar": "بنك الدم الإقليمى",
    "name:en": "Regional Blood Bank"
  }
},
{
  "type": "hospital",
  "id": 1888411228,
  "lat": 28.0916688,
  "lon": 30.7645596,
  "tags": {
    "amenity": "hospital",
    "emergency": "no",
    "healthcare": "hospital",
    "name": "معهد الأورام",
    "name:ar": "معهد الأورام",
    "name:en": "Cancer Institute"
  }
},
{
  "type": "hospital",
  "id": 1888411235,
  "lat": 28.0841913,
  "lon": 30.7624353,
  "tags": {
    "amenity": "hospital",
    "healthcare": "hospital",
    "name": "مستوصف الجمعية الشرعية",
    "name:ar": "مستوصف الجمعية الشرعية",
    "name:en": "Legal Assembly Hospital"
  }
},
{
  "type": "hospital",
  "id": 1888451891,
  "lat": 28.0965337,
  "lon": 30.7594580,
  "tags": {
    "amenity": "hospital",
    "emergency": "no",
    "healthcare": "hospital",
    "name": "مستشفى المبرة",
    "name:ar": "مستشفى المبرة",
    "name:en": "Al-Mabra Hospital"
  }
},
{
  "type": "hospital",
  "id": 1920589480,
  "lat": 30.0540358,
  "lon": 31.1896206,
  "tags": {
    "amenity": "hospital",
    "healthcare": "hospital",
    "name": "مركز عدن الطبى",
    "name:ar": "مركز عدن الطبى"
  }
},
{
  "type": "hospital",
  "id": 1923533386,
  "lat": 31.9979263,
  "lon": 35.8729361,
  "tags": {
    "amenity": "hospital",
    "healthcare": "hospital"
  }
},
{
  "type": "hospital",
  "id": 1923534186,
  "lat": 31.9975442,
  "lon": 35.8723782,
  "tags": {
    "amenity": "hospital",
    "healthcare": "hospital",
    "name": "مستشفى العيون التخصصي أمي",
    "phone": "+962 (6) 5205555",
    "website": "https://www.ibn-alhaytham-hospital.com/Default.htm"
  }
},
{
  "type": "hospital",
  "id": 1923637511,
  "lat": 32.0594043,
  "lon": 35.9191398,
  "tags": {
    "amenity": "hospital"
  }
},
{
  "type": "hospital",
  "id": 1927951368,
  "lat": 32.0527051,
  "lon": 35.8820239,
  "tags": {
    "amenity": "hospital",
    "name": "Abu Nuseir Health Center"
  }
},
{
  "type": "hospital",
  "id": 1939482580,
  "lat": 29.9972489,
  "lon": 31.2092094,
  "tags": {
    "addr:housenumber": "232",
    "addr:street": "شارع صلاح سالم",
    "amenity": "hospital",
    "email": "am2073@gmail.com",
    "name": "مكتب شئون العضوية النقابة العامة للبناء والأخشاب",
    "name:ar": "مستشفى المروة التخصصى",
    "name:en": "Al-Marwa Specialised Hospital",
    "opening_hours": "Su-Th 09:00-15:00",
    "phone": "+201006776555"
  }
},
{
  "type": "hospital",
  "id": 2001022531,
  "lat": 28.0347708,
  "lon": 34.4329047,
  "tags": {
    "amenity": "hospital",
    "healthcare": "hospital",
    "name": "Nabq Dental Clinic"
  }
},
{
  "type": "hospital",
  "id": 2007861753,
  "lat": 30.8844477,
  "lon": 31.4574967,
  "tags": {
    "amenity": "hospital",
    "emergency": "yes",
    "name": "Makka Hospital"
  }
},
{
  "type": "hospital",
  "id": 2150449098,
  "lat": 31.7581373,
  "lon": 35.2834835,
  "tags": {
    "amenity": "hospital",
    "name": "Jabel Clinic",
    "name:en": "Jabel Clinic"
  }
},
{
  "type": "hospital",
  "id": 2150545774,
  "lat": 31.7960471,
  "lon": 35.2318627,
  "tags": {
    "amenity": "hospital",
    "name": "בית חולים סנט ג'וזף",
    "name:en": "St. Joseph's Hospital",
    "name:he": "בית חולים סנט ג'וזף"
  }
},
{
  "type": "hospital",
  "id": 2177028754,
  "lat": 31.9577664,
  "lon": 35.8453973,
  "tags": {
    "amenity": "hospital",
    "name": "مستشفى الجندويل للتوليد",
    "name:en": "Al-Jandaweel Hospital",
    "name:ru": "больница баядер"
  }
},
{
  "type": "hospital",
  "id": 2268006755,
  "lat": 30.1269386,
  "lon": 31.3077521,
  "tags": {
    "amenity": "hospital",
    "name": "مستشفى النور المحمدى",
    "name:ar": "مستشفى النور المحمدى",
    "name:en": "Al-Nour Al-Mohammady Hospital"
  }
},
{
  "type": "hospital",
  "id": 2268006756,
  "lat": 30.1333088,
  "lon": 31.3139962,
  "tags": {
    "amenity": "hospital",
    "name": "مستشفى الحق",
    "name:ar": "مستشفى الحق",
    "name:en": "Al-Haqq Hospital"
  }
},
{
  "type": "hospital",
  "id": 2297109152,
  "lat": 31.2562276,
  "lon": 34.2279393,
  "tags": {
    "addr:city": "رفح",
    "addr:housename": "حى الصفا",
    "addr:postcode": "45614",
    "amenity": "hospital",
    "healthcare": "hospital",
    "name": "مستشفى رفح",
    "name:ar": "مستشفى رفح",
    "name:en": "Rafah Hopital",
    "phone": "+20683300459"
  }
},
{
  "type": "hospital",
  "id": 2344638618,
  "lat": 32.3109686,
  "lon": 35.0291479,
  "tags": {
    "addr:housename": "دليل طولكرم الطبي الالكتروني | خضوري",
    "amenity": "hospital",
    "emergency": "yes",
    "name": "صيدلية حمام الجديدة"
  }
},
{
  "type": "hospital",
  "id": 2356181526,
  "lat": 32.0747354,
  "lon": 23.9310208,
  "tags": {
    "addr:city": "Tobruq city",
    "addr:postcode": "00218",
    "amenity": "hospital",
    "emergency": "yes",
    "name": "مركز طبرق الطبي",
    "name:ar": "مركز طبرق الطبي",
    "name:en": "Tobruk Medical Center",
    "note": "Cover the most medical branches",
    "source": "https://www.facebook.com/UnToUcHabLe.SouL"
  }
},
{
  "type": "hospital",
  "id": 2357288319,
  "lat": 32.3072250,
  "lon": 35.0284191,
  "tags": {
    "addr:housename": "طولكرم - بجانب المخبز الفرنسي",
    "amenity": "hospital",
    "name": "صيدلية وسم",
    "note": "دليل طولكرم الطبي الالكتروني"
  }
},
{
  "type": "hospital",
  "id": 2429005805,
  "lat": 29.3925571,
  "lon": 34.7926172,
  "tags": {
    "amenity": "hospital",
    "name": "El Wekala Medical Centre"
  }
},
{
  "type": "hospital",
  "id": 2508149982,
  "lat": 31.9061988,
  "lon": 35.2058089,
  "tags": {
    "amenity": "hospital",
    "name": "Dr. Madleen Nimer Sabobeh Clinic",
    "name:en": "Dr. Madleen Nimer Sabobeh Clinic"
  }
},
{
  "type": "hospital",
  "id": 2511416942,
  "lat": 32.2662867,
  "lon": 36.4556609,
  "tags": {
    "amenity": "hospital",
    "emergency": "yes",
    "name": "مركز البادية الشمالية الشامل"
  }
},
{
  "type": "hospital",
  "id": 2511417182,
  "lat": 32.2657061,
  "lon": 36.4570556,
  "tags": {
    "amenity": "hospital",
    "emergency": "yes",
    "name": "مستشفى البادية الشمالية"
  }
},
{
  "type": "hospital",
  "id": 2524330848,
  "lat": 30.3023768,
  "lon": 31.7703995,
  "tags": {
    "amenity": "hospital",
    "healthcare": "hospital"
  }
},
{
  "type": "hospital",
  "id": 2524331007,
  "lat": 30.2917256,
  "lon": 31.7566488,
  "tags": {
    "amenity": "hospital",
    "healthcare": "hospital",
    "name": "مستشفى خميس التخصصي",
    "name:ar": "مستشفى خميس التخصصي"
  }
},
{
  "type": "hospital",
  "id": 2544847661,
  "lat": 32.3864820,
  "lon": 35.3249351,
  "tags": {
    "amenity": "hospital",
    "name": "anglican clinic"
  }
},
{
  "type": "hospital",
  "id": 2549916507,
  "lat": 29.9667244,
  "lon": 30.9337571,
  "tags": {
    "amenity": "hospital",
    "name": "د.محمد البراغى",
    "name:ar": "د.محمد البراغى",
    "name:en": "Dr.Mohamed El baraghi"
  }
},
{
  "type": "hospital",
  "id": 2550066152,
  "lat": 29.9730095,
  "lon": 30.9437865,
  "tags": {
    "amenity": "hospital",
    "emergency": "no",
    "healthcare": "hospital",
    "name": "مركز الحصرى الصحى",
    "name:ar": "مركز الحصرى الصحى",
    "name:en": "AL Hosary medical department"
  }
},
{
  "type": "hospital",
  "id": 2621106542,
  "lat": 30.1459715,
  "lon": 31.3955566,
  "tags": {
    "amenity": "hospital",
    "name": "Gohar Hospital",
    "name:ar": "مستشفى جوهار",
    "name:en": "Gohar Hospital"
  }
},
{
  "type": "hospital",
  "id": 2722597993,
  "lat": 30.5902189,
  "lon": 32.2626943,
  "tags": {
    "amenity": "hospital",
    "healthcare": "hospital",
    "name": "عيادة الدكتور عبد الحميد صبح",
    "name:ar": "عيادة الدكتور عبد الحميد صبح"
  }
},
{
  "type": "hospital",
  "id": 2749369559,
  "lat": 32.3365123,
  "lon": 35.4173384,
  "tags": {
    "amenity": "hospital",
    "name": "Al Amal (Hope) Clinic",
    "name:en": "Al Amal (Hope) Clinic",
    "note": "Built by the British in 2002",
    "wheelchair": "yes"
  }
},
{
  "type": "hospital",
  "id": 3118523495,
  "lat": 31.0453946,
  "lon": 31.3656479,
  "tags": {
    "amenity": "hospital",
    "building:levels": "4",
    "healthcare": "hospital",
    "name": "مستشفى الجزيرة الدولى - السلاب",
    "name:ar": "مستشفى الجزيرة الدولى - السلاب",
    "name:en": "Gezeera International Hospital - El Sallab",
    "phone": "+20 50 2370051",
    "website": "https://www.elsallabhospital.org/",
    "wheelchair": "limited"
  }
},
{
  "type": "hospital",
  "id": 3119668295,
  "lat": 31.0475408,
  "lon": 31.3886277,
  "tags": {
    "amenity": "hospital",
    "healthcare": "hospital",
    "name": "Al-Hekma Hospital"
  }
},
{
  "type": "hospital",
  "id": 3157884695,
  "lat": 30.1042297,
  "lon": 31.3385230,
  "tags": {
    "amenity": "hospital",
    "healthcare": "hospital",
    "name": "مستشفي الدعاة",
    "name:ar": "مستشفي الدعاة"
  }
},
{
  "type": "hospital",
  "id": 3208430197,
  "lat": 30.0414944,
  "lon": 31.2143358,
  "tags": {
    "amenity": "hospital",
    "healthcare": "hospital",
    "name": "Finy hospital",
    "name:ar": "فيني"
  }
},
{
  "type": "hospital",
  "id": 3214300154,
  "lat": 30.0374677,
  "lon": 31.2144598,
  "tags": {
    "amenity": "hospital",
    "healthcare": "hospital",
    "name": "مستشفى 6 اكتوبر",
    "name:ar": "مستشفى 6 اكتوبر",
    "name:en": "6 October Hospiatl"
  }
},
{
  "type": "hospital",
  "id": 3250610528,
  "lat": 24.2853029,
  "lon": 35.3785817,
  "tags": {
    "amenity": "hospital",
    "contact:phone": "+20 122 190 383",
    "contact:website": "www.deco-international.com",
    "healthcare": "hyperbaric_chamber",
    "name": "Diving clinic"
  }
},
{
  "type": "hospital",
  "id": 3290355573,
  "lat": 30.5196212,
  "lon": 31.3534174,
  "tags": {
    "amenity": "hospital",
    "name": "ibarhim shabaan pharmacy"
  }
},
{
  "type": "hospital",
  "id": 3319607397,
  "lat": 31.9817585,
  "lon": 35.9900366,
  "tags": {
    "amenity": "hospital",
    "name": "مستشفى ماركا العسكري"
  }
},
{
  "type": "hospital",
  "id": 3319607438,
  "lat": 31.9735620,
  "lon": 35.9742391,
  "tags": {
    "amenity": "hospital",
    "name": "مركز ماركا الصحي"
  }
},
{
  "type": "hospital",
  "id": 3350212637,
  "lat": 32.3137896,
  "lon": 35.0299657,
  "tags": {
    "addr:city": "Tulkarm",
    "addr:postcode": "00970",
    "addr:street": "The Hospital Street",
    "amenity": "hospital",
    "name": "Al-quds Radiology Clinic",
    "note": "ele, the first floor",
    "operator": "Dr.Taher Hannoun",
    "phone": "00970569316115"
  }
},
{
  "type": "hospital",
  "id": 3353710098,
  "lat": 24.0796435,
  "lon": 38.0293651,
  "tags": {
    "amenity": "hospital",
    "emergency": "yes",
    "healthcare": "hospital"
  }
},
{
  "type": "hospital",
  "id": 3395906136,
  "lat": 30.0039967,
  "lon": 31.4224834,
  "tags": {
    "amenity": "hospital",
    "healthcare": "hospital",
    "name": "مركز الطبيب",
    "name:ar": "مركز الطبيب",
    "name:en": "Al Tabib Centre"
  }
},
{
  "type": "hospital",
  "id": 3458193051,
  "lat": 31.2620088,
  "lon": 29.9923347,
  "tags": {
    "amenity": "hospital",
    "emergency": "yes",
    "name": "مستشفى شرق المدينة",
    "name:ar": "مستشفى شرق المدينة"
  }
},
{
  "type": "hospital",
  "id": 3583766924,
  "lat": 31.5306574,
  "lon": 35.0979588,
  "tags": {
    "addr:city": "الخليل",
    "addr:street": "King Faisal Street",
    "amenity": "hospital",
    "email": "dr.dofish@hotmail.com",
    "emergency": "yes",
    "internet_access": "wlan",
    "name": "DENTIST MOTASEM DOUFISH",
    "name:ar": "دكتور معتصم دوفش",
    "opening_hours": "Sa-Th 10:00-22:00",
    "phone": "0599741864"
  }
},
{
  "type": "hospital",
  "id": 3657606492,
  "lat": 32.0489509,
  "lon": 35.1650400,
  "tags": {
    "amenity": "hospital",
    "name": "عيادة طبية"
  }
},
{
  "type": "hospital",
  "id": 3724285325,
  "lat": 31.7145694,
  "lon": 35.2028121,
  "tags": {
    "addr:city": "Bethlehem",
    "addr:housenumber": "153",
    "addr:street": "Manger Street",
    "amenity": "hospital",
    "ele": "2",
    "name": "Guidance and Training Center for the Child and the Family (GTC)",
    "name:ar": "(GTC) مركز الإرشاد والتديب للطفل والأسرة",
    "website": "http://www.gtc.ps"
  }
},
{
  "type": "hospital",
  "id": 3748661346,
  "lat": 30.6726112,
  "lon": 31.4675882,
  "tags": {
    "amenity": "hospital",
    "name": "مستشفى فرسيس",
    "name:ar": "مستشفى فرسيس"
  }
},
{
  "type": "hospital",
  "id": 3867524666,
  "lat": 32.3499400,
  "lon": 35.2752911,
  "tags": {
    "amenity": "hospital",
    "name": "Maternity Hospital",
    "name:ar": "مستشفى ولادة"
  }
},
{
  "type": "hospital",
  "id": 3867690501,
  "lat": 32.3473006,
  "lon": 35.2706442,
  "tags": {
    "amenity": "hospital",
    "name": "Medical Complex",
    "name:ar": "مجمع طبي"
  }
},
{
  "type": "hospital",
  "id": 3874448260,
  "lat": 32.3485222,
  "lon": 35.2659556,
  "tags": {
    "amenity": "hospital",
    "name": "Clinic",
    "name:ar": "عيادة طبيب عام"
  }
},
{
  "type": "hospital",
  "id": 3874448265,
  "lat": 32.3468227,
  "lon": 35.2756491,
  "tags": {
    "amenity": "hospital",
    "name": "Dentist",
    "name:ar": "عيلدة طب أسنان"
  }
},
{
  "type": "hospital",
  "id": 3874448267,
  "lat": 32.3493560,
  "lon": 35.2727040,
  "tags": {
    "amenity": "hospital",
    "name": "Clinic",
    "name:ar": "عيادة خاصة"
  }
},
{
  "type": "hospital",
  "id": 3874448268,
  "lat": 32.3467003,
  "lon": 35.2716687,
  "tags": {
    "amenity": "hospital",
    "name": "Clinic",
    "name:ar": "عيادة خاصة"
  }
},
{
  "type": "hospital",
  "id": 3893917394,
  "lat": 31.2376371,
  "lon": 29.9580884,
  "tags": {
    "amenity": "hospital",
    "healthcare": "hospital",
    "name": "مستشفى إبراهيم عبيد التخصصي",
    "name:ar": "مستشفى إبراهيم عبيد التخصصي"
  }
},
{
  "type": "hospital",
  "id": 3899055911,
  "lat": 32.0304670,
  "lon": 36.0462536,
  "tags": {
    "addr:city": "الرصيفة",
    "addr:housenumber": "156",
    "amenity": "hospital",
    "name": "مشفى الأمير فيصل"
  }
},
{
  "type": "hospital",
  "id": 3907737342,
  "lat": 31.2093808,
  "lon": 29.9113881,
  "tags": {
    "amenity": "hospital",
    "name": "مستشفى الشاطبي",
    "name:ar": "مستشفى الشاطبي"
  }
},
{
  "type": "hospital",
  "id": 3949929966,
  "lat": 30.0886950,
  "lon": 31.2538297,
  "tags": {
    "amenity": "hospital",
    "name": "Nasr el Islam Hosiptal"
  }
},
{
  "type": "hospital",
  "id": 3966621290,
  "lat": 30.0650864,
  "lon": 31.2008468,
  "tags": {
    "amenity": "hospital",
    "name": "مستشفي الواحة",
    "name:ar": "مستشفي الواحة"
  }
},
{
  "type": "hospital",
  "id": 3966621667,
  "lat": 29.8599171,
  "lon": 31.3213395,
  "tags": {
    "amenity": "hospital",
    "name": "مستشفي الهلال الأحمر المصري",
    "name:ar": "مستشفي الهلال الأحمر المصري"
  }
},
{
  "type": "hospital",
  "id": 3966621672,
  "lat": 30.5855544,
  "lon": 31.4915372,
  "tags": {
    "amenity": "hospital",
    "name": "مستشفي المبرة",
    "name:ar": "مستشفي المبرة"
  }
},
{
  "type": "hospital",
  "id": 3966621673,
  "lat": 30.1183131,
  "lon": 31.3887808,
  "tags": {
    "amenity": "hospital",
    "healthcare": "hospital",
    "name": "مجلس طبي وزارة الطيران المدنى",
    "name:ar": "مجلس طبي وزارة الطيران المدنى"
  }
},
{
  "type": "hospital",
  "id": 3966622155,
  "lat": 29.3106514,
  "lon": 30.8594770,
  "tags": {
    "amenity": "hospital",
    "healthcare": "hospital",
    "name": "مستشفي التامين الصحي بالفيوم",
    "name:ar": "مستشفي التامين الصحي بالفيوم"
  }
},
{
  "type": "hospital",
  "id": 3966622156,
  "lat": 30.0154743,
  "lon": 31.2163557,
  "tags": {
    "amenity": "hospital",
    "name": "معهد بحوث امراض الرمد",
    "name:ar": "معهد بحوث امراض الرمد"
  }
},
{
  "type": "hospital",
  "id": 3966622817,
  "lat": 30.2561237,
  "lon": 31.4744552,
  "tags": {
    "amenity": "hospital",
    "name": "عيادة التامين الصحي بالعبور (القليوبية)",
    "name:ar": "عيادة التامين الصحي بالعبور (القليوبية)"
  }
},
{
  "type": "hospital",
  "id": 3966622857,
  "lat": 30.0154244,
  "lon": 31.2154001,
  "tags": {
    "amenity": "hospital",
    "name": "معهد الرمد التذكاري للابحاث",
    "name:ar": "معهد الرمد التذكاري للابحاث"
  }
},
{
  "type": "hospital",
  "id": 3979548721,
  "lat": 31.0968978,
  "lon": 30.6736142,
  "tags": {
    "amenity": "hospital",
    "name": "مستشفى هيفاء الطبى",
    "name:ar": "مستشفى هيفاء الطبى"
  }
},
{
  "type": "hospital",
  "id": 3992599616,
  "lat": 32.3377432,
  "lon": 36.2465446,
  "tags": {
    "amenity": "hospital",
    "name": "المركز الصحي",
    "name:en": "Health Center"
  }
},
{
  "type": "hospital",
  "id": 4030318934,
  "lat": 26.1181687,
  "lon": 32.4329330,
  "tags": {
    "addr:street": "الصبريات",
    "amenity": "hospital",
    "name": "الوحده الصحية",
    "name:ar": "الوحده الصحية"
  }
},
{
  "type": "hospital",
  "id": 4117464417,
  "lat": 31.7661118,
  "lon": 35.1492452,
  "tags": {
    "amenity": "hospital",
    "emergency": "yes",
    "healthcare": "hospital",
    "name": "בניין המיון",
    "name:en": "ER building",
    "name:he": "בניין המיון"
  }
},
{
  "type": "hospital",
  "id": 4117464418,
  "lat": 31.7660554,
  "lon": 35.1499993,
  "tags": {
    "amenity": "hospital",
    "name": "מכון שרת",
    "name:en": "Sharret institute",
    "name:he": "מכון שרת"
  }
},
{
  "type": "hospital",
  "id": 4117464419,
  "lat": 31.7657585,
  "lon": 35.1500196,
  "tags": {
    "amenity": "hospital",
    "name": "בניין האשפוז הישן",
    "name:en": "Old Hospitalization building",
    "name:he": "בניין האשפוז הישן"
  }
},
{
  "type": "hospital",
  "id": 4139592439,
  "lat": 32.0599602,
  "lon": 36.0759629,
  "tags": {
    "addr:city": "الزرقاء",
    "addr:street": "بهاء الدين عبد الله",
    "amenity": "hospital",
    "emergency": "yes"
  }
},
{
  "type": "hospital",
  "id": 4139592464,
  "lat": 32.0538247,
  "lon": 36.0937621,
  "tags": {
    "addr:city": "الزرقاء",
    "amenity": "hospital",
    "name": "مستشفى الحكمة",
    "name:en": "Al Hikma Hospital"
  }
},
{
  "type": "hospital",
  "id": 4183447243,
  "lat": 31.7855868,
  "lon": 35.2408357,
  "tags": {
    "amenity": "hospital",
    "name": "مستشفى الهلال للولادة",
    "name:ar": "مستشفى الهلال للولادة",
    "name:en": "Red Cresent maternity hospital"
  }
},
{
  "type": "hospital",
  "id": 4187161790,
  "lat": 32.4665427,
  "lon": 35.2997115,
  "tags": {
    "amenity": "hospital",
    "name": "Basatine PHC",
    "name:ar": "مركز صحة البساتين",
    "name:en": "Al-basateen health center",
    "opening_hours": "Su-Th 08:00-14:00"
  }
},
{
  "type": "hospital",
  "id": 4200543590,
  "lat": 31.9734169,
  "lon": 35.9109564,
  "tags": {
    "amenity": "hospital",
    "healthcare": "hospital",
    "name": "Al Amal Hospital",
    "name:ar": "مستشفى الامل",
    "name:en": "Al Amal Hospital"
  }
},
{
  "type": "hospital",
  "id": 4201615774,
  "lat": 31.7476469,
  "lon": 35.9406671,
  "tags": {
    "amenity": "hospital",
    "name": "Baby Cord"
  }
},
{
  "type": "hospital",
  "id": 4209730508,
  "lat": 31.9114012,
  "lon": 35.9150000,
  "tags": {
    "addr:street": "Al Sakhrah Al Musharrafah Street",
    "amenity": "hospital",
    "name": "Pharmacy One"
  }
},
{
  "type": "hospital",
  "id": 4220680909,
  "lat": 32.0666808,
  "lon": 36.0970652,
  "tags": {
    "addr:city": "الزرقاء",
    "addr:street": "الجيش",
    "amenity": "hospital",
    "emergency": "yes",
    "name": "مستشفى الأمير هاشم بن الحسبن",
    "name:ar": "مستشفى",
    "name:en": "Prince Hashem bin Al Hussein Hospital"
  }
},
{
  "type": "hospital",
  "id": 4222184589,
  "lat": 31.8504960,
  "lon": 35.1759224,
  "tags": {
    "amenity": "hospital",
    "name": "الكرمل بدو",
    "name:ar": "الكرمل بدو"
  }
},
{
  "type": "hospital",
  "id": 4228221592,
  "lat": 30.9867638,
  "lon": 35.8601371,
  "tags": {
    "amenity": "hospital",
    "name": "مركز صحي محي الاولي"
  }
},
{
  "type": "hospital",
  "id": 4229667089,
  "lat": 27.1838228,
  "lon": 31.1862351,
  "tags": {
    "addr:street": "El-Nemes street",
    "amenity": "hospital",
    "emergency": "no",
    "healthcare": "hospital",
    "name": "Arc Angle Mikhael Hospital"
  }
},
{
  "type": "hospital",
  "id": 4229667090,
  "lat": 27.1858024,
  "lon": 31.1866477,
  "tags": {
    "amenity": "hospital",
    "healthcare": "hospital",
    "name": "El Zerayeen Hospital"
  }
},
{
  "type": "hospital",
  "id": 4229667091,
  "lat": 27.1817690,
  "lon": 31.1860765,
  "tags": {
    "amenity": "hospital",
    "healthcare": "hospital",
    "name": "Essam El Shrief El Tkasosy Hospital"
  }
},
{
  "type": "hospital",
  "id": 4229667092,
  "lat": 27.1910930,
  "lon": 31.1854314,
  "tags": {
    "amenity": "hospital",
    "healthcare": "hospital",
    "name": "Sant Maria Hospital"
  }
},
{
  "type": "hospital",
  "id": 4229667093,
  "lat": 27.1887258,
  "lon": 31.1792153,
  "tags": {
    "amenity": "hospital",
    "healthcare": "hospital",
    "name": "El Akaad Hospital"
  }
},
{
  "type": "hospital",
  "id": 4229667094,
  "lat": 27.1885444,
  "lon": 31.1805005,
  "tags": {
    "amenity": "hospital",
    "healthcare": "hospital",
    "name": "Dar El Shefaa Hospital"
  }
},
{
  "type": "hospital",
  "id": 4229667095,
  "lat": 27.1888976,
  "lon": 31.1812939,
  "tags": {
    "amenity": "hospital",
    "healthcare": "hospital",
    "name": "El Reda Hospital"
  }
},
{
  "type": "hospital",
  "id": 4229667096,
  "lat": 27.1888727,
  "lon": 31.1812136,
  "tags": {
    "amenity": "hospital",
    "healthcare": "hospital",
    "name": "El Zhraa Hospital"
  }
},
{
  "type": "hospital",
  "id": 4229667098,
  "lat": 27.1807668,
  "lon": 31.1874120,
  "tags": {
    "amenity": "hospital",
    "healthcare": "hospital",
    "name": "El Nseem Dr.Trez Mansour Hospital"
  }
},
{
  "type": "hospital",
  "id": 4229667099,
  "lat": 27.1906049,
  "lon": 31.1797428,
  "tags": {
    "amenity": "hospital",
    "healthcare": "hospital",
    "name": "El Hayah Hospital",
    "name:ar": "مستشفی الحياة"
  }
},
{
  "type": "hospital",
  "id": 4229667100,
  "lat": 27.1907612,
  "lon": 31.1802102,
  "tags": {
    "amenity": "hospital",
    "healthcare": "hospital",
    "name": "El Safaa Hospital"
  }
},
{
  "type": "hospital",
  "id": 4229667101,
  "lat": 27.1857479,
  "lon": 31.1818518,
  "tags": {
    "amenity": "hospital",
    "healthcare": "hospital",
    "name": "El Aksaa Hospital"
  }
},
{
  "type": "hospital",
  "id": 4229667102,
  "lat": 27.1968316,
  "lon": 31.1786987,
  "tags": {
    "amenity": "hospital",
    "name": "El Salama Hospital"
  }
},
{
  "type": "hospital",
  "id": 4229667103,
  "lat": 27.1933698,
  "lon": 31.1800197,
  "tags": {
    "amenity": "hospital",
    "healthcare": "hospital",
    "name": "مستشفى الشرطة",
    "name:ar": "The Police Hospital"
  }
},
{
  "type": "hospital",
  "id": 4229667104,
  "lat": 27.1954364,
  "lon": 31.1765800,
  "tags": {
    "amenity": "hospital",
    "healthcare": "hospital",
    "name": "El Sadr Hospital"
  }
},
{
  "type": "hospital",
  "id": 4229667105,
  "lat": 27.1953832,
  "lon": 31.1749665,
  "tags": {
    "amenity": "hospital",
    "healthcare": "hospital",
    "name": "El Seha El Nafsya Hospital",
    "name:ar": "مستشفی الصحة النفسية"
  }
},
{
  "type": "hospital",
  "id": 4229667119,
  "lat": 27.1931881,
  "lon": 31.1881692,
  "tags": {
    "amenity": "hospital",
    "healthcare": "hospital",
    "name": "مستشفى المبرة",
    "name:ar": "مستشفى المبرة",
    "name:en": "Al Mabara Hospital"
  }
},
{
  "type": "hospital",
  "id": 4229667120,
  "lat": 27.1848327,
  "lon": 31.1662870,
  "tags": {
    "addr:city": "أسيوط",
    "amenity": "hospital",
    "healthcare": "hospital",
    "name": "مستشفی جامعة أسيوط",
    "name:ar": "مستشفی جامعة أسيوط",
    "name:en": "Asyut University Hospital",
    "name:es": "Hospital Universitario de Asiut"
  }
},
{
  "type": "hospital",
  "id": 4229667121,
  "lat": 27.1669352,
  "lon": 31.1940161,
  "tags": {
    "amenity": "hospital",
    "name": "Nekabet El Moalmen Hospital"
  }
},
{
  "type": "hospital",
  "id": 4229667122,
  "lat": 27.1972290,
  "lon": 31.1794283,
  "tags": {
    "amenity": "hospital",
    "name": "El Fayrouz Hospital"
  }
},
{
  "type": "hospital",
  "id": 4231062541,
  "lat": 28.3737652,
  "lon": 36.5801972,
  "tags": {
    "amenity": "hospital",
    "name": "KKAFH Work"
  }
},
{
  "type": "hospital",
  "id": 4297074605,
  "lat": 32.2207133,
  "lon": 35.2315003,
  "tags": {
    "addr:street": "Al-Mkhfya Street",
    "amenity": "hospital",
    "name": "مديرية الصحة المخفية"
  }
},
{
  "type": "hospital",
  "id": 4302150189,
  "lat": 30.0917446,
  "lon": 31.3065805,
  "tags": {
    "addr:country": "EG",
    "addr:district": "مصر الجديده",
    "addr:district:en": "Heliopolis",
    "addr:housenumber": "13",
    "addr:postcode": "11774",
    "addr:province": "القاهرة",
    "addr:province:en": "Cairo",
    "addr:street": "شارع جسر السويس",
    "addr:street:en": "Gesr Al Suez Street",
    "addr:subdistrict": "منشيه البكرى",
    "addr:subdistrict:en": "Mansheyet El Bakry",
    "amenity": "hospital",
    "name": "مستشفى منشية البكرى العام",
    "name:ar": "مستشفى منشية البكرى العام",
    "name:en": "Manshiet El Bakry General Hospital"
  }
},
{
  "type": "hospital",
  "id": 4304602996,
  "lat": 31.9857692,
  "lon": 35.8784005,
  "tags": {
    "addr:street": "شارع وصفي التل",
    "amenity": "hospital",
    "healthcare": "hospital",
    "name": "Gardens"
  }
},
{
  "type": "hospital",
  "id": 4317842391,
  "lat": 32.2124759,
  "lon": 35.2725611,
  "tags": {
    "addr:street": "Khalit Al-Amoud Street",
    "amenity": "hospital",
    "name": "مركز الهلال الأحمر",
    "opening_hours": "Su-Th 07:45-15:00",
    "phone": "092380215"
  }
},
{
  "type": "hospital",
  "id": 4317864289,
  "lat": 32.2124704,
  "lon": 35.2726276,
  "tags": {
    "addr:street": "Khalit Al-Amoud Street",
    "amenity": "hospital",
    "internet_access": "wlan",
    "name": "Ambulance station",
    "opening_hours": "24/7",
    "phone": "092380399",
    "website": "https://www.palestinercs.org/"
  }
},
{
  "type": "hospital",
  "id": 4318901291,
  "lat": 32.4619185,
  "lon": 35.2926198,
  "tags": {
    "amenity": "hospital",
    "name": "جمعية أصدقاء المريض",
    "name:en": "Friends of the patient association",
    "opening_hours": "24/7"
  }
},
{
  "type": "hospital",
  "id": 4318935592,
  "lat": 32.4620920,
  "lon": 35.2915276,
  "tags": {
    "amenity": "hospital",
    "name": "مستشفى جنين الحكومي",
    "name:en": "Jenin Governmental Hospital",
    "opening_hours": "24/7",
    "wikidata": "Q54870512"
  }
},
{
  "type": "hospital",
  "id": 4322642491,
  "lat": 32.3499357,
  "lon": 35.2698650,
  "tags": {
    "addr:street": "Salah Ad Deen",
    "amenity": "hospital",
    "name": "مركز طيبة للاشعة"
  }
},
{
  "type": "hospital",
  "id": 4328094091,
  "lat": 29.8166988,
  "lon": 31.3607490,
  "tags": {
    "addr:street": "١٥ مايو مجاورة ١٢",
    "amenity": "hospital",
    "name": "مستشفى التقوى",
    "name:ar": "مستشفي التقوي",
    "name:en": "Altaqwa hospital"
  }
},
{
  "type": "hospital",
  "id": 4338866103,
  "lat": 30.0464766,
  "lon": 31.2126874,
  "tags": {
    "amenity": "hospital",
    "healthcare": "hospital",
    "name": "مستشفى جامكا",
    "name:ar": "مستشفى جامكا"
  }
},
{
  "type": "hospital",
  "id": 4354418608,
  "lat": 31.4515948,
  "lon": 35.0956265,
  "tags": {
    "addr:street": "Main Street. الشارع الءيسي",
    "amenity": "hospital",
    "name": "Al Yasmeen Emergency Medical center , X-ray, Labaratory",
    "name:ar": "مركز الياسمين الطبي ، طواريء, تصوير اشعه، مختبر ٢٤ ساعه"
  }
},
{
  "type": "hospital",
  "id": 4357173646,
  "lat": 31.5391896,
  "lon": 34.5374460,
  "tags": {
    "amenity": "hospital",
    "healthcare": "hospital",
    "name": "مستشفى بيت حانون",
    "name:ar": "مستشفى بيت حانون",
    "name:en": "Beit Hanon hospital",
    "name:ja": "ベイトハヌーン病院",
    "opening_hours": "24/7"
  }
},
{
  "type": "hospital",
  "id": 4362086147,
  "lat": 30.0646977,
  "lon": 31.3465042,
  "tags": {
    "amenity": "hospital",
    "healthcare": "hospital",
    "name": "مستشفى العاملين بقطاع البترول",
    "name:ar": "مستشفى العاملين بقطاع البترول",
    "name:en": "Petroleum Hospital",
    "name_1": "مستشفى البترول"
  }
},
{
  "type": "hospital",
  "id": 4362762999,
  "lat": 30.0553338,
  "lon": 31.1912737,
  "tags": {
    "addr:city": "القاهرة",
    "amenity": "hospital",
    "healthcare": "hospital",
    "name": "مستشفى الأمل",
    "name:ar": "مستشفى الأمل"
  }
},
{
  "type": "hospital",
  "id": 4383719591,
  "lat": 31.8941139,
  "lon": 35.2128301,
  "tags": {
    "amenity": "hospital",
    "name": "الهلال الاحمر",
    "name:ar": "الهلال الاحمر",
    "name:en": "Al Hilal Al Ahmar"
  }
},
{
  "type": "hospital",
  "id": 4388651689,
  "lat": 31.2168739,
  "lon": 29.9422849,
  "tags": {
    "addr:housenumber": "24",
    "addr:street": "شارع بهاء الدين الغتوري",
    "amenity": "hospital",
    "name": "مستشفى مركز القلب الدولي icc",
    "name:ar": "مستشفى مركز القلب الدولي icc"
  }
},
{
  "type": "hospital",
  "id": 4424820093,
  "lat": 29.9566283,
  "lon": 32.5064034,
  "tags": {
    "addr:street": "السخنة",
    "amenity": "hospital",
    "name": "المركز الطبي للبترول",
    "name:ar": "المركز الطبي للبترول"
  }
},
{
  "type": "hospital",
  "id": 4433190689,
  "lat": 32.2389101,
  "lon": 35.2452907,
  "tags": {
    "amenity": "hospital",
    "name": "مستشفى جامعة النجاح",
    "name:ar": "مستشفى جامعة النجاح"
  }
},
{
  "type": "hospital",
  "id": 4449445617,
  "lat": 31.9013989,
  "lon": 35.9339756,
  "tags": {
    "addr:street": "شارع كفارنة",
    "amenity": "hospital",
    "emergency": "yes",
    "healthcare": "hospital",
    "name": "مستشفى الحمايده",
    "name:en": "Alhamayda Hospital"
  }
},
{
  "type": "hospital",
  "id": 4461256790,
  "lat": 31.8932424,
  "lon": 35.2131179,
  "tags": {
    "amenity": "hospital",
    "name": "جمعية اله",
    "name:ar": "جمعية الهلال الحمر",
    "name:en": "Palestinian society for health"
  }
},
{
  "type": "hospital",
  "id": 4462933290,
  "lat": 31.7688464,
  "lon": 35.2680230,
  "tags": {
    "addr:street": "Aleskan Street",
    "amenity": "hospital",
    "name": "مديرية صحة محافظة القدس",
    "opening_hours": "Su-Th 08:00-15:00"
  }
},
{
  "type": "hospital",
  "id": 4463630990,
  "lat": 32.4616576,
  "lon": 35.2934441,
  "tags": {
    "amenity": "hospital",
    "name": "مستشفى الامل",
    "name:ar": "مستشفى الامل",
    "name:en": "Al Amal Hospital"
  }
},
{
  "type": "hospital",
  "id": 4486068989,
  "lat": 31.5473547,
  "lon": 34.4575707,
  "tags": {
    "amenity": "hospital",
    "healthcare": "hospital",
    "name": "مستشفى الأطراف الصناعية",
    "name:ar": "مستشفى الأطراف الصناعية",
    "name:pt": "Hospital de Próteses"
  }
},
{
  "type": "hospital",
  "id": 4487345086,
  "lat": 26.7555185,
  "lon": 33.9416320,
  "tags": {
    "amenity": "hospital"
  }
},
{
  "type": "hospital",
  "id": 4507494489,
  "lat": 30.5409402,
  "lon": 31.6781779,
  "tags": {
    "amenity": "hospital",
    "name": "مستشفى ابوحماد العام",
    "name:ar": "مستشفى ابوحماد العام",
    "name:en": "General hospital in abu hamad",
    "opening_hours": "24/7"
  }
},
{
  "type": "hospital",
  "id": 4514534944,
  "lat": 25.5395721,
  "lon": 34.6165178,
  "tags": {
    "amenity": "hospital",
    "healthcare": "hyperbaric_chamber",
    "hyperbaric_chamber:phone": "+2 012 219 0383",
    "hyperbaric_chamber:website": "www.deco-international.com",
    "name": "Port Ghalib Hospital",
    "phone": "+20 100 000 4402",
    "url": "https://www.facebook.com/portghalibhospital",
    "website": "http://www.portghalibhospital.com/"
  }
},
{
  "type": "hospital",
  "id": 4515942291,
  "lat": 29.0699244,
  "lon": 31.0856492,
  "tags": {
    "amenity": "hospital",
    "healthcare": "hospital",
    "name": "مستشفى الدعوة",
    "name:ar": "مستشفى الدعوة"
  }
},
{
  "type": "hospital",
  "id": 4515942490,
  "lat": 29.0741499,
  "lon": 31.1150868,
  "tags": {
    "amenity": "hospital",
    "healthcare": "hospital",
    "name": "مستشفى التأمين الصحى ببنى سويف",
    "name:ar": "مستشفى التأمين الصحى ببنى سويف"
  }
},
{
  "type": "hospital",
  "id": 4516041489,
  "lat": 29.9903962,
  "lon": 31.1500643,
  "tags": {
    "amenity": "hospital",
    "healthcare": "hospital",
    "name": "مستشفى الهرم",
    "name:ar": "مستشفى الهرم",
    "name:en": "Al haram hospital"
  }
},
{
  "type": "hospital",
  "id": 4518397388,
  "lat": 30.9766441,
  "lon": 31.1759901,
  "tags": {
    "amenity": "hospital",
    "name": "مستشفى المحلة الكبرى العام",
    "name:ar": "مستشفى المحلة الكبرى العام"
  }
},
{
  "type": "hospital",
  "id": 4520377800,
  "lat": 30.5461800,
  "lon": 31.6781111,
  "tags": {
    "addr:housename": "برج العاصمه (مهندس كمال صالح)",
    "addr:housenumber": "54",
    "addr:street": "شارع مستشفى الصدر",
    "addr:street:en": "Mostashfa Al Sadr Street",
    "amenity": "hospital"
  }
},
{
  "type": "hospital",
  "id": 4524942519,
  "lat": 32.4619047,
  "lon": 35.2924551,
  "tags": {
    "amenity": "hospital",
    "name": "مستشفى الشهيد خليل سليمان الحكومي",
    "name:en": "Government Jenin Hospital",
    "opening_hours": "24/7",
    "website": "https://www.moh.gov.ps/"
  }
},
{
  "type": "hospital",
  "id": 4535673596,
  "lat": 30.0527770,
  "lon": 31.1971210,
  "tags": {
    "addr:city": "القاهرة",
    "amenity": "hospital",
    "healthcare": "hospital",
    "name": "رواد تصحيح الإبصار",
    "name:ar": "رواد تصحيح الإبصار"
  }
},
{
  "type": "hospital",
  "id": 4541619494,
  "lat": 25.9217049,
  "lon": 32.7515625,
  "tags": {
    "amenity": "hospital",
    "healthcare": "hospital",
    "name": "مستشفي قوص المركزى",
    "name:ar": "مستشفي قوص المركزى",
    "name:en": "Qus central hospital"
  }
},
{
  "type": "hospital",
  "id": 4542663991,
  "lat": 30.3671090,
  "lon": 30.5059541,
  "tags": {
    "amenity": "hospital",
    "name": "مستشفي السادات العام",
    "name:ar": "مستشفي السادات العام"
  }
},
{
  "type": "hospital",
  "id": 4546727390,
  "lat": 31.9797235,
  "lon": 35.9781347,
  "tags": {
    "amenity": "hospital",
    "name:en": "Al Mowasah Hospital"
  }
},
{
  "type": "hospital",
  "id": 4547253789,
  "lat": 28.3989424,
  "lon": 36.5760808,
  "tags": {
    "addr:postcode": "47311",
    "addr:street": "طريق الأمير فهد بن سلطان بن عبد العزيز",
    "amenity": "hospital",
    "name:en": "Prince Fahd bin sultan (952 patient )"
  }
},
{
  "type": "hospital",
  "id": 4548173996,
  "lat": 30.0292907,
  "lon": 31.2349472,
  "tags": {
    "amenity": "hospital",
    "name": "مستشفي اطفال مصر- التأمين الصحي",
    "name:ar": "مستشفي اطفال مصر- التأمين الصحي",
    "name:en": "All Egypt Children Hospital"
  }
},
{
  "type": "hospital",
  "id": 4557847093,
  "lat": 30.0941921,
  "lon": 31.3352883,
  "tags": {
    "amenity": "hospital",
    "healthcare": "hospital",
    "name": "مستشفى شاكر",
    "name:ar": "مستشفى شاكر",
    "name:en": "Shaker Hospital"
  }
},
{
  "type": "hospital",
  "id": 4561090493,
  "lat": 30.0559906,
  "lon": 31.3305290,
  "tags": {
    "amenity": "hospital",
    "healthcare": "hospital",
    "name": "مستشفي جمال ابو العزايم",
    "name:ar": "مستشفي جمال ابو العزايم"
  }
},
{
  "type": "hospital",
  "id": 4563330892,
  "lat": 31.2109273,
  "lon": 29.9265176,
  "tags": {
    "amenity": "hospital",
    "name": "مستشفى الانبا تكلا التخصصى",
    "name:ar": "مستشفى الانبا تكلا التخصصى",
    "name:en": "Sant Takla Speciality Hospitalia",
    "opening_hours": "24/7",
    "phone": "035921288"
  }
},
{
  "type": "hospital",
  "id": 4567788194,
  "lat": 32.0852833,
  "lon": 23.9682930,
  "tags": {
    "addr:description": "سوق النسر",
    "addr:description:ar": "سوق النسر",
    "amenity": "hospital",
    "healthcare": "hospital",
    "language:ar": "main",
    "name": "عيادة أحمد حسين الطبية",
    "name:ar": "عيادة أحمد حسين الطبية",
    "name:en": "Ahmed Hussein Medical Clinic",
    "opening_hours": "24/7"
  }
},
{
  "type": "hospital",
  "id": 4569230990,
  "lat": 31.1949882,
  "lon": 29.9168071,
  "tags": {
    "addr:street": "الرصافة",
    "amenity": "hospital",
    "name": "مستشفى النزهة للقلب والعناية المركزة",
    "name:ar": "مستشفى النزهة للقلب والعناية المركزة"
  }
},
{
  "type": "hospital",
  "id": 4574729095,
  "lat": 32.3255812,
  "lon": 35.6493974,
  "tags": {
    "amenity": "hospital"
  }
},
{
  "type": "hospital",
  "id": 4575983739,
  "lat": 26.7001425,
  "lon": 31.6016112,
  "tags": {
    "amenity": "hospital",
    "name": "د. هناء شهدى",
    "name:ar": "د. هناء شهدى"
  }
},
{
  "type": "hospital",
  "id": 4575984694,
  "lat": 26.5461182,
  "lon": 31.6978573,
  "tags": {
    "amenity": "hospital",
    "name": "د.عبد الناصر بدوى",
    "name:ar": "د.عبد الناصر بدوى"
  }
},
{
  "type": "hospital",
  "id": 4576043491,
  "lat": 26.3324161,
  "lon": 31.8911944,
  "tags": {
    "amenity": "hospital",
    "name": "د.نبيل صابر",
    "name:ar": "د.نبيل صابر"
  }
},
{
  "type": "hospital",
  "id": 4576058589,
  "lat": 26.7007093,
  "lon": 31.6016394,
  "tags": {
    "amenity": "hospital",
    "name": "م المراغة العام",
    "name:ar": "م المراغة العام"
  }
},
{
  "type": "hospital",
  "id": 4579119892,
  "lat": 32.4923539,
  "lon": 35.2396946,
  "tags": {
    "amenity": "hospital",
    "name": "مستوصف",
    "name:ar": "مستوصف"
  }
},
{
  "type": "hospital",
  "id": 4582642294,
  "lat": 26.5555478,
  "lon": 37.9499500,
  "tags": {
    "addr:street": "طريق المدينة المنورة",
    "amenity": "hospital",
    "name": "مستشفى الأمير عبدالمحسن",
    "name:ar": "مستشفى الأمير عبدالمحسن"
  }
},
{
  "type": "hospital",
  "id": 4587257690,
  "lat": 29.9674551,
  "lon": 31.2417400,
  "tags": {
    "addr:street": "كورنيش النيل",
    "amenity": "hospital",
    "healthcare": "hospital",
    "name": "مستشفى المعادى ق.م",
    "name:ar": "مستشفى المعادى ق.م",
    "name:en": "Maadi Hosp. A.F",
    "opening_hours": "Sa-Th 09:00-21:00"
  }
},
{
  "type": "hospital",
  "id": 4590994296,
  "lat": 32.3238719,
  "lon": 35.3765150,
  "tags": {
    "amenity": "hospital",
    "name": "الهلال الأحمر الفلسطيني",
    "name:ar": "الهلال الأحمر الفلسطيني",
    "name:en": "Palestinian Red Crescent"
  }
},
{
  "type": "hospital",
  "id": 4592954796,
  "lat": 32.3238469,
  "lon": 35.3765510,
  "tags": {
    "amenity": "hospital",
    "name": "الهلال الأحمر الفلسطيني",
    "name:ar": "الهلال الأحمر الفلسطيني",
    "name:en": "Palestinian Red Crescent"
  }
},
{
  "type": "hospital",
  "id": 4596477389,
  "lat": 32.3374193,
  "lon": 35.3566332,
  "tags": {
    "amenity": "hospital",
    "name": "مستشفى طوباس التركي الحكومي",
    "name:ar": "مستشفى طوباس التركي الحكومي",
    "wikidata": "Q54870513"
  }
},
{
  "type": "hospital",
  "id": 4615939994,
  "lat": 30.0593917,
  "lon": 31.4918090,
  "tags": {
    "amenity": "hospital",
    "name:en": "المركز الطبي ٢"
  }
},
{
  "type": "hospital",
  "id": 4617738093,
  "lat": 30.1910009,
  "lon": 35.7284382,
  "tags": {
    "amenity": "hospital",
    "name": "مستشفى معان الحكومي",
    "name:ar": "مستشفى معان الحكومي",
    "name:en": "Maan Government Hospital"
  }
},
{
  "type": "hospital",
  "id": 4631910691,
  "lat": 31.9473862,
  "lon": 35.8954029,
  "tags": {
    "addr:city": "عمان",
    "amenity": "hospital",
    "healthcare": "hospital",
    "name": "مستشفى الحياة",
    "name:ar": "مستشفى الحياة",
    "name:en": "Al Hayat Hospital"
  }
},
{
  "type": "hospital",
  "id": 4631910891,
  "lat": 31.9214533,
  "lon": 35.9031193,
  "tags": {
    "amenity": "hospital",
    "name": "مستشفى الحياة العام هبة الله",
    "name:ar": "مستشفى الحياة العام هبة الله"
  }
},
{
  "type": "hospital",
  "id": 4639297591,
  "lat": 31.5102562,
  "lon": 34.4585173,
  "tags": {
    "addr:street": "شارع الوحدة",
    "amenity": "hospital",
    "healthcare": "hospital",
    "name": "مستشفى الخدمة العامة (وحدة القلب)",
    "name:ar": "عيادة الخدمة العامة (وحدة القلب)"
  }
},
{
  "type": "hospital",
  "id": 4643156891,
  "lat": 30.1130399,
  "lon": 31.3181568,
  "tags": {
    "amenity": "hospital",
    "name": "مستشفي الحلمية العسكري",
    "name:ar": "مستشفي الحلمية العسكري",
    "name:en": "El helmya hospital"
  }
},
{
  "type": "hospital",
  "id": 4643646691,
  "lat": 31.2440232,
  "lon": 32.3202676,
  "tags": {
    "amenity": "hospital",
    "healthcare": "hospital",
    "name": "مستشفى بورفواد",
    "name:ar": "مستشفى بورفواد"
  }
},
{
  "type": "hospital",
  "id": 4649251789,
  "lat": 31.9679603,
  "lon": 35.9170648,
  "tags": {
    "addr:street": "Khaled Bin Al Waleed Street",
    "amenity": "hospital",
    "name": "مستشفى هبة للولادة",
    "name:en": "Heba hospital",
    "opening_hours": "24/7"
  }
},
{
  "type": "hospital",
  "id": 4658648390,
  "lat": 30.5872137,
  "lon": 31.4909946,
  "tags": {
    "amenity": "hospital",
    "name": "عيادة المبرة الشاملة",
    "name:ar": "عيادة المبرة الشاملة"
  }
},
{
  "type": "hospital",
  "id": 4679361798,
  "lat": 31.5363560,
  "lon": 34.4962551,
  "tags": {
    "amenity": "hospital",
    "healthcare": "hospital",
    "name": "مستشفى اليمن السعيد",
    "name:ar": "مستشفى اليمن السعيد",
    "name:ja": "イエメン・アル＝サイード病院"
  }
},
{
  "type": "hospital",
  "id": 4682221091,
  "lat": 30.0486115,
  "lon": 31.2079311,
  "tags": {
    "amenity": "hospital",
    "healthcare": "hospital",
    "name": "دكتور بدران",
    "name:ar": "دكتور بدران"
  }
},
{
  "type": "hospital",
  "id": 4683208396,
  "lat": 31.2103065,
  "lon": 29.9385546,
  "tags": {
    "amenity": "hospital",
    "name": "مستشفى المدينة للمرأة",
    "name:ar": "مستشفى المدينة للمرأة",
    "name:en": "Madina women's Hospital"
  }
},
{
  "type": "hospital",
  "id": 4693001189,
  "lat": 29.9907225,
  "lon": 31.1506313,
  "tags": {
    "amenity": "hospital",
    "name": "مستشفي الهرم",
    "name:ar": "مستشفي الهرم",
    "name:en": "Al Haram Hospital"
  }
},
{
  "type": "hospital",
  "id": 4711604389,
  "lat": 30.3688270,
  "lon": 34.3952838,
  "tags": {
    "addr:street": "قرية بئر بدا مركز الحسنة",
    "amenity": "hospital",
    "name": "الوحدة الصحية",
    "name:ar": "الوحدة الصحية"
  }
},
{
  "type": "hospital",
  "id": 4711969419,
  "lat": 31.4794776,
  "lon": 34.4117070,
  "tags": {
    "amenity": "hospital",
    "healthcare": "hospital",
    "name": "مستشفى الصداقة التركي الفلسطيني",
    "name:ar": "مستشفى الصداقة التركي",
    "name:en": "Turkey -Palestine friendship hospital"
  }
},
{
  "type": "hospital",
  "id": 4722959289,
  "lat": 31.4733218,
  "lon": 34.4048538,
  "tags": {
    "addr:postcode": "99999",
    "addr:street": "Akka Street",
    "amenity": "hospital",
    "email": "bexecutive@elwafa.ps",
    "healthcare": "hospital",
    "internet_access": "wlan",
    "name": "El Wafa Elderly Care Center",
    "name:ar": "El Wafa Elderly Care Center",
    "opening_hours": "24/7",
    "phone": "972082625003",
    "website": "http://www.elwafa.ps"
  }
},
{
  "type": "hospital",
  "id": 4729217994,
  "lat": 31.5134844,
  "lon": 34.4528214,
  "tags": {
    "addr:postcode": "99999",
    "addr:street": "Al-Yarmok Street",
    "amenity": "hospital",
    "email": "bmedhat@gmail.com",
    "healthcare": "hospital",
    "internet_access": "wlan",
    "name": "مستشفى الوفاء للتأهيل الطبي والجراحة التخصصية",
    "name:ar": "مستشفى الوفاء للتأهيل الطبي والجراحة التخصصية",
    "name:en": "El Wafa Medical Rehab and specialized Surgery Hospital",
    "name:ja": "アル＝ワファ医療リハビリテーション専門手術病院",
    "phone": "+970598877011",
    "website": "http://www.elwafa.ps"
  }
},
{
  "type": "hospital",
  "id": 4733980424,
  "lat": 30.0930561,
  "lon": 31.3826141,
  "tags": {
    "addr:street": "طريق النصر",
    "amenity": "hospital",
    "healthcare": "hospital",
    "name": "مركز طبي مساكن شيراتون",
    "name:ar": "مركز طبي مساكن شيراتون",
    "wheelchair": "limited"
  }
},
{
  "type": "hospital",
  "id": 4743134421,
  "lat": 26.7738527,
  "lon": 31.4973678,
  "tags": {
    "amenity": "hospital",
    "name": "طهطا العام",
    "name:ar": "طهطا العام"
  }
},
{
  "type": "hospital",
  "id": 4745917821,
  "lat": 31.2123904,
  "lon": 29.9406952,
  "tags": {
    "addr:street": "محمد فوزى معاذ",
    "amenity": "hospital",
    "name": "مركز الصفوة للعيون",
    "name:ar": "مركز الصفوة للعيون"
  }
},
{
  "type": "hospital",
  "id": 4745917822,
  "lat": 31.2337129,
  "lon": 29.9520648,
  "tags": {
    "amenity": "hospital",
    "healthcare": "hospital",
    "name": "الهيئة العامة للتأمين الصحي",
    "name:ar": "الهيئة العامة للتأمين الصحي"
  }
},
{
  "type": "hospital",
  "id": 4746747421,
  "lat": 31.9061240,
  "lon": 35.2048397,
  "tags": {
    "addr:street": "Al-Ersal Street شارع الارسال",
    "amenity": "hospital",
    "name": "مركز الشافعي للاشعه",
    "name:ar": "مركز الشافعي للاشعه",
    "name:en": "Alshafee radiology center",
    "opening_hours": "Sa-Th; Fr 08:00-18:00"
  }
},
{
  "type": "hospital",
  "id": 4754465334,
  "lat": 30.7352406,
  "lon": 31.2728416,
  "tags": {
    "amenity": "hospital",
    "name": "مستشفى التكامل بميت محسن",
    "name:ar": "مستشفى التكامل بميت محسن"
  }
},
{
  "type": "hospital",
  "id": 4755252221,
  "lat": 32.2229530,
  "lon": 35.2551483,
  "tags": {
    "addr:city": "نابلس",
    "amenity": "hospital",
    "name": "الانجيلي العربي",
    "name:ar": "المستشفى الانجيلي العربي",
    "name:en": "saint Luke's hospital",
    "name:it": "Saint Luke's",
    "wikidata": "Q55965654"
  }
},
{
  "type": "hospital",
  "id": 4759348722,
  "lat": 31.2083488,
  "lon": 29.8815197,
  "tags": {
    "amenity": "hospital",
    "healthcare": "hospital",
    "name": "مستشفى النقراشي",
    "name:ar": "مستشفى النقراشي",
    "name:en": "Al-Nukrashi Hospital"
  }
},
{
  "type": "hospital",
  "id": 4765039480,
  "lat": 31.0474963,
  "lon": 31.3844462,
  "tags": {
    "addr:city": "المنصورة",
    "addr:housenumber": "195",
    "addr:street": "شارع الجمهورية",
    "amenity": "hospital",
    "description": "Outpatient Clinic",
    "elevator": "yes",
    "email": "mhegazy@mans.edu.eg",
    "emergency": "no",
    "healthcare": "hospital",
    "level": "5",
    "name": "عيادة أ.د. محمد أبوحجازى لطب المخ والأعصاب Prof.Dr. Mohammad Abu-Hegazy, Neurology Consultant",
    "name:ar": "عيادة أ.د. محمد أبوحجازى لطب المخ والأعصاب Prof.Dr. Mohammad Abu-Hegazy, Neurology Consultant",
    "operator": "Prof. Dr. Mohammad Abu-Hegazy",
    "phone": "+20502227981;+201063576123",
    "wheelchair": "yes"
  }
},
{
  "type": "hospital",
  "id": 4781406721,
  "lat": 31.2168583,
  "lon": 29.9415560,
  "tags": {
    "amenity": "hospital",
    "name": "مستشفى بدراوى",
    "name:ar": "مستشفى بدراوى"
  }
},
{
  "type": "hospital",
  "id": 4787216421,
  "lat": 30.5606982,
  "lon": 31.0152798,
  "tags": {
    "amenity": "hospital",
    "name": "مستشفي موده عيون",
    "name:ar": "مستشفي موده عيون"
  }
},
{
  "type": "hospital",
  "id": 4793636221,
  "lat": 32.4581139,
  "lon": 35.3008139,
  "tags": {
    "amenity": "hospital",
    "healthcare": "hospital",
    "name": "مستشفى الرازي",
    "name:en": "Al-Razi Hospital"
  }
},
{
  "type": "hospital",
  "id": 4795820944,
  "lat": 32.2639560,
  "lon": 35.8575497,
  "tags": {
    "amenity": "hospital",
    "description": "مركز صحي شامل ",
    "healthcare": "hospital",
    "healthcare:speciality": "ophthalmology",
    "name": "مركز صحي مخيم جرش",
    "operator": "وزارة الصحة"
  }
},
{
  "type": "hospital",
  "id": 4812390121,
  "lat": 25.2916299,
  "lon": 32.5583775,
  "tags": {
    "amenity": "hospital",
    "healthcare": "hospital",
    "name": "مست إسنا المركزي",
    "name:ar": "مست إسنا المركزي"
  }
},
{
  "type": "hospital",
  "id": 4829303623,
  "lat": 30.0507952,
  "lon": 31.2112053,
  "tags": {
    "addr:street": "شارع البطل أحمد عبد العزيز",
    "amenity": "hospital",
    "healthcare": "hospital",
    "name": "المصل واللقاح",
    "name:ar": "المصل واللقاح",
    "name:en": "Al massl WA Liqah"
  }
},
{
  "type": "hospital",
  "id": 4838404723,
  "lat": 25.5025387,
  "lon": 32.4759886,
  "tags": {
    "amenity": "hospital",
    "name": "وحدة صحة الغريرة",
    "name:ar": "وحدة صحة الغريرة"
  }
},
{
  "type": "hospital",
  "id": 4843927723,
  "lat": 24.0028068,
  "lon": 38.2009890,
  "tags": {
    "addr:street": "AL Jabal",
    "amenity": "hospital",
    "email": "gnpyanbu@gmail.com",
    "internet_access": "wlan",
    "name": "مجمع عيادات غسان نجيب فرعون للاسنان",
    "name:en": "GNP YANBU",
    "opening_hours": "Sa-We 09:00-21:00; Th 09:00-13:00",
    "phone": "0143923222",
    "website": "https://www.gnp.com.sa/"
  }
},
{
  "type": "hospital",
  "id": 4853146022,
  "lat": 30.3689577,
  "lon": 34.3951440,
  "tags": {
    "amenity": "hospital"
  }
},
{
  "type": "hospital",
  "id": 4853146023,
  "lat": 30.3689709,
  "lon": 34.3951402,
  "tags": {
    "amenity": "hospital",
    "name": "الوحدة الصحية بقرية بئر بدا",
    "name:ar": "الوحدة الصحية بقرية بئر بدا"
  }
},
{
  "type": "hospital",
  "id": 4858571821,
  "lat": 31.8421659,
  "lon": 35.2302569,
  "tags": {
    "addr:street": "ראמאללה",
    "amenity": "hospital",
    "internet_access": "wlan",
    "name": "مركز بيسان الصحي",
    "name:ar": "مركز بيسان الصحي",
    "name:en": "Bissan Medical Center",
    "opening_hours": "Sa-Th 08:00-00:00; Fr 15:00-20:00"
  }
},
{
  "type": "hospital",
  "id": 4864275521,
  "lat": 32.0052337,
  "lon": 35.8738245,
  "tags": {
    "amenity": "hospital",
    "healthcare": "hospital",
    "name": "الحسين لسر طان",
    "name:ar": "الحسين لسر طان"
  }
},
{
  "type": "hospital",
  "id": 4875588821,
  "lat": 32.3245579,
  "lon": 35.1609716,
  "tags": {
    "addr:street": "القواس alqwas",
    "amenity": "hospital",
    "name": "مركز العطارة الطبي",
    "name:ar": "مركز العطارة الطبي"
  }
},
{
  "type": "hospital",
  "id": 4889354321,
  "lat": 31.8970726,
  "lon": 35.2060783,
  "tags": {
    "amenity": "hospital",
    "healthcare": "hospital",
    "name": "المستشفى الكويتي الجراحي التخصصي",
    "name:ar": "المستشفى الكويتي الجراحي التخصصي",
    "name:en": "Kuwait Surgical Hospital"
  }
},
{
  "type": "hospital",
  "id": 4908449421,
  "lat": 30.4228647,
  "lon": 38.4061905,
  "tags": {
    "amenity": "hospital"
  }
},
{
  "type": "hospital",
  "id": 4913935120,
  "lat": 28.6954304,
  "lon": 30.7747717,
  "tags": {
    "amenity": "hospital",
    "name": "مستشفى العدوة العام",
    "name:ar": "مستشفى العدوة العام"
  }
},
{
  "type": "hospital",
  "id": 4914746727,
  "lat": 30.0983691,
  "lon": 31.2492731,
  "tags": {
    "addr:street": "شارع بين المدارس",
    "amenity": "hospital",
    "internet_access": "wlan",
    "name": "مستشفي الفتح الخلفاوي",
    "name:ar": "مستشفي الفتح الخلفاوي",
    "name:en": "Elfath hospital elkhalafawi",
    "phone": "0222040416"
  }
},
{
  "type": "hospital",
  "id": 4915754710,
  "lat": 25.0551937,
  "lon": 37.2503610,
  "tags": {
    "addr:street": "King abdulla",
    "amenity": "hospital",
    "name": "Umlujj General Hospital",
    "opening_hours": "Mo-Su 00:00-12:00"
  }
},
{
  "type": "hospital",
  "id": 4924166623,
  "lat": 30.1046866,
  "lon": 31.3334341,
  "tags": {
    "amenity": "hospital",
    "name": "مستشفي بتروجاس",
    "name:ar": "مستشفي بتروجاس",
    "name:en": "Petrogas Hispital"
  }
},
{
  "type": "hospital",
  "id": 4927950621,
  "lat": 30.1035980,
  "lon": 31.3311765,
  "tags": {
    "amenity": "hospital",
    "name": "مستشفي بتروجاس - قطاع البترول",
    "name:ar": "مستشفي بتروجاس - قطاع البترول",
    "name:en": "Petrogas Hospital - Petrol Section"
  }
},
{
  "type": "hospital",
  "id": 4938264720,
  "lat": 31.2577190,
  "lon": 29.9879757,
  "tags": {
    "amenity": "hospital"
  }
},
{
  "type": "hospital",
  "id": 4944377621,
  "lat": 32.1307784,
  "lon": 35.2067580,
  "tags": {
    "amenity": "hospital",
    "name": "عيادة جماعين الحكوميه",
    "name:ar": "عيادة جماعين الحكوميه"
  }
},
{
  "type": "hospital",
  "id": 4944789424,
  "lat": 32.3064740,
  "lon": 35.0250201,
  "tags": {
    "amenity": "hospital",
    "name": "دكتور اعصاب",
    "name:ar": "الدكتور عمر عدس"
  }
},
{
  "type": "hospital",
  "id": 4964232123,
  "lat": 27.6280471,
  "lon": 38.5422923,
  "tags": {
    "amenity": "hospital",
    "name": "مستشفى تيماء العام",
    "name:ar": "مستشفى تيماء العام"
  }
},
{
  "type": "hospital",
  "id": 4966721221,
  "lat": 31.7114652,
  "lon": 35.1973988,
  "tags": {
    "amenity": "hospital",
    "name": "مستشفى بيت جالا الحكومي",
    "name:ar": "مستشفى بيت جالا الحكومي",
    "name:en": "Beit jala Hospital"
  }
},
{
  "type": "hospital",
  "id": 4983756124,
  "lat": 32.1945052,
  "lon": 34.9746581,
  "tags": {
    "addr:street": "شارع المدارس",
    "amenity": "hospital",
    "internet_access": "wlan",
    "name": "صحة قلقيلية المركزية",
    "name:en": "Central Qalqiliya Health"
  }
},
{
  "type": "hospital",
  "id": 5032097923,
  "lat": 30.0545581,
  "lon": 31.2040393,
  "tags": {
    "addr:city": "القاهرة",
    "amenity": "hospital",
    "healthcare": "hospital",
    "name": "clean vision laser centre",
    "name:ar": "clean vision laser centre"
  }
},
{
  "type": "hospital",
  "id": 5056209254,
  "lat": 30.7807215,
  "lon": 30.9926418,
  "tags": {
    "amenity": "hospital"
  }
},
{
  "type": "hospital",
  "id": 5059551521,
  "lat": 31.1743125,
  "lon": 29.9300207,
  "tags": {
    "amenity": "hospital",
    "name": "مستشفى الشرطه",
    "name:ar": "مستشفى الشرطه"
  }
},
{
  "type": "hospital",
  "id": 5070370422,
  "lat": 24.2058728,
  "lon": 23.2903818,
  "tags": {
    "amenity": "hospital",
    "name": "مستشفى عطيه الكاسح",
    "name:ar": "مستشفى عطيه الكاسح",
    "name:en": "Attia Kasih Hospital"
  }
},
{
  "type": "hospital",
  "id": 5081029921,
  "lat": 32.0458490,
  "lon": 34.8468155,
  "tags": {
    "amenity": "hospital",
    "name": "בנק הדם - תל השומר",
    "name:he": "בנק הדם - תל השומר"
  }
},
{
  "type": "hospital",
  "id": 5097488474,
  "lat": 32.5433994,
  "lon": 35.6088119,
  "tags": {
    "amenity": "hospital",
    "name": "مركز صحي وقاص/ وكالة الغوث UNRWA"
  }
},
{
  "type": "hospital",
  "id": 5105686233,
  "lat": 30.1244776,
  "lon": 31.2974113,
  "tags": {
    "amenity": "hospital",
    "name": "صيدلية دكتور عبد اللطيف",
    "name:ar": "صيدلية دكتور عبد اللطيف",
    "name:en": "Dr. Abd el lateef farmecy"
  }
},
{
  "type": "hospital",
  "id": 5108253592,
  "lat": 31.1045390,
  "lon": 30.3146180,
  "tags": {
    "amenity": "hospital",
    "name": "Abu Homos Hospital",
    "name:ar": "مستشفي ابوحمص العام"
  }
},
{
  "type": "hospital",
  "id": 5109951221,
  "lat": 31.9887839,
  "lon": 35.9173168,
  "tags": {
    "amenity": "hospital",
    "name": "مستشفى الرويال",
    "name:en": "Royal Hospital"
  }
},
{
  "type": "hospital",
  "id": 5109951223,
  "lat": 31.9796377,
  "lon": 35.9162533,
  "tags": {
    "amenity": "hospital",
    "name": "مستشفى الاستقلال",
    "name:en": "Istiklal Hospital"
  }
},
{
  "type": "hospital",
  "id": 5122232721,
  "lat": 30.0648509,
  "lon": 31.3469450,
  "tags": {
    "amenity": "hospital",
    "healthcare": "hospital",
    "name": "مستشفى الكبد د يس عبد الغفار الخيرية",
    "name:ar": "مستشفى الكبد د يس عبد الغفار الخيرية",
    "name:en": "Yassin Abdulghaffar Hepatology Center"
  }
},
{
  "type": "hospital",
  "id": 5133731942,
  "lat": 31.8987523,
  "lon": 35.2060368,
  "tags": {
    "amenity": "hospital",
    "name": "مجمع فلسطين الطبي",
    "name:ar": "مجمع فلسطين الطبي",
    "wikidata": "Q42341656"
  }
},
{
  "type": "hospital",
  "id": 5134665947,
  "lat": 30.0561602,
  "lon": 31.3577400,
  "tags": {
    "amenity": "hospital",
    "name": "مركز طبي الحى الثامن",
    "name:ar": "مركز طبي الحى الثامن"
  }
},
{
  "type": "hospital",
  "id": 5134666024,
  "lat": 30.0597161,
  "lon": 31.3603878,
  "tags": {
    "amenity": "hospital",
    "name": "ايجيكير",
    "name:ar": "ايجيكير"
  }
},
{
  "type": "hospital",
  "id": 5134666532,
  "lat": 30.0553351,
  "lon": 31.3576391,
  "tags": {
    "amenity": "hospital",
    "name": "مركز طبي الحى الثامن",
    "name:ar": "مركز طبي الحى الثامن"
  }
},
{
  "type": "hospital",
  "id": 5140221524,
  "lat": 29.9675480,
  "lon": 31.2642620,
  "tags": {
    "addr:street": "77",
    "amenity": "hospital",
    "healthcare": "hospital",
    "name": "مستشفى الريان",
    "name:ar": "مستشفى الريان",
    "name:en": "alRayan Hospital",
    "opening_hours": "24/7"
  }
},
{
  "type": "hospital",
  "id": 5141629925,
  "lat": 32.3100675,
  "lon": 35.1136259,
  "tags": {
    "amenity": "hospital",
    "name": "سان جون عنبتا"
  }
},
{
  "type": "hospital",
  "id": 5147555621,
  "lat": 30.0991342,
  "lon": 31.3453964,
  "tags": {
    "addr:district:en": "Heliopolis",
    "addr:housenumber": "67",
    "addr:street:ar": "شارع نخله المطيعي",
    "addr:street:en": "Nakhla Al Matei",
    "amenity": "hospital",
    "healthcare": "hospital",
    "name:ar": "مستشفى المستقبل التخصصي",
    "name:en": "Future Specialist Hospital"
  }
},
{
  "type": "hospital",
  "id": 5170748421,
  "lat": 31.2630983,
  "lon": 29.9951977,
  "tags": {
    "amenity": "hospital",
    "name": "مستشفى المدينة المنورة",
    "name:ar": "مستشفى المدينة المنورة",
    "phone": "+203 5561999"
  }
},
{
  "type": "hospital",
  "id": 5186532750,
  "lat": 30.0657467,
  "lon": 31.2154842,
  "tags": {
    "addr:city": "القاهرة",
    "amenity": "hospital",
    "healthcare": "hospital",
    "name": "Mahmoud Eye Surgery Centre",
    "name:en": "Mahmoud Eye Surgery Centre"
  }
},
{
  "type": "hospital",
  "id": 5200295222,
  "lat": 31.2017726,
  "lon": 29.9041544,
  "tags": {
    "amenity": "hospital",
    "name": "ASM E.2",
    "name:en": "الميري مدخل ٢"
  }
},
{
  "type": "hospital",
  "id": 5200693023,
  "lat": 32.2233015,
  "lon": 35.2398105,
  "tags": {
    "addr:street": "شارع رفيديا",
    "amenity": "hospital",
    "name": "المستفى العربي التخصصي",
    "name:ar": "المستشفى العربي التخصصي",
    "name:en": "Specialized arab hospital",
    "phone": "092353000",
    "wikidata": "Q50356315"
  }
},
{
  "type": "hospital",
  "id": 5224302574,
  "lat": 32.0137923,
  "lon": 34.9339173,
  "tags": {
    "amenity": "hospital",
    "healthcare": "doctor",
    "name": "מרפאה",
    "name:he": "מרפאה",
    "operator": "קופת חולים כללית"
  }
},
{
  "type": "hospital",
  "id": 5229196326,
  "lat": 31.4428293,
  "lon": 35.0887025,
  "tags": {
    "amenity": "hospital",
    "name": "صحه الشعابين"
  }
},
{
  "type": "hospital",
  "id": 5277704521,
  "lat": 32.4622584,
  "lon": 35.2981027,
  "tags": {
    "addr:street": "Abu Baker Street",
    "amenity": "hospital",
    "internet_access": "wlan",
    "name": "عياده الدكتور رائد نزال",
    "name:en": "Dr raed nazzal",
    "phone": "+970598501324"
  }
},
{
  "type": "hospital",
  "id": 5280869323,
  "lat": 27.2300378,
  "lon": 33.8413404,
  "tags": {
    "amenity": "hospital",
    "healthcare": "hospital",
    "name": "وحده الميناء",
    "name:ar": "وحده الميناء"
  }
},
{
  "type": "hospital",
  "id": 5308737223,
  "lat": 31.4950967,
  "lon": 35.1171733,
  "tags": {
    "addr:street": "Al-Irtibat Al-A'skare - Al-Fahse Street",
    "amenity": "hospital",
    "name": "مسجد أبو عبيدة",
    "name:ar": "مسجد أبو عبيدة",
    "name:en": "Abu Hazem",
    "opening_hours": "Sa-Th 05:30-16:00"
  }
},
{
  "type": "hospital",
  "id": 5314820424,
  "lat": 30.0850693,
  "lon": 31.3309778,
  "tags": {
    "addr:street": "الميرغنى",
    "amenity": "hospital",
    "name": "المشرق للعيون",
    "name:ar": "المشرق للعيون"
  }
},
{
  "type": "hospital",
  "id": 5314820724,
  "lat": 30.1026758,
  "lon": 31.3266103,
  "tags": {
    "addr:street": "الحجاز",
    "amenity": "hospital",
    "name": "مركز الدكتور محمد حامد للعيون",
    "name:ar": "مركز الدكتور محمد حامد للعيون"
  }
},
{
  "type": "hospital",
  "id": 5315862132,
  "lat": 31.1484562,
  "lon": 29.9557020,
  "tags": {
    "addr:city": "الاسكندريه",
    "addr:postcode": "23615",
    "addr:street": "ابيس 7",
    "amenity": "hospital",
    "healthcare": "hospital",
    "name": "الوحدة الصحية أبيس 7",
    "name:ar": "الوحدة الصحية أبيس 7"
  }
},
{
  "type": "hospital",
  "id": 5317001671,
  "lat": 31.9339490,
  "lon": 35.1633887,
  "tags": {
    "amenity": "hospital",
    "name": "المستشفى الاستشاري Istishari Hospital",
    "name:ar": "المستشفى الاستشاري Istishari Hospital"
  }
},
{
  "type": "hospital",
  "id": 5327278434,
  "lat": 31.2559914,
  "lon": 35.2132299,
  "tags": {
    "amenity": "hospital",
    "healthcare": "hospital",
    "name": "מרכז רפואי שאלר",
    "name:he": "מרכז רפואי שאלר"
  }
},
{
  "type": "hospital",
  "id": 5341582322,
  "lat": 32.4618797,
  "lon": 35.2944475,
  "tags": {
    "addr:street": "Almahata street",
    "amenity": "hospital",
    "name": "مركز إسعاف الحياة",
    "opening_hours": "24/7",
    "phone": "0568888101"
  }
},
{
  "type": "hospital",
  "id": 5349322521,
  "lat": 26.2095858,
  "lon": 37.3615819,
  "tags": {
    "amenity": "hospital",
    "name": "الخرار. الوجه",
    "name:en": "Alkarar Alwajh"
  }
},
{
  "type": "hospital",
  "id": 5350940121,
  "lat": 29.9825257,
  "lon": 31.3459590,
  "tags": {
    "addr:street": "الطريق الدائرى",
    "amenity": "hospital",
    "healthcare": "hospital",
    "name": "مستشفى البنك الاهلي",
    "name:ar": "مستشفى البنك الاهلي"
  }
},
{
  "type": "hospital",
  "id": 5383244422,
  "lat": 30.0790241,
  "lon": 31.3372837,
  "tags": {
    "amenity": "hospital",
    "name:en": "Golf Memorial Hospital"
  }
},
{
  "type": "hospital",
  "id": 5405639426,
  "lat": 32.2220969,
  "lon": 35.2481820,
  "tags": {
    "addr:street": "16 th Street",
    "amenity": "hospital",
    "name": "بيت المسنين الهلال الأحمر",
    "name:en": "jeriatric house red crescent",
    "opening_hours": "24/7",
    "phone": "092386606",
    "website": "http://www.prcsn.ps"
  }
},
{
  "type": "hospital",
  "id": 5417944724,
  "lat": 30.1497180,
  "lon": 31.6579092,
  "tags": {
    "addr:street": "gamal Abd elnaser",
    "amenity": "hospital",
    "name": "مركز 73 متر",
    "name:ar": "مركز 73 متر",
    "opening_hours": "Sa-Th 09:00-17:00"
  }
},
{
  "type": "hospital",
  "id": 5420112979,
  "lat": 26.3669943,
  "lon": 31.8468480,
  "tags": {
    "addr:city": "جرجا",
    "addr:postcode": "82743",
    "addr:street": "بندار الشرقيه",
    "amenity": "hospital",
    "emergency": "yes",
    "healthcare": "hospital",
    "name": "وحده صحه بندار الشرقيه",
    "name:ar": "وحده صحه بندار الشرقيه"
  }
},
{
  "type": "hospital",
  "id": 5434821821,
  "lat": 31.9694814,
  "lon": 35.2604611,
  "tags": {
    "addr:street": "Selwad",
    "amenity": "hospital",
    "name": "مركز شنارة الطبي",
    "name:en": "Shunnarah medical center",
    "opening_hours": "Mo-Su 08:00-00:00",
    "phone": "022891212"
  }
},
{
  "type": "hospital",
  "id": 5475557322,
  "lat": 30.0232965,
  "lon": 31.2513977,
  "tags": {
    "amenity": "hospital",
    "name": "مغربي للعيون",
    "name:ar": "مغربي للعيون",
    "name:en": "Magrabi Eye Hospital"
  }
},
{
  "type": "hospital",
  "id": 5503724260,
  "lat": 30.0335965,
  "lon": 31.0114450,
  "tags": {
    "addr:housenumber": "3",
    "addr:street": "56 Street",
    "amenity": "hospital",
    "emergency": "yes",
    "healthcare": "hospital",
    "healthcare:speciality": "veterinarian;vet",
    "name": "GERMAN VETERINARY HOSPITAL EGYPT",
    "operator": "DR.MOHAMED MAGDI"
  }
},
{
  "type": "hospital",
  "id": 5518061223,
  "lat": 32.0940495,
  "lon": 35.0384707,
  "tags": {
    "amenity": "hospital",
    "name": "ذي",
    "tourism": "attraction"
  }
},
{
  "type": "hospital",
  "id": 5551667834,
  "lat": 31.5159327,
  "lon": 31.8357253,
  "tags": {
    "amenity": "hospital",
    "healthcare": "hospital",
    "name": "Ras El Bar Hospital"
  }
},
{
  "type": "hospital",
  "id": 5551680466,
  "lat": 31.5007282,
  "lon": 31.8265419,
  "tags": {
    "amenity": "hospital",
    "healthcare": "hospital",
    "name": "مستشفي الدلتا",
    "name:ar": "مستشفي الدلتا",
    "name:en": "Delta Hosbital"
  }
},
{
  "type": "hospital",
  "id": 5572455024,
  "lat": 30.4221577,
  "lon": 31.5719934,
  "tags": {
    "amenity": "hospital",
    "name": "مستشفى الغندور بلبيس",
    "name:ar": "مستشفى الغندور بلبيس",
    "name:en": "Ghandour hospital Belbis"
  }
},
{
  "type": "hospital",
  "id": 5587465366,
  "lat": 31.0457302,
  "lon": 31.3945300,
  "tags": {
    "amenity": "hospital",
    "healthcare": "hospital",
    "healthcare:speciality": "infant",
    "name": "Tabarak Hospital"
  }
},
{
  "type": "hospital",
  "id": 5606554765,
  "lat": 32.3961746,
  "lon": 35.7335205,
  "tags": {
    "addr:city": "عجلون",
    "addr:housenumber": "مركز القريه",
    "addr:street": "شارع ام العيون",
    "amenity": "hospital",
    "emergency": "yes",
    "healthcare": "hospital",
    "healthcare:speciality": "general;surgery",
    "name": "مركز صحي عرجان",
    "operator": "وزارة الصحة الاردنيه"
  }
},
{
  "type": "hospital",
  "id": 5606629063,
  "lat": 32.3579359,
  "lon": 35.8148985,
  "tags": {
    "addr:city": "عجلون",
    "addr:street": "عبين عبيلن",
    "amenity": "hospital",
    "description": "مركز صحي شامل \nيحتوي على طبيب عام و طبيب اسنان و طبيب اطفال \n \n",
    "emergency": "yes",
    "healthcare": "hospital",
    "healthcare:speciality": "general",
    "name": "مركز صحي عبين",
    "operator": "وزارة الصحه",
    "payment:cash": "yes",
    "phone": "026441069"
  }
},
{
  "type": "hospital",
  "id": 5606632674,
  "lat": 32.3941583,
  "lon": 35.5841532,
  "tags": {
    "amenity": "hospital",
    "description": "مركز صحي شامل ",
    "emergency": "yes",
    "healthcare": "hospital",
    "healthcare:speciality": "ophthalmology",
    "name": "hospital",
    "operator": "وزارة الصحه"
  }
},
{
  "type": "hospital",
  "id": 5606637254,
  "lat": 32.5113278,
  "lon": 35.8950554,
  "tags": {
    "addr:city": "إربد‎",
    "addr:housenumber": "الصريح",
    "addr:street": "الرئيسي",
    "amenity": "hospital",
    "emergency": "yes",
    "healthcare": "hospital",
    "name": "مركز صحي الصريح",
    "operator": "حكومي"
  }
},
{
  "type": "hospital",
  "id": 5606667147,
  "lat": 32.4326352,
  "lon": 35.7709676,
  "tags": {
    "addr:city": "اربد",
    "addr:housenumber": "زوبيا",
    "addr:street": "الشارع الئيسي _بجانب بلدية زوبيا",
    "amenity": "hospital",
    "healthcare": "hospital",
    "name": "مركز صحي زوبيا",
    "operator": "مركز"
  }
},
{
  "type": "hospital",
  "id": 5606667148,
  "lat": 32.4311086,
  "lon": 35.7730125,
  "tags": {
    "addr:city": "اربد",
    "addr:housenumber": "زوبيا",
    "addr:street": "الشارع الرئيسي بقرب من مسجد زوبيا الكبير",
    "amenity": "hospital",
    "healthcare": "hospital",
    "name": "منزل مصطفى غوانمه",
    "operator": "خاص"
  }
},
{
  "type": "hospital",
  "id": 5606667150,
  "lat": 32.4324431,
  "lon": 35.7712476,
  "tags": {
    "addr:city": "اربد",
    "addr:housenumber": "زوبيا",
    "addr:street": "الشارع الرئيسي",
    "amenity": "hospital",
    "healthcare": "hospital",
    "name": "بلدية زوبيا",
    "operator": "حكومي"
  }
},
{
  "type": "hospital",
  "id": 5606667152,
  "lat": 32.4243356,
  "lon": 35.7855917,
  "tags": {
    "addr:city": "اربد",
    "addr:housenumber": "زوبيا",
    "addr:street": "الشارع الرئيسي اول البلد",
    "amenity": "hospital",
    "healthcare": "hospital",
    "name": "مدرسة زوبيا الثانوية للبنين",
    "operator": "حكومي"
  }
},
{
  "type": "hospital",
  "id": 5606667153,
  "lat": 32.4350057,
  "lon": 35.7650072,
  "tags": {
    "addr:city": "اربد",
    "addr:housenumber": "زويا",
    "addr:street": "اخر البلد",
    "amenity": "hospital",
    "healthcare": "hospital",
    "name": "مدرسة زوبيا الاساسية للبنين",
    "operator": "حكومي"
  }
},
{
  "type": "hospital",
  "id": 5606667154,
  "lat": 32.4309291,
  "lon": 35.7728155,
  "tags": {
    "addr:city": "اربد",
    "addr:housenumber": "زوبيا",
    "addr:street": "الشارع الرئيسي بقرب من مسجد زوبيا الكبير",
    "amenity": "hospital",
    "healthcare": "hospital",
    "name": "منزل محمد مصطفى غوانمه",
    "operator": "خاص"
  }
},
{
  "type": "hospital",
  "id": 5606667155,
  "lat": 32.4307652,
  "lon": 35.7725937,
  "tags": {
    "addr:city": "اربد",
    "addr:housenumber": "اربد",
    "addr:street": "قرب من المسجد الكبير",
    "amenity": "hospital",
    "healthcare": "hospital",
    "name": "منزل عبدالله مصطفى غوانمه",
    "operator": "خاص"
  }
},
{
  "type": "hospital",
  "id": 5606667156,
  "lat": 32.4341108,
  "lon": 35.7701505,
  "tags": {
    "addr:city": "اربد",
    "addr:housenumber": "زوبيا",
    "addr:street": "تحت المقبرة القديمة",
    "amenity": "hospital",
    "healthcare": "hospital",
    "name": "مدرسة زوبيا الثانوية للبنات"
  }
},
{
  "type": "hospital",
  "id": 5606732707,
  "lat": 32.5405790,
  "lon": 35.8014490,
  "tags": {
    "amenity": "hospital",
    "healthcare": "hospital",
    "healthcare:speciality": "شامل",
    "name": "مركز صحي كفريوبا الشامل",
    "operator": "حكومي"
  }
},
{
  "type": "hospital",
  "id": 5606740202,
  "lat": 32.4847937,
  "lon": 35.8040965,
  "tags": {
    "addr:city": "ديريوسف",
    "amenity": "hospital",
    "contact:phone": "027032243",
    "healthcare": "dentist;doctor;hospital;pharmacy",
    "insurance:health": "public",
    "name": "مركز صحي دير يوسف",
    "opening_hours": "Mo-Fr 08:00-14:00"
  }
},
{
  "type": "hospital",
  "id": 5606753002,
  "lat": 32.4011573,
  "lon": 35.7574984,
  "tags": {
    "amenity": "hospital",
    "healthcare": "hospital",
    "name": "مركز صحي راسون"
  }
},
{
  "type": "hospital",
  "id": 5606755367,
  "lat": 32.3575611,
  "lon": 35.8827044,
  "tags": {
    "amenity": "hospital",
    "healthcare": "hospital",
    "name": "مركز كفرخا الصحي"
  }
},
{
  "type": "hospital",
  "id": 5606758859,
  "lat": 32.5190130,
  "lon": 35.7832209,
  "tags": {
    "amenity": "hospital",
    "healthcare": "hospital",
    "name": "مركز بيت يافا الصحي",
    "name:en": "Primary medical center"
  }
},
{
  "type": "hospital",
  "id": 5606771826,
  "lat": 32.4849102,
  "lon": 35.8042383,
  "tags": {
    "amenity": "hospital",
    "healthcare": "hospital",
    "name": "مركز صحي دير يوسف",
    "operator": "نعم"
  }
},
{
  "type": "hospital",
  "id": 5606773941,
  "lat": 32.5422851,
  "lon": 36.0074580,
  "tags": {
    "amenity": "hospital",
    "emergency": "no",
    "healthcare": "hospital",
    "healthcare:speciality": "قسسم_الاطفال",
    "name": "المركز الصحي الشرقي",
    "operator": "العنالية بالمريضين"
  }
},
{
  "type": "hospital",
  "id": 5606773942,
  "lat": 32.5597714,
  "lon": 36.0004233,
  "tags": {
    "amenity": "hospital",
    "healthcare": "hospital",
    "name": "المركز الصحي الغربي"
  }
},
{
  "type": "hospital",
  "id": 5606774198,
  "lat": 32.3709541,
  "lon": 35.7398861,
  "tags": {
    "amenity": "hospital",
    "healthcare": "hospital",
    "name": "مركز صحي"
  }
},
{
  "type": "hospital",
  "id": 5606786962,
  "lat": 32.4089040,
  "lon": 35.7022101,
  "tags": {
    "addr:city": "اربد",
    "addr:housenumber": "جديتا",
    "addr:street": "14",
    "amenity": "hospital",
    "healthcare": "hospital",
    "name": "مركز صحي جديتا"
  }
},
{
  "type": "hospital",
  "id": 5606787034,
  "lat": 32.5615557,
  "lon": 35.8356706,
  "tags": {
    "amenity": "hospital",
    "healthcare": "hospital"
  }
},
{
  "type": "hospital",
  "id": 5606787140,
  "lat": 32.3709541,
  "lon": 35.7398861,
  "tags": {
    "amenity": "hospital",
    "description": "مركز صحي شامل",
    "emergency": "yes",
    "healthcare": "hospital",
    "healthcare:speciality": "ophthalmology",
    "name": "مركز صحي عرجان",
    "operator": "وزارة صحة"
  }
},
{
  "type": "hospital",
  "id": 5628663421,
  "lat": 30.0905778,
  "lon": 31.3079294,
  "tags": {
    "addr:street": "شارع المقريزى",
    "amenity": "hospital",
    "name": "برج الأطباء",
    "name:ar": "برج الأطباء"
  }
},
{
  "type": "hospital",
  "id": 5734327542,
  "lat": 31.4071405,
  "lon": 31.8226040,
  "tags": {
    "amenity": "hospital",
    "healthcare": "hospital",
    "healthcare:speciality": "physiotherapy",
    "name": "مركز كيوان للعلاج الطبيعي والتخسيس",
    "name:ar": "مركز كيوان للعلاج الطبيعي والتخسيس"
  }
},
{
  "type": "hospital",
  "id": 5760149816,
  "lat": 32.3440109,
  "lon": 35.8192271,
  "tags": {
    "amenity": "hospital"
  }
},
{
  "type": "hospital",
  "id": 5762503853,
  "lat": 27.2239526,
  "lon": 33.8263382,
  "tags": {
    "amenity": "hospital",
    "healthcare": "hospital",
    "internet_access": "wlan",
    "name:en": "Royal Hospital",
    "opening_hours": "24/7",
    "phone": "01211113277",
    "website": "https://royalhospital-eg.com/"
  }
},
{
  "type": "hospital",
  "id": 5769888882,
  "lat": 30.0302505,
  "lon": 31.0008777,
  "tags": {
    "addr:city": "Sheikh Zayed City",
    "addr:housenumber": "Downtown, Left building, 2nd Floor",
    "addr:street": "Dr Atef Sedky",
    "amenity": "hospital",
    "email": "Seniorsdentalclinic@gmail.com",
    "emergency": "yes",
    "healthcare": "hospital",
    "healthcare:speciality": "dentistry;prosthodontics;implantology;orthodontics",
    "name": "Seniors Dental Clinic",
    "operator": "Dr Bahaa, Dr Khashab & Dr. Morsi",
    "phone": "002 01000751172"
  }
},
{
  "type": "hospital",
  "id": 5776366012,
  "lat": 30.6414801,
  "lon": 31.2668872,
  "tags": {
    "addr:housenumber": "12",
    "addr:street": "جسر النيل",
    "amenity": "hospital",
    "emergency": "no",
    "healthcare": "hospital",
    "name": "مستشفي مسجد وصبف",
    "name:ar": "مستشفي مسجد وصبف",
    "note": "مستشفي مسجد وصبف",
    "operator": "مستشفي مسجد وصبف"
  }
},
{
  "type": "hospital",
  "id": 5817986010,
  "lat": 30.0147462,
  "lon": 31.4181409,
  "tags": {
    "amenity": "hospital",
    "emergency": "yes",
    "name": "مستشفى",
    "name:ar": "مستشفى",
    "name:en": "Hospital"
  }
},
{
  "type": "hospital",
  "id": 5824803953,
  "lat": 31.9999211,
  "lon": 35.9187016,
  "tags": {
    "amenity": "hospital",
    "name": "مستشفى الملكة علياء العسكري"
  }
},
{
  "type": "hospital",
  "id": 5828642799,
  "lat": 31.7084984,
  "lon": 35.2007119,
  "tags": {
    "addr:street": "شارع المدبسة",
    "amenity": "hospital",
    "internet_access": "wlan",
    "name": "الدكتور شادي قمصية",
    "name:en": "Yazan Radiology Center",
    "opening_hours": "Mo-Sa 08:00-20:00",
    "phone": "022742022",
    "website": "http://yazan.radiology@facebook.com"
  }
},
{
  "type": "hospital",
  "id": 5837946591,
  "lat": 31.3256436,
  "lon": 34.3025720,
  "tags": {
    "amenity": "hospital",
    "name": "تتتتت",
    "name:ar": "تتتتت"
  }
},
{
  "type": "hospital",
  "id": 5867328034,
  "lat": 31.2397069,
  "lon": 29.9933271,
  "tags": {
    "amenity": "hospital",
    "healthcare": "hospital",
    "name": "الجمعية الشرعية",
    "name:ar": "الجمعية الشرعية",
    "phone": "033315380"
  }
},
{
  "type": "hospital",
  "id": 5875310586,
  "lat": 31.5689812,
  "lon": 35.1412217,
  "tags": {
    "amenity": "hospital",
    "name": "مركز رهام دوابشة",
    "name:en": "reham dawabshah health centre"
  }
},
{
  "type": "hospital",
  "id": 5892633775,
  "lat": 31.6584877,
  "lon": 34.5673972,
  "tags": {
    "amenity": "hospital",
    "healthcare": "hospital",
    "healthcare:speciality": "clinic",
    "name": "מרפאת שיניים",
    "name:he": "מרפאת שיניים"
  }
},
{
  "type": "hospital",
  "id": 5892633776,
  "lat": 31.6575161,
  "lon": 34.5672553,
  "tags": {
    "amenity": "hospital",
    "emergency": "no",
    "healthcare": "hospital",
    "healthcare:speciality": "clinic",
    "name": "מרפאת שיניים",
    "name:he": "מרפאת שיניים"
  }
},
{
  "type": "hospital",
  "id": 5900240797,
  "lat": 31.0427801,
  "lon": 31.3783093,
  "tags": {
    "amenity": "hospital",
    "healthcare": "hospital",
    "name": "التأمين الصحي",
    "name:ar": "التأمين الصحي"
  }
},
{
  "type": "hospital",
  "id": 5913248686,
  "lat": 31.1473041,
  "lon": 35.7253643,
  "tags": {
    "amenity": "hospital",
    "name:en": "Kerak Hospital",
    "name:ru": "Государственная больница"
  }
},
{
  "type": "hospital",
  "id": 5918101595,
  "lat": 32.3194795,
  "lon": 35.3728397,
  "tags": {
    "amenity": "hospital",
    "name": "صحه طوباس",
    "name:ar": "صحه طوباس"
  }
},
{
  "type": "hospital",
  "id": 5948124620,
  "lat": 31.2343075,
  "lon": 29.9639451,
  "tags": {
    "amenity": "hospital",
    "healthcare": "hospital",
    "name": "مستشفى الفتح",
    "name:ar": "مستشفى الفتح"
  }
},
{
  "type": "hospital",
  "id": 5948127094,
  "lat": 31.2345278,
  "lon": 29.9626566,
  "tags": {
    "amenity": "hospital",
    "healthcare": "hospital",
    "name": "مستشفى البترول",
    "name:ar": "مستشفى البترول بالإسكندرية",
    "name:en": "Petroleum Hospital in Alexandria"
  }
},
{
  "type": "hospital",
  "id": 5971828375,
  "lat": 31.2422745,
  "lon": 34.8612015,
  "tags": {
    "addr:city": "תל שבע",
    "addr:housenumber": "123",
    "addr:postcode": "84950",
    "addr:street": "26",
    "amenity": "hospital",
    "healthcare": "hospital",
    "healthcare:speciality": "מעון_ילדים",
    "name": "גן ילדים",
    "name:he": "גן ילדים"
  }
},
{
  "type": "hospital",
  "id": 5984828885,
  "lat": 31.4402340,
  "lon": 31.6920654,
  "tags": {
    "amenity": "hospital",
    "name": "المستشفى العسكرى دمياط الجديده",
    "name:ar": "المستشفى العسكرى دمياط الجديده"
  }
},
{
  "type": "hospital",
  "id": 6055154820,
  "lat": 31.9935702,
  "lon": 36.0172224,
  "tags": {
    "amenity": "hospital",
    "healthcare": "hospital",
    "name": "العيادة"
  }
},
{
  "type": "hospital",
  "id": 6059671343,
  "lat": 32.4863055,
  "lon": 34.9695257,
  "tags": {
    "amenity": "hospital",
    "healthcare": "hospital",
    "name": "מרכז גריאטרי שוהם",
    "name:en": "Shoham Geriatric center",
    "name:he": "מרכז גריאטרי שוהם"
  }
},
{
  "type": "hospital",
  "id": 6080046486,
  "lat": 31.2553539,
  "lon": 29.9850196,
  "tags": {
    "amenity": "hospital",
    "name": "مستشفى البدراوي ٢",
    "name:ar": "مستشفى الملاح - مستشفى البدراوي ٢",
    "name:en": "Al Mallah Hospital"
  }
},
{
  "type": "hospital",
  "id": 6092176485,
  "lat": 29.9876238,
  "lon": 31.2772995,
  "tags": {
    "addr:street": "500",
    "amenity": "hospital",
    "emergency": "no",
    "healthcare": "hospital",
    "name": "مستشفى جراحات اليوم الواحد بالمعادي الجديدة",
    "name:ar": "مستشفى جراحات اليوم الواحد بالمعادي الجديدة",
    "name:en": "one day surgries hospital"
  }
},
{
  "type": "hospital",
  "id": 6093260385,
  "lat": 31.2439359,
  "lon": 29.9821849,
  "tags": {
    "amenity": "hospital",
    "name": "مستشفى فكتوريا",
    "name:ar": "مستشفى فكتوريا",
    "name:en": "Victoria Hospital"
  }
},
{
  "type": "hospital",
  "id": 6093262085,
  "lat": 31.2442273,
  "lon": 29.9867739,
  "tags": {
    "amenity": "hospital",
    "name": "مستشفى لواء الإسلام",
    "name:ar": "مستشفى لواء الإسلام",
    "opening_hours": "24/7"
  }
},
{
  "type": "hospital",
  "id": 6110860686,
  "lat": 31.2028128,
  "lon": 29.9199829,
  "tags": {
    "amenity": "hospital",
    "name": "مستشفى طلبة جامعة الإسكندرية",
    "name:ar": "مستشفى طلبة جامعة الإسكندرية"
  }
},
{
  "type": "hospital",
  "id": 6115961588,
  "lat": 31.2194010,
  "lon": 29.9414862,
  "tags": {
    "amenity": "hospital",
    "name": "مستشفى سيدي جابر التخصصي",
    "name:ar": "مستشفى سيدي جابر التخصصي"
  }
},
{
  "type": "hospital",
  "id": 6149871174,
  "lat": 31.1911004,
  "lon": 29.9029881,
  "tags": {
    "amenity": "hospital",
    "healthcare": "hospital",
    "name": "Ahmed Maher Hospital",
    "name:en": "Ahmed Maher Hospital"
  }
},
{
  "type": "hospital",
  "id": 6176570230,
  "lat": 30.1033833,
  "lon": 31.3779264,
  "tags": {
    "amenity": "hospital",
    "healthcare": "hospital",
    "name": "American Hospotal",
    "name:ar": "المستشفى الأمريكى"
  }
},
{
  "type": "hospital",
  "id": 6177747685,
  "lat": 31.3837817,
  "lon": 35.0596973,
  "tags": {
    "amenity": "hospital",
    "name": "عيادة حكومية"
  }
},
{
  "type": "hospital",
  "id": 6341456686,
  "lat": 30.0531544,
  "lon": 31.3791019,
  "tags": {
    "amenity": "hospital",
    "name": "مستشفي الماسه",
    "name:ar": "مستشفي الماسه",
    "name:en": "Al MASSA hospital",
    "opening_hours": "24/7"
  }
},
{
  "type": "hospital",
  "id": 6371119888,
  "lat": 31.2320812,
  "lon": 29.9703691,
  "tags": {
    "amenity": "hospital",
    "name": "الهلال الأحمر المصري - فرع الإسكندرية - باكوس",
    "name:ar": "الهلال الأحمر المصري - فرع الإسكندرية - باكوس"
  }
},
{
  "type": "hospital",
  "id": 6371769385,
  "lat": 28.1011077,
  "lon": 30.7545085,
  "tags": {
    "amenity": "hospital",
    "healthcare": "hospital",
    "name": "مستشفي بالمنيا",
    "name:ar": "مستشفي بالمنيا",
    "name:en": "Almenia.hospitalss"
  }
},
{
  "type": "hospital",
  "id": 6372854086,
  "lat": 31.2478922,
  "lon": 29.9736309,
  "tags": {
    "amenity": "hospital",
    "healthcare": "hospital",
    "name": "مستشفى لوران",
    "name:ar": "مستشفى لوران",
    "name:en": "Louran Hospital"
  }
},
{
  "type": "hospital",
  "id": 6373641081,
  "lat": 30.7812460,
  "lon": 31.6875548,
  "tags": {
    "amenity": "hospital",
    "healthcare": "hospital",
    "name": "الوحدة الصحية",
    "name:ar": "الوحدة الصحية"
  }
},
{
  "type": "hospital",
  "id": 6411889485,
  "lat": 25.3024614,
  "lon": 32.5540586,
  "tags": {
    "addr:street": "شارع المستشفى",
    "amenity": "hospital",
    "healthcare": "hospital",
    "internet_access": "wlan",
    "name": "مستشفى إسنا",
    "name:ar": "مستشفى إسنا",
    "name:en": "Esna hospital"
  }
},
{
  "type": "hospital",
  "id": 6412459378,
  "lat": 31.9091465,
  "lon": 35.9289765,
  "tags": {
    "addr:street": "Al Sakhrah Al Musharrafah Street",
    "amenity": "hospital",
    "name": "مستشفى الحنان"
  }
},
{
  "type": "hospital",
  "id": 6443281834,
  "lat": 31.2083152,
  "lon": 29.9348175,
  "tags": {
    "amenity": "hospital",
    "name": "مستشفى سموحة الدولي",
    "name:ar": "مستشفى سموحة الدولي"
  }
},
{
  "type": "hospital",
  "id": 6470225416,
  "lat": 31.9660779,
  "lon": 35.8867349,
  "tags": {
    "addr:street": "شارع الكندي",
    "amenity": "hospital",
    "comment": "no helipad, open area nearby",
    "healthcare": "hospital",
    "name": "Istishari Hospital",
    "name:en": "Istishari Hospital"
  }
},
{
  "type": "hospital",
  "id": 6486661571,
  "lat": 31.9843903,
  "lon": 35.9903285,
  "tags": {
    "amenity": "hospital",
    "name:en": "Marka Specialty Hospital"
  }
},
{
  "type": "hospital",
  "id": 6500318660,
  "lat": 30.0874718,
  "lon": 31.2731182,
  "tags": {
    "addr:street": "شارع بورسعيد",
    "amenity": "hospital",
    "emergency": "no",
    "healthcare": "hospital",
    "healthcare:speciality": "surgery;general",
    "name": "One Day Surgeries Hospital"
  }
},
{
  "type": "hospital",
  "id": 6509448487,
  "lat": 31.2515130,
  "lon": 29.9753775,
  "tags": {
    "amenity": "hospital",
    "healthcare": "hospital",
    "name": "مستشفى الإقبال",
    "name:ar": "مستشفى الإقبال"
  }
},
{
  "type": "hospital",
  "id": 6562928385,
  "lat": 32.3624212,
  "lon": 35.1955265,
  "tags": {
    "addr:street": "Ejah area",
    "amenity": "hospital",
    "name": "ايهاب سليمان"
  }
},
{
  "type": "hospital",
  "id": 6572051785,
  "lat": 31.9517213,
  "lon": 35.9054692,
  "tags": {
    "amenity": "hospital",
    "healthcare": "hospital",
    "name": "صيدليه البيروني"
  }
},
{
  "type": "hospital",
  "id": 6572089485,
  "lat": 31.1952169,
  "lon": 29.9125867,
  "tags": {
    "amenity": "hospital",
    "healthcare": "hospital",
    "name": "مستشفى زمزم",
    "name:ar": "مستشفى زمزم"
  }
},
{
  "type": "hospital",
  "id": 6582032777,
  "lat": 30.0160045,
  "lon": 31.2917528,
  "tags": {
    "addr:country": "EG",
    "addr:district": "المقطم",
    "addr:district:en": "El Mukkatam",
    "addr:housenumber": "38",
    "addr:postcode": "11571",
    "addr:province": "القاهرة",
    "addr:province:en": "Cairo",
    "addr:street": "شارع 17",
    "addr:street:en": "Street 17",
    "amenity": "hospital",
    "healthcare": "hospital"
  }
},
{
  "type": "hospital",
  "id": 6586989894,
  "lat": 30.0947545,
  "lon": 31.2490967,
  "tags": {
    "addr:country": "EG",
    "addr:district": "الساحل",
    "addr:district:en": "El Sahel",
    "addr:housenumber": "5",
    "addr:postcode": "11637",
    "addr:province": "القاهرة",
    "addr:province:en": "Cairo",
    "addr:street": "شارع الشيخ نصر الهوريني",
    "addr:street:en": "Al Sheikh Nasr Al Horieny Street",
    "addr:subdistrict": "شريف",
    "addr:subdistrict:en": "Sherif",
    "amenity": "hospital",
    "contact:facebook": "%D9%85%D8%B3%D8%AA%D8%B4%D9%81%D9%89-%D8%A7%D9%84%D8%A8%D8%AA%D9%88%D9%84-El-Batol-Hospital-751083391720702",
    "email": "elbatolhospital@gmail.com",
    "name": "مستشفى البتول",
    "name:en": "El Batol Hospital",
    "opening_hours": "24/7",
    "phone": "01276604770",
    "website": "http://elbatolhospital.com"
  }
},
{
  "type": "hospital",
  "id": 6595817693,
  "lat": 29.9734067,
  "lon": 31.2817941,
  "tags": {
    "addr:country": "EG",
    "addr:district": "البساتين",
    "addr:district:en": "Al Basatine",
    "addr:housenumber": "4",
    "addr:neighbourhood": "تقسيم اللاسلكي",
    "addr:neighbourhood:en": "Taksim Al Laslky",
    "addr:postcode": "11742",
    "addr:province": "القاهرة",
    "addr:province:en": "Cairo",
    "addr:street": "شارع سيد عنبر",
    "addr:street:en": "Sayed Anbr Street",
    "addr:subdistrict": "المعادى الجديده",
    "addr:subdistrict:en": "El Maadi El Gadida",
    "addr:unit": "6C",
    "amenity": "hospital",
    "healthcare": "hospital",
    "name": "El Nakhel Hospital"
  }
},
{
  "type": "hospital",
  "id": 6610055685,
  "lat": 31.5862146,
  "lon": 35.0895991,
  "tags": {
    "amenity": "hospital",
    "name": "جمعية الهلال الأحمر الفلسطيني"
  }
},
{
  "type": "hospital",
  "id": 6644423452,
  "lat": 30.4176040,
  "lon": 31.6355301,
  "tags": {
    "amenity": "hospital",
    "emergency": "no",
    "healthcare": "hospital",
    "name": "Sekem Medical Centre",
    "operator": "Sekem Development Foundation",
    "operator:type": "private_non_profit"
  }
},
{
  "type": "hospital",
  "id": 6743975794,
  "lat": 30.1273310,
  "lon": 31.3274532,
  "tags": {
    "addr:city": "cairo",
    "addr:housenumber": "76",
    "addr:street": "شارع احمد عصمت",
    "amenity": "hospital",
    "emergency": "yes",
    "healthcare": "hospital",
    "healthcare:speciality": "general",
    "name": "Elsalam Hospital مستشفى السلام",
    "name:ar": "Elsalam Hospital مستشفى السلام",
    "wheelchair": "no"
  }
},
{
  "type": "hospital",
  "id": 6771282186,
  "lat": 31.9258995,
  "lon": 35.9278450,
  "tags": {
    "amenity": "hospital",
    "name": "مستشفى القدس",
    "phone": "(06) 438 7181"
  }
},
{
  "type": "hospital",
  "id": 6774288193,
  "lat": 31.9015225,
  "lon": 35.9339773,
  "tags": {
    "amenity": "hospital",
    "healthcare": "hospital",
    "name": "مستشفى الحمايدة"
  }
},
{
  "type": "hospital",
  "id": 6779805685,
  "lat": 31.5292833,
  "lon": 34.4512559,
  "tags": {
    "addr:street": "Ezdin Alqasam Street - شارع عز الدين القسام",
    "amenity": "hospital",
    "healthcare": "hospital",
    "name": "عيادة الدكتور-محمود صالح",
    "name:ar": "عيادة الدكتور-محمود صالح",
    "opening_hours": "Sa-Th 09:00-22:00",
    "phone": "0598991185"
  }
},
{
  "type": "hospital",
  "id": 6784633286,
  "lat": 31.3512468,
  "lon": 27.2430948,
  "tags": {
    "amenity": "hospital",
    "healthcare": "hospital",
    "name": "مستشفى عرابي التخصصي",
    "name:ar": "مستشفى عرابي التخصصي",
    "name:en": "Orabi Specialist Hospital"
  }
},
{
  "type": "hospital",
  "id": 6795952385,
  "lat": 30.0983618,
  "lon": 31.3312422,
  "tags": {
    "addr:street": "شارع الإسكندرية",
    "amenity": "hospital",
    "healthcare": "hospital",
    "name": "مستش",
    "name:ar": "مستشفى الرحمة التخصصي",
    "name:en": "Al Rahma specialized Hospital"
  }
},
{
  "type": "hospital",
  "id": 6796349005,
  "lat": 31.1910639,
  "lon": 29.9085547,
  "tags": {
    "amenity": "hospital",
    "name": "مستشفى سهلا الجديدة",
    "name:ar": "مستشفى سهلا الجديدة"
  }
},
{
  "type": "hospital",
  "id": 6805031185,
  "lat": 31.3370741,
  "lon": 34.3454510,
  "tags": {
    "amenity": "hospital",
    "name": "عيادة عبسان الصغيرة",
    "name:ar": "عيادة عبسان الصغيرة"
  }
},
{
  "type": "hospital",
  "id": 6812101533,
  "lat": 29.5464706,
  "lon": 35.0175738,
  "tags": {
    "amenity": "hospital",
    "healthcare": "hospital",
    "name": "Aqaba Modern Hospital"
  }
},
{
  "type": "hospital",
  "id": 6948109927,
  "lat": 31.2072614,
  "lon": 29.9531454,
  "tags": {
    "addr:country": "EG",
    "addr:district": "سيدى جابر",
    "addr:district:en": "Sidi Gaber",
    "addr:housenumber": "94",
    "addr:neighbourhood": "مساكن تعاونيات سموحه",
    "addr:neighbourhood:en": "Taawoneyat Semouha Housing",
    "addr:postcode": "21554",
    "addr:province": "الاسكندرية",
    "addr:province:en": "Alexandria",
    "addr:street": "شارع الروضة 1",
    "addr:street:en": "Al Rouda 1 Street",
    "addr:subdistrict": "عزبة سعد",
    "addr:subdistrict:en": "Ezbet Saad",
    "amenity": "hospital",
    "healthcare": "hospital",
    "healthcare:speciality": "paediatrics;general;clinic",
    "name": "دكتور ممدوح حسين لطب الاطفال",
    "name:ar": "دكتور ممدوح حسين لطب الاطفال"
  }
},
{
  "type": "hospital",
  "id": 6948853990,
  "lat": 31.2158369,
  "lon": 29.9419740,
  "tags": {
    "amenity": "hospital",
    "name": "مستشفي اسكندرية الدولي",
    "name:ar": "مستشفي اسكندرية الدولي"
  }
},
{
  "type": "hospital",
  "id": 6970489318,
  "lat": 30.1292933,
  "lon": 31.3207353,
  "tags": {
    "addr:city": "حي عين شمس",
    "addr:housenumber": "7",
    "addr:postcode": "11782",
    "addr:street": "شارع احمد عصمت",
    "amenity": "hospital",
    "emergency": "no",
    "healthcare": "hospital",
    "healthcare:speciality": "dentist",
    "name": "Bright dental center",
    "operator": "Dr/Amal Khalil",
    "operator:type": "private"
  }
},
{
  "type": "hospital",
  "id": 6982945486,
  "lat": 31.1698343,
  "lon": 29.8708821,
  "tags": {
    "amenity": "hospital",
    "name": "النصر الشاملة",
    "name:ar": "النصر الشاملة",
    "name:en": "El Shamla hospital"
  }
},
{
  "type": "hospital",
  "id": 7022378617,
  "lat": 31.2675342,
  "lon": 32.2703428,
  "tags": {
    "amenity": "hospital",
    "email": "alglaa5000@gmail.com",
    "healthcare": "hospital",
    "healthcare:speciality": "general",
    "name": "Alglaa Pharmacy portsaid - صيدلية الجلاء بورسعيد",
    "name:ar": "Alglaa Pharmacy portsaid - صيدلية الجلاء بورسعيد",
    "phone": "002-066-3666912"
  }
},
{
  "type": "hospital",
  "id": 7042573567,
  "lat": 30.0397384,
  "lon": 31.2484692,
  "tags": {
    "addr:city": "Cairo",
    "addr:housenumber": "12",
    "addr:street": "شارع البراموني",
    "amenity": "hospital",
    "emergency": "yes",
    "healthcare": "hospital",
    "healthcare:speciality": "general",
    "name": "مسشتفى الجمهورية التعليمى",
    "name:ar": "مسشتفى الجمهورية التعليمى",
    "name:en": "El-Gomhoria Teaching Hospital",
    "operator": "Ahmed Maher Teaching Hospital",
    "operator:type": "government"
  }
},
{
  "type": "hospital",
  "id": 7062888285,
  "lat": 31.9065927,
  "lon": 35.2110813,
  "tags": {
    "amenity": "hospital",
    "name": "مركز ليان"
  }
},
{
  "type": "hospital",
  "id": 7098485493,
  "lat": 28.3497832,
  "lon": 36.5950626,
  "tags": {
    "addr:street": "ا",
    "amenity": "hospital",
    "name": "مستشفى الملك سلمان العسكري"
  }
},
{
  "type": "hospital",
  "id": 7111756285,
  "lat": 30.4998374,
  "lon": 38.2026685,
  "tags": {
    "amenity": "hospital",
    "name": "مستشفى طبرجل العام",
    "operator": "مستشفى طبرجل"
  }
},
{
  "type": "hospital",
  "id": 7128129139,
  "lat": 31.9447307,
  "lon": 35.9320837,
  "tags": {
    "addr:city": "عمان",
    "addr:housenumber": "25",
    "addr:street": "شارع ابن زهر",
    "amenity": "hospital",
    "healthcare": "hospital",
    "name": "المستشفى الإيطالي",
    "name:ar": "المستشفى الإيطالي",
    "name:de": "Italienisches Krankenhaus",
    "name:en": "Italian Hospital",
    "name:es": "Hospital Italiano",
    "name:it": "Ospedale Italiano"
  }
},
{
  "type": "hospital",
  "id": 7146563486,
  "lat": 27.1982840,
  "lon": 33.8267656,
  "tags": {
    "amenity": "hospital",
    "healthcare": "hospital",
    "name": "El Kawser Private Hospital"
  }
},
{
  "type": "hospital",
  "id": 7199811085,
  "lat": 32.3514601,
  "lon": 35.1991901,
  "tags": {
    "addr:street": "Main Way To Ajah",
    "amenity": "hospital",
    "name": "عيادة الأمل الطبية",
    "name:ar": "عيادة الأمل الطبية",
    "name:en": "AL-AMAL MEDICAL CLINIC",
    "opening_hours": "24/7"
  }
},
{
  "type": "hospital",
  "id": 7245996085,
  "lat": 32.1834451,
  "lon": 34.9706634,
  "tags": {
    "addr:street": "Al-Tarbbiye",
    "amenity": "hospital",
    "name": "مركز الشفاء"
  }
},
{
  "type": "hospital",
  "id": 7270668196,
  "lat": 32.5042696,
  "lon": 35.4564832,
  "tags": {
    "amenity": "hospital",
    "healthcare": "hospital",
    "name": "מרפאה",
    "name:he": "מרפאה"
  }
},
{
  "type": "hospital",
  "id": 7282077301,
  "lat": 32.5345302,
  "lon": 35.8626266,
  "tags": {
    "amenity": "hospital",
    "brand": "Payless ShoeSource",
    "healthcare": "hospital",
    "name": "الحذاء الإيطالي"
  }
},
{
  "type": "hospital",
  "id": 7288659118,
  "lat": 26.3470237,
  "lon": 31.8873904,
  "tags": {
    "addr:city": "girga",
    "addr:housenumber": "Girga",
    "addr:postcode": "82952",
    "addr:street": "جرجا",
    "amenity": "hospital",
    "email": "family.clinic.girga@gmail.com",
    "healthcare": "hospital",
    "healthcare:speciality": "clinic;general",
    "name": "Family clinic عيادات الاسرة",
    "name:ar": "Family clinic عيادات الاسرة",
    "operator": "مركز طبي",
    "operator:type": "business"
  }
},
{
  "type": "hospital",
  "id": 7302015185,
  "lat": 32.2925402,
  "lon": 35.3454238,
  "tags": {
    "amenity": "hospital",
    "name": "عيادة مخيم الفارعة ( الوكالة)"
  }
},
{
  "type": "hospital",
  "id": 7327173386,
  "lat": 32.5335900,
  "lon": 35.8625990,
  "tags": {
    "amenity": "hospital",
    "contact:phone": "07 9565 6952",
    "health_amenity:type": "emergency_department;imaging_equipment;intensive_care_unit;laboratory;operating_theater;ultrasound;x_ray",
    "healthcare": "birthing_center;clinic;hospital;laboratory;pharmacy",
    "insurance:health": "private;public",
    "name": "Irbid Specialty Hospital",
    "opening_hours": "24/7",
    "operator": "private"
  }
},
{
  "type": "hospital",
  "id": 7390377610,
  "lat": 32.5625442,
  "lon": 35.7804830,
  "tags": {
    "amenity": "hospital",
    "healthcare": "hospital",
    "name": "مركز صحي زحر"
  }
},
{
  "type": "hospital",
  "id": 7464934905,
  "lat": 30.5525503,
  "lon": 31.0068038,
  "tags": {
    "addr:country": "EG",
    "addr:district": "شبين الكوم",
    "addr:district:en": "Shebin Al Koum",
    "addr:housenumber": "6",
    "addr:postcode": "32515",
    "addr:province": "المنوفية",
    "addr:province:en": "Al Menofia",
    "addr:street": "درب سعفان",
    "addr:street:en": "Darb Saafan",
    "addr:subdistrict": "حسن عامر القماش",
    "addr:subdistrict:en": "Hassn Amer Al Qimash",
    "amenity": "hospital",
    "emergency": "no",
    "healthcare": "hospital",
    "healthcare:speciality": "general;clinical_pathology;ophthalmology;gynaecology;orthopaedics;dermatology;psychiatry;dentist;internal;phsiotherapy",
    "name": "مستوصف السيدة العذراء",
    "name:ar": "مستوصف السيدة العذراء",
    "operator": "مطرانية كرسى المنوفية",
    "operator:type": "public"
  }
},
{
  "type": "hospital",
  "id": 7467342543,
  "lat": 31.1154724,
  "lon": 30.9341442,
  "tags": {
    "addr:country": "EG",
    "addr:district": "اول كفر الشيخ",
    "addr:district:en": "First Kafr Al Sheikh",
    "addr:housenumber": "6R",
    "addr:postcode": "33511",
    "addr:province": "كفر الشيخ",
    "addr:province:en": "Kafr Al Sheikh",
    "addr:street": "شارع فريد ندا",
    "addr:street:en": "Farid Nada Street",
    "addr:subdistrict": "على مصطفى الزواوي",
    "addr:subdistrict:en": "Ali Moustafa Al Zwawy",
    "amenity": "hospital",
    "healthcare": "hospital",
    "healthcare:speciality": "dentist",
    "name": "bakr dental clinic",
    "operator": "د.ابوبكر خضر",
    "operator:type": "public"
  }
},
{
  "type": "hospital",
  "id": 7468749889,
  "lat": 32.5628266,
  "lon": 35.7803963,
  "tags": {
    "amenity": "hospital",
    "healthcare": "hospital",
    "name": "مركز صحي زحر"
  }
},
{
  "type": "hospital",
  "id": 7500655104,
  "lat": 32.2744158,
  "lon": 35.0833396,
  "tags": {
    "amenity": "hospital",
    "healthcare": "hospital",
    "name": "عيادة قرية شوفة"
  }
},
{
  "type": "hospital",
  "id": 7631864486,
  "lat": 31.5316982,
  "lon": 35.0964046,
  "tags": {
    "addr:city": "الخليل",
    "amenity": "hospital",
    "name": "سان جون"
  }
},
{
  "type": "hospital",
  "id": 7635900880,
  "lat": 29.9811655,
  "lon": 31.3150310,
  "tags": {
    "amenity": "hospital",
    "healthcare": "hospital",
    "name": "Pharmancy"
  }
},
{
  "type": "hospital",
  "id": 7711113897,
  "lat": 29.2936000,
  "lon": 34.9386000,
  "tags": {
    "amenity": "hospital",
    "name": "مستشفى حقل العام"
  }
},
{
  "type": "hospital",
  "id": 7839787685,
  "lat": 32.4854792,
  "lon": 35.3022880,
  "tags": {
    "addr:street": "شارع الناصرة",
    "amenity": "hospital",
    "name": "منزل السيد ابو ايهاب"
  }
},
{
  "type": "hospital",
  "id": 7913143102,
  "lat": 28.3943678,
  "lon": 36.5435299,
  "tags": {
    "addr:city": "Tabuk",
    "amenity": "hospital",
    "healthcare": "hospital",
    "name": "King Khalid Hospital"
  }
},
{
  "type": "hospital",
  "id": 7968247693,
  "lat": 30.1241237,
  "lon": 31.1922102,
  "tags": {
    "amenity": "hospital",
    "emergency": "yes",
    "healthcare": "hospital",
    "name": "الوحدة الصحية بطناش",
    "name:ar": "الوحدة الصحية بطناش"
  }
},
{
  "type": "hospital",
  "id": 8290752130,
  "lat": 32.3104507,
  "lon": 34.9008276,
  "tags": {
    "amenity": "hospital",
    "healthcare": "hospital",
    "healthcare:speciality": "general",
    "name": "מוסך משאיות",
    "name:he": "מוסך משאיות"
  }
},
{
  "type": "hospital",
  "id": 8294020217,
  "lat": 29.5504564,
  "lon": 34.9416764,
  "tags": {
    "amenity": "hospital"
  }
},
{
  "type": "hospital",
  "id": 8315708200,
  "lat": 31.9350242,
  "lon": 24.9819496,
  "tags": {
    "amenity": "hospital",
    "healthcare": "hospital",
    "name": "المركز الصحي رأس عزاز",
    "name:en": "Ras Azaz Health Care"
  }
},
{
  "type": "hospital",
  "id": 8338840320,
  "lat": 32.0163346,
  "lon": 35.0666926,
  "tags": {
    "amenity": "hospital",
    "healthcare": "hospital",
    "name": "عيادة الدكتور نضال جابر م. سعادة"
  }
},
{
  "type": "hospital",
  "id": 8343379230,
  "lat": 30.0513860,
  "lon": 31.2383746,
  "tags": {
    "addr:city": "القاهرة",
    "addr:street": "شارع عبد الخالق ثروت",
    "amenity": "hospital",
    "healthcare": "hospital",
    "name": "مستشفى هيئة النقل العام",
    "operator": "هيئة النقل العام - مصر"
  }
},
{
  "type": "hospital",
  "id": 8378236702,
  "lat": 31.1388502,
  "lon": 30.1223348,
  "tags": {
    "addr:city": "كفر الدوار",
    "addr:street": "شارع احمد عرابى",
    "amenity": "hospital",
    "description": "فتح باب الحجز لدورات\n\nأعضاء لجان السلامة ( أساسي ومتقدم )\n\nأخصائي وفني السلامة ( أساسي ومتقدم )\n\nدورة التوعية بالسلامة والصحة المهنية\n\nدورة التوعية بالإسعافات الأولية\n\nدورة التوعية بالدفاع المدني والحريق\n\nدورة إدارة الأزمات والكوارث وكيفية وإعداد خطة الطو",
    "email": "workers.kafr.aldawwar@gmail.com",
    "emergency": "no",
    "healthcare": "hospital",
    "name": "مركز الثقافة العمالية بكفر الدوار",
    "note": "التواصل مع م . محمد الحناوي \nمدير مركز الثقافة العمالية بكفر الدوار \nعلي الأرقام الاتية\n01286090260 - 01027522240",
    "phone": "0452212143",
    "website": "https://www.facebook.com/Center.Culture.Workers.Kafr.alDawwar"
  }
},
{
  "type": "hospital",
  "id": 8391971717,
  "lat": 32.2367374,
  "lon": 35.2327041,
  "tags": {
    "amenity": "hospital",
    "internet_access": "wlan",
    "name": "مركز إسعاف غرب نابلس",
    "name:en": "Ambulance Center"
  }
},
{
  "type": "hospital",
  "id": 8405405096,
  "lat": 30.0218222,
  "lon": 31.0067546,
  "tags": {
    "addr:city": "مدينة الشيخ زايد",
    "addr:city:en": "El Sheikh Zayed City",
    "addr:country": "EG",
    "addr:district": "منطقة خدمات",
    "addr:district:en": "Services Area",
    "addr:housenumber": "27",
    "addr:postcode": "12588",
    "addr:province": "الجيزة",
    "addr:province:en": "El Giza",
    "addr:street": "شارع الزهور",
    "addr:street:en": "Al Zohor Street",
    "amenity": "hospital",
    "healthcare": "hospital",
    "name": "Rofayda Maternity Hospital"
  }
},
{
  "type": "hospital",
  "id": 8411329877,
  "lat": 30.0883955,
  "lon": 31.2990484,
  "tags": {
    "addr:country": "EG",
    "addr:district": "الزيتون القبليه",
    "addr:district:en": "Al Zaitoun Al Qibliyya",
    "addr:housenumber": "4",
    "addr:postcode": "11712",
    "addr:province": "القاهرة",
    "addr:province:en": "Cairo",
    "addr:street": "شارع الخبير",
    "addr:street:en": "Al Khabery Street",
    "amenity": "hospital",
    "healthcare": "hospital",
    "name": "مستشفى الحياة التخصصى"
  }
},
{
  "type": "hospital",
  "id": 8428974636,
  "lat": 32.0785101,
  "lon": 34.7973607,
  "tags": {
    "addr:city": "תל אביב-יפו",
    "addr:housenumber": "157",
    "addr:street": "יגאל אלון",
    "amenity": "hospital",
    "description": "מרפאת שיניים רב תחומית, בניהולו של ד\"ר מועד שואהנה המרפאה מספקת את כל טיפולי השיניים ובכללם, רפואת שיניים משמרת, רפואת שיניים אסתטית, שתלים, טיפולי שיניים בילדים. הטיפולים במרפאה מבוצעים תוך מתן שירות אדיב, ומקצועי ובציוד בטכנולוגיה מתקדמת. המרפאה הינה",
    "emergency": "yes",
    "healthcare": "hospital",
    "healthcare:speciality": "dental;dentist",
    "name": "מרכז לרפואת שיניים איאן",
    "name:en": "AYAN Dental Center",
    "name:he": "מרכז לרפואת שיניים איאן",
    "note": "רופא שיניים חירום 24/7"
  }
},
{
  "type": "hospital",
  "id": 8496848667,
  "lat": 30.1218731,
  "lon": 31.3664536,
  "tags": {
    "addr:country": "EG",
    "addr:district": "الهايكستب",
    "addr:district:en": "El Haykesteb",
    "addr:housenumber": "5",
    "addr:province": "القاهرة",
    "addr:province:en": "Cairo",
    "addr:street": "شارع احمد عبد النبى",
    "addr:street:en": "Ahmed Abd Al Naby Street",
    "addr:subdistrict": "النزهه الجديدة",
    "addr:subdistrict:en": "New Al Nozha",
    "amenity": "hospital",
    "healthcare": "hospital",
    "name": "مستشفى دكتور عادل صادق لعلاج الامراض النفسية و الإدمان",
    "name:en": "Doctor Adel Sadek Hospital for the treatment of mental illnesses and addictions"
  }
},
{
  "type": "hospital",
  "id": 8577025717,
  "lat": 31.8771055,
  "lon": 23.9229756,
  "tags": {
    "amenity": "hospital",
    "name": "مستشفي عمر المختار القروي",
    "name:en": "Omar Al Mukhtar Village Hospital"
  }
},
{
  "type": "hospital",
  "id": 8587308817,
  "lat": 32.0356354,
  "lon": 35.2757399,
  "tags": {
    "amenity": "hospital",
    "name": "مستشفى هوجو تشافيز للعيون -ترمسعيا",
    "name:en": "Hugo Chaves Eye Hospital-Turmusaya"
  }
},
{
  "type": "hospital",
  "id": 8676620117,
  "lat": 29.8875138,
  "lon": 31.0663286,
  "tags": {
    "amenity": "hospital"
  }
},
{
  "type": "hospital",
  "id": 8679556020,
  "lat": 31.2370413,
  "lon": 29.9576749,
  "tags": {
    "addr:street": "شارع عبد السلام عارف",
    "amenity": "hospital",
    "name": "المستشفى الألماني  مركز القلب الألماني",
    "name:en": "German Hospital and Cardiac Center",
    "opening_hours": "24/7",
    "phone": "2035858808"
  }
},
{
  "type": "hospital",
  "id": 8760628652,
  "lat": 31.7874502,
  "lon": 34.6437314,
  "tags": {
    "amenity": "hospital",
    "healthcare": "hospital"
  }
},
{
  "type": "hospital",
  "id": 8819019261,
  "lat": 30.4702651,
  "lon": 31.0724737,
  "tags": {
    "addr:city": "المقاطع",
    "addr:street": "طريق المقاطع, مناوهله",
    "amenity": "hospital",
    "healthcare": "hospital",
    "name": "الوحدة الصحية بقرية المقاطع"
  }
},
{
  "type": "hospital",
  "id": 8968577939,
  "lat": 30.8831696,
  "lon": 29.5737539,
  "tags": {
    "addr:city": "مدينه برج العرب الجديده",
    "amenity": "hospital",
    "emergency": "yes",
    "healthcare": "hospital",
    "healthcare:speciality": "general;internal;covid19;surgery",
    "name": "مستشفي برج العرب العام"
  }
},
{
  "type": "hospital",
  "id": 9006511017,
  "lat": 31.2392452,
  "lon": 29.9639700,
  "tags": {
    "amenity": "hospital",
    "name": "المسشتفى التخصصي لامراض الجهاز الهضمي والكبد"
  }
},
{
  "type": "hospital",
  "id": 9080144789,
  "lat": 25.5409083,
  "lon": 34.6167438,
  "tags": {
    "amenity": "hospital"
  }
},
{
  "type": "hospital",
  "id": 9103877759,
  "lat": 31.2754469,
  "lon": 34.8809483,
  "tags": {
    "amenity": "hospital",
    "healthcare": "hospital",
    "name": "כללית אום בטין",
    "name:he": "כללית אום בטין",
    "operator": "כללית",
    "operator:type": "عيادة",
    "wheelchair": "yes"
  }
},
{
  "type": "hospital",
  "id": 9297593802,
  "lat": 31.9535469,
  "lon": 35.9006799,
  "tags": {
    "addr:city": "amman",
    "addr:housenumber": "3",
    "addr:street": "شارع مثقال الفايز",
    "amenity": "hospital",
    "ele": "0",
    "healthcare": "dentist",
    "healthcare:speciality": "orthodontics;dentist",
    "image": "https://www.facebook.com/Dr.TareqShalan/photos/a.1683571721870933/2820753124819448",
    "name": "DENTALINE ORTHODONTICS",
    "phone": "0789220013",
    "shop": "packaging",
    "wheelchair": "yes"
  }
},
{
  "type": "hospital",
  "id": 9297631403,
  "lat": 31.9534279,
  "lon": 35.9006831,
  "tags": {
    "addr:city": "amman",
    "addr:housenumber": "3",
    "addr:street": "شارع مثقال الفايز",
    "amenity": "hospital",
    "ele": "0",
    "healthcare": "hospital",
    "healthcare:speciality": "dentist;orthodontics",
    "name": "مركز الدكتور طارق شعلان لطب وتقويم الأسنان",
    "phone": "00962799706931",
    "shop": "packaging",
    "wheelchair": "yes"
  }
},
{
  "type": "hospital",
  "id": 9349213302,
  "lat": 31.2018205,
  "lon": 29.9101858,
  "tags": {
    "amenity": "hospital",
    "healthcare": "hospital",
    "name": "Alsalama Hospital"
  }
},
{
  "type": "hospital",
  "id": 9368070837,
  "lat": 32.5018278,
  "lon": 35.9990219,
  "tags": {
    "amenity": "hospital",
    "healthcare": "hospital",
    "healthcare:speciality": "oncology",
    "name": "PROJECT SITE"
  }
},
{
  "type": "hospital",
  "id": 9385788533,
  "lat": 27.8609122,
  "lon": 34.3044024,
  "tags": {
    "amenity": "hospital",
    "healthcare": "hospital",
    "name": "Sinai Clinic Hospital",
    "name:en": "Sinai Clinic Hospital"
  }
},
{
  "type": "hospital",
  "id": 9509648007,
  "lat": 30.0125466,
  "lon": 31.2289619,
  "tags": {
    "amenity": "hospital",
    "healthcare": "hospital",
    "name": "دار السلام للأورام (هرمل)"
  }
},
{
  "type": "hospital",
  "id": 9515698717,
  "lat": 31.7843327,
  "lon": 35.2184518,
  "tags": {
    "amenity": "hospital",
    "tourism": "attraction"
  }
},
{
  "type": "hospital",
  "id": 9515706817,
  "lat": 31.7841553,
  "lon": 35.2187383,
  "tags": {
    "amenity": "hospital",
    "name:ru": "Бикур холим"
  }
},
{
  "type": "hospital",
  "id": 9521598796,
  "lat": 32.1567673,
  "lon": 23.7496847,
  "tags": {
    "amenity": "hospital",
    "healthcare": "hospital",
    "name": "البلنسينه camps de refugies"
  }
},
{
  "type": "hospital",
  "id": 9568706448,
  "lat": 29.9956129,
  "lon": 31.1514353,
  "tags": {
    "addr:street": "شارع الملك فيصل",
    "amenity": "hospital",
    "name": "مستشفى الجابري"
  }
},
{
  "type": "hospital",
  "id": 9568725004,
  "lat": 29.9455923,
  "lon": 31.1884810,
  "tags": {
    "amenity": "hospital",
    "name": "مستشفى شبرامنت المركزي"
  }
},
{
  "type": "hospital",
  "id": 9592824073,
  "lat": 32.5505286,
  "lon": 35.7611940,
  "tags": {
    "amenity": "hospital",
    "healthcare": "hospital",
    "name": "مركز صحي كفرعان"
  }
},
{
  "type": "hospital",
  "id": 9594254673,
  "lat": 32.3696619,
  "lon": 35.9724446,
  "tags": {
    "addr:city": "جرش",
    "addr:housenumber": "112",
    "addr:street": "شارع البلدية",
    "amenity": "hospital",
    "emergency": "yes",
    "healthcare": "hospital",
    "healthcare:speciality": "general;chiropractic;gynaecology;biology;paediatrics;ophthalmology",
    "name": "مركز  صحي المشيرفة",
    "operator": "مركز صحي",
    "operator:type": "government"
  }
},
{
  "type": "hospital",
  "id": 9606499144,
  "lat": 32.3642206,
  "lon": 35.6583299,
  "tags": {
    "amenity": "hospital",
    "healthcare": "hospital",
    "name": "مركز صحي الهاشميه الأولي"
  }
},
{
  "type": "hospital",
  "id": 9612404216,
  "lat": 30.1017279,
  "lon": 31.3237646,
  "tags": {
    "addr:country": "EG",
    "addr:district": "مصر الجديده",
    "addr:district:en": "Heliopolis",
    "addr:housename": "Al Khalifa Al Rashideen Specialized Hospital",
    "addr:housenumber": "1",
    "addr:postcode": "11757",
    "addr:province": "القاهرة",
    "addr:province:en": "Cairo",
    "addr:street": "شارع السباق",
    "addr:street:en": "Al Sebaq Street",
    "addr:subdistrict": "البستان",
    "addr:subdistrict:en": "El Bostan",
    "amenity": "hospital"
  }
},
{
  "type": "hospital",
  "id": 9625721417,
  "lat": 31.7905968,
  "lon": 35.2089660,
  "tags": {
    "amenity": "hospital",
    "name": "מרכז רפואי מקור ברוך",
    "name:he": "מרכז רפואי מקור ברוך"
  }
},
{
  "type": "hospital",
  "id": 9647821337,
  "lat": 32.5360440,
  "lon": 35.8674790,
  "tags": {
    "amenity": "hospital",
    "healthcare": "hospital",
    "name": "مستشفى أبن النفيس"
  }
},
{
  "type": "hospital",
  "id": 9647821344,
  "lat": 32.5359356,
  "lon": 35.8668799,
  "tags": {
    "amenity": "hospital",
    "healthcare": "hospital",
    "name": "مستشفى أبن النفيس"
  }
},
{
  "type": "hospital",
  "id": 9648152027,
  "lat": 31.2025983,
  "lon": 29.9059535,
  "tags": {
    "amenity": "hospital",
    "healthcare": "hospital",
    "name": "Department for Internal Medicine"
  }
},
{
  "type": "hospital",
  "id": 9651950237,
  "lat": 29.9967716,
  "lon": 31.1545246,
  "tags": {
    "amenity": "hospital",
    "name": "مستشفى الحبيب التخصصي"
  }
},
{
  "type": "hospital",
  "id": 9670857598,
  "lat": 30.9532282,
  "lon": 31.1498471,
  "tags": {
    "amenity": "hospital",
    "healthcare": "hospital",
    "name": "مستشفى صدر المحلة",
    "name:en": "Chest Hospital"
  }
},
{
  "type": "hospital",
  "id": 9670898287,
  "lat": 30.0574105,
  "lon": 31.2952468,
  "tags": {
    "amenity": "hospital",
    "healthcare": "hospital",
    "name": "مستشفى الامراض الصدرية بالعباسية",
    "name:en": "Abassya Chest Diseases Hospital"
  }
},
{
  "type": "hospital",
  "id": 9697106717,
  "lat": 30.0926606,
  "lon": 31.2459649,
  "tags": {
    "addr:housenumber": "3",
    "addr:street": "شارع منيه السيرج",
    "amenity": "hospital",
    "email": "info@alsafwahospital.net",
    "name": "مستشفى الصفوة",
    "name:en": "Alsafwa Hospital",
    "opening_hours": "24/7",
    "phone": "22042650;24302001;01099926026",
    "website": "http://www.alsafwahospital.net"
  }
},
{
  "type": "hospital",
  "id": 9750285595,
  "lat": 30.1636403,
  "lon": 31.5533044,
  "tags": {
    "addr:city": "Future City, Cairo",
    "addr:street": "28th U",
    "amenity": "hospital",
    "emergency": "no",
    "healthcare": "hospital",
    "healthcare:speciality": "obstetrics;gynaecology;fertility",
    "name": "Dr. Hani Allawy Clinic"
  }
},
{
  "type": "hospital",
  "id": 9762746673,
  "lat": 29.9926236,
  "lon": 31.1632560,
  "tags": {
    "amenity": "hospital",
    "name": "مستشفى الرحاب التخصصي"
  }
},
{
  "type": "hospital",
  "id": 9764636806,
  "lat": 30.0965609,
  "lon": 31.3284172,
  "tags": {
    "addr:country": "EG",
    "addr:district": "مصر الجديده",
    "addr:district:en": "Heliopolis",
    "addr:housenumber": "2",
    "addr:postcode": "11757",
    "addr:province": "القاهرة",
    "addr:province:en": "Cairo",
    "addr:street": "ميدان الجامع",
    "addr:street:en": "The Mosque Square",
    "addr:subdistrict": "البستان",
    "addr:subdistrict:en": "El Bostan",
    "amenity": "hospital",
    "healthcare": "hospital",
    "name": "مستشفي جمال الدين الافغاني",
    "name:ar": "مستشفي جمال الدين الافغاني",
    "name:en": "Jamal Al Din Afghani Hospital"
  }
},
{
  "type": "hospital",
  "id": 9787616082,
  "lat": 27.9324626,
  "lon": 30.8216168,
  "tags": {
    "amenity": "hospital",
    "healthcare": "hospital",
    "name": "مستشفي العروة الوثقي"
  }
},
{
  "type": "hospital",
  "id": 9787616090,
  "lat": 27.9372015,
  "lon": 30.8232068,
  "tags": {
    "amenity": "hospital",
    "healthcare": "hospital",
    "name": "مستشفي الفكرية العام"
  }
},
{
  "type": "hospital",
  "id": 9809753775,
  "lat": 30.0047923,
  "lon": 31.1866866,
  "tags": {
    "amenity": "hospital",
    "name": "مستشفى بهيه لعلاج سرطان الثدي"
  }
},
{
  "type": "hospital",
  "id": 9835333506,
  "lat": 31.9688992,
  "lon": 35.9120413,
  "tags": {
    "amenity": "hospital",
    "healthcare": "hospital",
    "name": "Al-Kindi Hospital"
  }
},
{
  "type": "hospital",
  "id": 9850700146,
  "lat": 30.0940053,
  "lon": 31.3271290,
  "tags": {
    "addr:country": "EG",
    "addr:district": "مصر الجديده",
    "addr:district:en": "Heliopolis",
    "addr:housenumber": "1",
    "addr:postcode": "11757",
    "addr:province": "القاهرة",
    "addr:province:en": "Cairo",
    "addr:street": "شارع عثمان بن عفان",
    "addr:street:en": "Othman Ibn Affan Street",
    "addr:subdistrict": "البستان",
    "addr:subdistrict:en": "El Bostan",
    "amenity": "hospital",
    "healthcare": "hospital",
    "name": "مستشفي سانت ريتا",
    "name:en": "Sant Rita Hospital"
  }
},
{
  "type": "hospital",
  "id": 9882340517,
  "lat": 31.5274547,
  "lon": 34.4525777,
  "tags": {
    "amenity": "hospital",
    "healthcare": "hospital"
  }
},
{
  "type": "hospital",
  "id": 9974960728,
  "lat": 30.5499895,
  "lon": 31.0217183,
  "tags": {
    "amenity": "hospital",
    "name": "home"
  }
},
{
  "type": "hospital",
  "id": 9974961422,
  "lat": 30.1139213,
  "lon": 31.3182019,
  "tags": {
    "amenity": "hospital",
    "name": "مستشفى الحلميه العسكرى"
  }
},
{
  "type": "hospital",
  "id": 10033391519,
  "lat": 30.1932457,
  "lon": 31.6582147,
  "tags": {
    "addr:housenumber": "42 km",
    "addr:street": "طريق القاهرة, الاسماعيليه الصحراوي",
    "amenity": "hospital",
    "name": "المركز الطبى العالمى",
    "name:en": "International Medical Center"
  }
},
{
  "type": "hospital",
  "id": 10090674554,
  "lat": 30.7307718,
  "lon": 31.7928647,
  "tags": {
    "amenity": "hospital",
    "healthcare": "hospital"
  }
},
{
  "type": "hospital",
  "id": 10207020117,
  "lat": 30.2221383,
  "lon": 31.4826926,
  "tags": {
    "amenity": "hospital",
    "name": "مستشفى فريد حبيب"
  }
},
{
  "type": "hospital",
  "id": 10222968799,
  "lat": 31.2033913,
  "lon": 29.9097886,
  "tags": {
    "amenity": "hospital",
    "healthcare": "hospital"
  }
},
{
  "type": "hospital",
  "id": 10250750009,
  "lat": 31.9246957,
  "lon": 35.2070029,
  "tags": {
    "addr:street": "Ersal St. شارع الإرسال",
    "amenity": "hospital",
    "internet_access": "wlan",
    "name": "اتش كلينيك",
    "name:en": "H clinic hospital",
    "opening_hours": "24/7",
    "phone": "02-2962204",
    "website": "http://Hclinic.ps"
  }
},
{
  "type": "hospital",
  "id": 10280525304,
  "lat": 30.0807161,
  "lon": 31.3326320,
  "tags": {
    "amenity": "hospital",
    "healthcare": "hospital",
    "name": "مركز الدرة التخصصي للعيون",
    "name:en": "Durrah Eye Center",
    "operator": "مركز الدرة التخصصي للعيون",
    "operator:type": "private"
  }
},
{
  "type": "hospital",
  "id": 10310788409,
  "lat": 30.1451471,
  "lon": 31.7233948,
  "tags": {
    "amenity": "hospital",
    "email": "badr_hospital@outlook.com",
    "name": "مستشفي بدر الجامعي - جامعة حلوان",
    "wheelchair": "yes"
  }
},
{
  "type": "hospital",
  "id": 10570500010,
  "lat": 28.5138493,
  "lon": 34.5103373,
  "tags": {
    "amenity": "hospital",
    "name:en": "Mountain View hospital"
  }
},
{
  "type": "hospital",
  "id": 10588646405,
  "lat": 32.4676592,
  "lon": 35.2864506,
  "tags": {
    "amenity": "hospital"
  }
},
{
  "type": "hospital",
  "id": 10651046978,
  "lat": 31.1715054,
  "lon": 32.0172920,
  "tags": {
    "amenity": "hospital",
    "healthcare": "hospital",
    "name": "الوحدة الصحية بالعصافرة",
    "name:en": "Al-Asafra Health Center"
  }
},
{
  "type": "hospital",
  "id": 10665347605,
  "lat": 31.5206563,
  "lon": 35.1104547,
  "tags": {
    "amenity": "hospital",
    "name": "لجان العمل الصحي",
    "name:en": "Hebron Emergency Center"
  }
},
{
  "type": "hospital",
  "id": 10676089794,
  "lat": 29.3073584,
  "lon": 30.8499091,
  "tags": {
    "addr:city": "قسم رابع",
    "addr:housenumber": "8",
    "addr:postcode": "63523",
    "addr:street": "شارع الورشة",
    "amenity": "hospital",
    "emergency": "yes",
    "healthcare": "hospital",
    "healthcare:speciality": "gynaecology",
    "name": "Dr. Ahmed Zidan Center",
    "operator": "د. أحمد زيدان",
    "operator:type": "private"
  }
},
{
  "type": "hospital",
  "id": 10706283405,
  "lat": 31.5375155,
  "lon": 34.4696396,
  "tags": {
    "amenity": "hospital",
    "healthcare": "hospital",
    "name": "مخبز العائلات"
  }
},
{
  "type": "hospital",
  "id": 10737990659,
  "lat": 29.5880547,
  "lon": 32.7120495,
  "tags": {
    "addr:city": "Ras Sudr",
    "addr:street": "شارع المستشفى",
    "amenity": "hospital",
    "healthcare": "hospital"
  }
},
{
  "type": "hospital",
  "id": 10749393305,
  "lat": 30.6481232,
  "lon": 31.0534087,
  "tags": {
    "addr:city": "شنتنا الحجر",
    "addr:postcode": "32567",
    "addr:street": "شارع تلا",
    "amenity": "hospital",
    "emergency": "yes",
    "healthcare": "hospital",
    "healthcare:speciality": "tropical",
    "name": "Shintina Alhajar Tropical",
    "operator": "حميات شنتنا الحجر",
    "operator:type": "government"
  }
},
{
  "type": "hospital",
  "id": 10784198106,
  "lat": 29.9836290,
  "lon": 30.9842413,
  "tags": {
    "addr:street": "شارع عبد المنعم رياض",
    "amenity": "hospital",
    "opening_hours": "24/7"
  }
},
{
  "type": "hospital",
  "id": 10872863117,
  "lat": 31.9790717,
  "lon": 35.8989405,
  "tags": {
    "addr:city": "عمان",
    "addr:housenumber": "8",
    "addr:street": "شارع حنين بن إسحاق",
    "amenity": "hospital",
    "healthcare": "hospital",
    "healthcare:speciality": "general",
    "name": "Al-JazeeraHospital"
  }
},
{
  "type": "hospital",
  "id": 10925249053,
  "lat": 28.3191358,
  "lon": 30.7071597,
  "tags": {
    "amenity": "hospital",
    "healthcare": "hospital",
    "name": "الراعي الصالح"
  }
},
{
  "type": "hospital",
  "id": 11050738962,
  "lat": 30.8663667,
  "lon": 31.3623926,
  "tags": {
    "amenity": "hospital",
    "healthcare": "hospital",
    "healthcare:speciality": "general",
    "name": "الوحدة الصحية بقرية دروة",
    "operator": "Family medicine unit",
    "operator:type": "government"
  }
},
{
  "type": "hospital",
  "id": 11062933653,
  "lat": 31.4309793,
  "lon": 35.2450526,
  "tags": {
    "amenity": "hospital",
    "healthcare": "hospital",
    "name": "الهلال"
  }
},
{
  "type": "hospital",
  "id": 11062960710,
  "lat": 31.4224143,
  "lon": 35.2338881,
  "tags": {
    "amenity": "hospital",
    "healthcare": "hospital",
    "name": "hospital"
  }
},
{
  "type": "hospital",
  "id": 11210315591,
  "lat": 30.3238623,
  "lon": 31.7320924,
  "tags": {
    "amenity": "hospital",
    "healthcare": "hospital",
    "name": "university hospital",
    "name:ar": "مستشفي الجامعة"
  }
},
{
  "type": "hospital",
  "id": 11257108018,
  "lat": 29.9611824,
  "lon": 31.2631753,
  "tags": {
    "amenity": "hospital",
    "check_date": "2023-10-11",
    "healthcare": "hospital",
    "name": "Maadi Maternity Hospital (Hossam Shalaby)",
    "name:ar": "مستشفى حسام شلبي للولادة",
    "operator:type": "private"
  }
},
{
  "type": "hospital",
  "id": 11278273768,
  "lat": 30.0116999,
  "lon": 31.3031698,
  "tags": {
    "addr:country": "EG",
    "addr:district": "المقطم",
    "addr:district:en": "El Mukkatam",
    "addr:housenumber": "1",
    "addr:postcode": "11571",
    "addr:province": "القاهرة",
    "addr:province:en": "Cairo",
    "addr:street": "شارع جامع القدس",
    "addr:street:en": "Al Qods Mosque Street",
    "addr:subdistrict": "الشرق للتأمين",
    "addr:subdistrict:en": "East Insurance",
    "amenity": "hospital",
    "healthcare": "hospital",
    "healthcare:speciality": "general;ophthalmology;dentist;dermatology;osteopathy;physiotherapy",
    "name": "9th Street Clinic",
    "name:ar": "عيادات شارع 9"
  }
},
{
  "type": "hospital",
  "id": 11366207025,
  "lat": 29.9740094,
  "lon": 31.3334192,
  "tags": {
    "addr:city": "cairo",
    "addr:housenumber": "12",
    "addr:street": "بيتشو أمريكان سيتى - زهراء المعادى - أمام تيجان كمباوند بوابة 1",
    "amenity": "hospital",
    "healthcare": "hospital",
    "healthcare:speciality": "general",
    "name": "Pearl Hospitals"
  }
},
{
  "type": "hospital",
  "id": 11385674029,
  "lat": 22.3489148,
  "lon": 31.6190520,
  "tags": {
    "amenity": "hospital",
    "name": "Abu Simbel International Hospital",
    "name:en": "Abu Simbel International Hospital",
    "name:es": "Hospital International de Abu Simbel"
  }
},
{
  "type": "hospital",
  "id": 11428395042,
  "lat": 31.2749094,
  "lon": 30.0062183,
  "tags": {
    "addr:country": "EG",
    "addr:district": "ثان المنتزه",
    "addr:district:en": "Second Al Montazah",
    "addr:housenumber": "43",
    "addr:postcode": "71618",
    "addr:province": "الاسكندرية",
    "addr:province:en": "Alexandria",
    "addr:street": "شارع الإمام الاكبر عبد الحليم محمود",
    "addr:street:en": "Al Imam Al Akbar Abd Al Halim Mahmoud Street",
    "addr:subdistrict": "المندره بحرى",
    "addr:subdistrict:en": "Al Mandarah Bahary",
    "amenity": "hospital",
    "name": "مستشفي الإمام",
    "name:ar": "مستشفي الإمام",
    "name:en": "Al Imam Hospital",
    "note": "متفرع من طريق الجيش",
    "note:en": "From Al Geish Road"
  }
},
{
  "type": "hospital",
  "id": 11498990369,
  "lat": 29.8817535,
  "lon": 31.3081906,
  "tags": {
    "amenity": "hospital",
    "name": "صيدليه ضحي"
  }
},
{
  "type": "hospital",
  "id": 11589018926,
  "lat": 29.8291170,
  "lon": 31.2922157,
  "tags": {
    "amenity": "hospital",
    "healthcare": "hospital"
  }
},
{
  "type": "hospital",
  "id": 11687442021,
  "lat": 29.8925338,
  "lon": 31.2204031,
  "tags": {
    "amenity": "hospital",
    "name": "الوحده الصحيه بأبو صير"
  }
},
{
  "type": "hospital",
  "id": 11717365888,
  "lat": 25.7082575,
  "lon": 32.6489707,
  "tags": {
    "amenity": "hospital",
    "healthcare": "hospital"
  }
},
{
  "type": "hospital",
  "id": 11806695605,
  "lat": 31.5239124,
  "lon": 34.4433958,
  "tags": {
    "amenity": "hospital",
    "healthcare": "hospital",
    "name": "AL-SHIFA"
  }
},
{
  "type": "hospital",
  "id": 11828714323,
  "lat": 27.1970938,
  "lon": 33.8268886,
  "tags": {
    "amenity": "hospital",
    "healthcare": "hospital"
  }
},
{
  "type": "hospital",
  "id": 11936598969,
  "lat": 27.9060362,
  "lon": 34.3147939,
  "tags": {
    "amenity": "hospital",
    "name:ru": "больница для туристов по страховке"
  }
},
{
  "type": "hospital",
  "id": 11959610699,
  "lat": 30.0104051,
  "lon": 31.1917095,
  "tags": {
    "amenity": "hospital",
    "name": "مستشفى الجابري"
  }
},
{
  "type": "hospital",
  "id": 11959624386,
  "lat": 30.0101478,
  "lon": 31.1923522,
  "tags": {
    "amenity": "hospital",
    "name": "مستشفى الجزيرة"
  }
},
{
  "type": "hospital",
  "id": 12045708330,
  "lat": 32.0065705,
  "lon": 35.8842861,
  "tags": {
    "addr:city": "amman",
    "addr:housenumber": "51",
    "addr:postcode": "1183",
    "addr:street": "شارع عاكف الفايز",
    "amenity": "hospital",
    "healthcare": "hospital",
    "healthcare:speciality": "dentist;plastic_surgery;general;dermatology;orthopaedics;chiropractic;acupuncture;blood_check;transplant",
    "name": "مركز أميمة الطبي"
  }
},
{
  "type": "hospital",
  "id": 12086908690,
  "lat": 27.2581771,
  "lon": 33.8066829,
  "tags": {
    "amenity": "hospital",
    "check_date": "2024-08-01",
    "healthcare": "hospital",
    "name": "Phisical Therapy Center"
  }
}
}